{
"type": "FeatureCollection",
"name": "geo_07_訪問入浴介護",
"crs": { "type": "name", "properties": { "name": "urn:ogc:def:crs:OGC:1.3:CRS84" } },
"features": [
{ "type": "Feature", "properties": { "内容": "アサヒサンクリーン在宅介護センター福島【訪問入浴介護】福島県福島市南矢野目字高田5", "url2": "https://www.kaigokensaku.mhlw.go.jp/07/index.php?action_kouhyou_detail_004_kani=true&JigyosyoCd=0770103471-00&ServiceCd=120&Type=search" }, "geometry": { "type": "Point", "coordinates": [ 140.468888435473673, 37.786543096021347 ] } },
{ "type": "Feature", "properties": { "内容": "民間救急警備株式会社　福島営業所【訪問入浴介護】福島県福島市森合字台３番地の２８", "url2": "https://www.kaigokensaku.mhlw.go.jp/07/index.php?action_kouhyou_detail_004_kani=true&JigyosyoCd=0770100519-00&ServiceCd=120&Type=search" }, "geometry": { "type": "Point", "coordinates": [ 140.457304499999935, 37.7646107 ] } },
{ "type": "Feature", "properties": { "内容": "訪問スパ　スマイル飯坂　温泉入浴サービス【訪問入浴介護】飯坂町小滝20-29", "url2": "https://www.kaigokensaku.mhlw.go.jp/07/index.php?action_kouhyou_detail_004_kani=true&JigyosyoCd=0770106474-00&ServiceCd=120&Type=search" }, "geometry": { "type": "Point", "coordinates": [ 140.4488414, 37.8364982 ] } },
{ "type": "Feature", "properties": { "内容": "有限会社キューピット介護サービス【訪問入浴介護】福島県福島市泉字二斗蒔１８－１５", "url2": "https://www.kaigokensaku.mhlw.go.jp/07/index.php?action_kouhyou_detail_004_kani=true&JigyosyoCd=0770101350-00&ServiceCd=120&Type=search" }, "geometry": { "type": "Point", "coordinates": [ 140.451517245399486, 37.775306940835762 ] } },
{ "type": "Feature", "properties": { "内容": "アースサポート福島【訪問入浴介護】福島県福島市曾根田町６番１０号", "url2": "https://www.kaigokensaku.mhlw.go.jp/07/index.php?action_kouhyou_detail_004_kani=true&JigyosyoCd=0770101830-00&ServiceCd=120&Type=search" }, "geometry": { "type": "Point", "coordinates": [ 140.459497109123248, 37.761932650056238 ] } },
{ "type": "Feature", "properties": { "内容": "ツクイ会津【訪問入浴介護】福島県会津若松市中央1-5-30", "url2": "https://www.kaigokensaku.mhlw.go.jp/07/index.php?action_kouhyou_detail_004_kani=true&JigyosyoCd=0770202430-00&ServiceCd=120&Type=search" }, "geometry": { "type": "Point", "coordinates": [ 139.9305669, 37.5005651 ] } },
{ "type": "Feature", "properties": { "内容": "アースサポート会津若松【訪問入浴介護】福島県会津若松市滝沢町7番17号", "url2": "https://www.kaigokensaku.mhlw.go.jp/07/index.php?action_kouhyou_detail_004_kani=true&JigyosyoCd=0770201473-00&ServiceCd=120&Type=search" }, "geometry": { "type": "Point", "coordinates": [ 139.9430552, 37.5051878 ] } },
{ "type": "Feature", "properties": { "内容": "SOMPOケア　郡山　訪問入浴【訪問入浴介護】名倉290-1", "url2": "https://www.kaigokensaku.mhlw.go.jp/07/index.php?action_kouhyou_detail_004_kani=true&JigyosyoCd=0770305522-00&ServiceCd=120&Type=search" }, "geometry": { "type": "Point", "coordinates": [ 140.3683648, 37.3740164 ] } },
{ "type": "Feature", "properties": { "内容": "アサヒサンクリーン在宅介護センター郡山【訪問入浴介護】郡山市桑野2-25-11Ｆビル101", "url2": "https://www.kaigokensaku.mhlw.go.jp/07/index.php?action_kouhyou_detail_004_kani=true&JigyosyoCd=0770304186-00&ServiceCd=120&Type=search" }, "geometry": { "type": "Point", "coordinates": [ 140.353425900000047, 37.4026897 ] } },
{ "type": "Feature", "properties": { "内容": "すまいるケア訪問入浴【訪問入浴介護】福島県郡山市中野二丁目１６１", "url2": "https://www.kaigokensaku.mhlw.go.jp/07/index.php?action_kouhyou_detail_004_kani=true&JigyosyoCd=0770306249-00&ServiceCd=120&Type=search" }, "geometry": { "type": "Point", "coordinates": [ 140.3297642, 37.3892074 ] } },
{ "type": "Feature", "properties": { "内容": "民間救急警備株式会社郡山本社営業所【訪問入浴介護】福島県郡山市開成六丁目212番地の1", "url2": "https://www.kaigokensaku.mhlw.go.jp/07/index.php?action_kouhyou_detail_004_kani=true&JigyosyoCd=0770300390-00&ServiceCd=120&Type=search" }, "geometry": { "type": "Point", "coordinates": [ 140.352213949073814, 37.386205050576081 ] } },
{ "type": "Feature", "properties": { "内容": "丸光産業株式会社　丸光ケアサービス　あたみ【訪問入浴介護】福島県郡山市熱海町熱海5丁目283", "url2": "https://www.kaigokensaku.mhlw.go.jp/07/index.php?action_kouhyou_detail_004_kani=true&JigyosyoCd=0770305670-00&ServiceCd=120&Type=search" }, "geometry": { "type": "Point", "coordinates": [ 140.261673299999984, 37.4879439 ] } },
{ "type": "Feature", "properties": { "内容": "丸光産業株式会社　丸光ケアサービス田村支店【訪問入浴介護】福島県郡山市田村町下行合字宮田１３０－８５", "url2": "https://www.kaigokensaku.mhlw.go.jp/07/index.php?action_kouhyou_detail_004_kani=true&JigyosyoCd=0770301927-00&ServiceCd=120&Type=search" }, "geometry": { "type": "Point", "coordinates": [ 140.410291799999982, 37.3707303 ] } },
{ "type": "Feature", "properties": { "内容": "丸光産業株式会社　丸光ケアサービス　富田支店【訪問入浴介護】福島県郡山市備前舘1-30", "url2": "https://www.kaigokensaku.mhlw.go.jp/07/index.php?action_kouhyou_detail_004_kani=true&JigyosyoCd=0770300242-00&ServiceCd=120&Type=search" }, "geometry": { "type": "Point", "coordinates": [ 140.3646023, 37.4162803 ] } },
{ "type": "Feature", "properties": { "内容": "アースサポート郡山【訪問入浴介護】福島県郡山市桑野2丁目22番1号", "url2": "https://www.kaigokensaku.mhlw.go.jp/07/index.php?action_kouhyou_detail_004_kani=true&JigyosyoCd=0770301992-00&ServiceCd=120&Type=search" }, "geometry": { "type": "Point", "coordinates": [ 140.3557466, 37.4017228 ] } },
{ "type": "Feature", "properties": { "内容": "社会福祉法人郡山市社会福祉協議会ホームヘルプサービスセンター【訪問入浴介護】福島県郡山市深沢二丁目4番12号", "url2": "https://www.kaigokensaku.mhlw.go.jp/07/index.php?action_kouhyou_detail_004_kani=true&JigyosyoCd=0770300564-00&ServiceCd=120&Type=search" }, "geometry": { "type": "Point", "coordinates": [ 140.3700936, 37.3897013 ] } },
{ "type": "Feature", "properties": { "内容": "i-step訪問入浴【訪問入浴介護】いわき市平上荒川字桜町２１-１", "url2": "https://www.kaigokensaku.mhlw.go.jp/07/index.php?action_kouhyou_detail_004_kani=true&JigyosyoCd=0770409068-00&ServiceCd=120&Type=search" }, "geometry": { "type": "Point", "coordinates": [ 140.888851, 37.034211200000016 ] } },
{ "type": "Feature", "properties": { "内容": "アサヒサンクリーン在宅介護センターいわき【訪問入浴介護】福島県いわき市泉町７－２１－１ルヴァン１階", "url2": "https://www.kaigokensaku.mhlw.go.jp/07/index.php?action_kouhyou_detail_004_kani=true&JigyosyoCd=0770405009-00&ServiceCd=120&Type=search" }, "geometry": { "type": "Point", "coordinates": [ 140.859560869836429, 36.954484460718753 ] } },
{ "type": "Feature", "properties": { "内容": "株式会社　大間シルバーケア　訪問入浴事業所【訪問入浴介護】福島県いわき市平中神谷字南鳥沼27", "url2": "https://www.kaigokensaku.mhlw.go.jp/07/index.php?action_kouhyou_detail_004_kani=true&JigyosyoCd=0770400067-00&ServiceCd=120&Type=search" }, "geometry": { "type": "Point", "coordinates": [ 140.934619800000064, 37.063336 ] } },
{ "type": "Feature", "properties": { "内容": "いわき市社会福祉協議会　指定訪問入浴介護事業所【訪問入浴介護】福島県いわき市平字菱川町1-3", "url2": "https://www.kaigokensaku.mhlw.go.jp/07/index.php?action_kouhyou_detail_004_kani=true&JigyosyoCd=0770400703-00&ServiceCd=120&Type=search" }, "geometry": { "type": "Point", "coordinates": [ 140.891084, 37.0506724 ] } },
{ "type": "Feature", "properties": { "内容": "（株）愛心会365日ほっと入浴【訪問入浴介護】福島県いわき市佐糠町東一丁目10-８", "url2": "https://www.kaigokensaku.mhlw.go.jp/07/index.php?action_kouhyou_detail_004_kani=true&JigyosyoCd=0770400752-00&ServiceCd=120&Type=search" }, "geometry": { "type": "Point", "coordinates": [ 140.805712455819759, 36.919066240787366 ] } },
{ "type": "Feature", "properties": { "内容": "アースサポートいわき【訪問入浴介護】福島県いわき市平祢宜町１番地の２", "url2": "https://www.kaigokensaku.mhlw.go.jp/07/index.php?action_kouhyou_detail_004_kani=true&JigyosyoCd=0770402931-00&ServiceCd=120&Type=search" }, "geometry": { "type": "Point", "coordinates": [ 140.902299099999937, 37.0574995 ] } },
{ "type": "Feature", "properties": { "内容": "民間救急警備株式会社　白河営業所【訪問入浴介護】福島県白河市昭和町　１４－３", "url2": "https://www.kaigokensaku.mhlw.go.jp/07/index.php?action_kouhyou_detail_004_kani=true&JigyosyoCd=0770500155-00&ServiceCd=120&Type=search" }, "geometry": { "type": "Point", "coordinates": [ 140.202376186863717, 37.130103695293762 ] } },
{ "type": "Feature", "properties": { "内容": "アサヒサンクリーン在宅介護センター須賀川【訪問入浴介護】福島県須賀川市館取町115", "url2": "https://www.kaigokensaku.mhlw.go.jp/07/index.php?action_kouhyou_detail_004_kani=true&JigyosyoCd=0770701480-00&ServiceCd=120&Type=search" }, "geometry": { "type": "Point", "coordinates": [ 140.3648382, 37.2922454 ] } },
{ "type": "Feature", "properties": { "内容": "アースサポート須賀川【訪問入浴介護】福島県須賀川市塚田133カトルセゾン105", "url2": "https://www.kaigokensaku.mhlw.go.jp/07/index.php?action_kouhyou_detail_004_kani=true&JigyosyoCd=0770701001-00&ServiceCd=120&Type=search" }, "geometry": { "type": "Point", "coordinates": [ 140.374003076686449, 37.298140557014811 ] } },
{ "type": "Feature", "properties": { "内容": "丸光産業株式会社　丸光ケアサービス森宿【訪問入浴介護】福島県須賀川市森宿字狐石127-1", "url2": "https://www.kaigokensaku.mhlw.go.jp/07/index.php?action_kouhyou_detail_004_kani=true&JigyosyoCd=0770700953-00&ServiceCd=120&Type=search" }, "geometry": { "type": "Point", "coordinates": [ 140.360655100000031, 37.306117 ] } },
{ "type": "Feature", "properties": { "内容": "ニチイケアセンター須賀川【訪問入浴介護】福島県須賀川市塚田74ヨネクラビル2F", "url2": "https://www.kaigokensaku.mhlw.go.jp/07/index.php?action_kouhyou_detail_004_kani=true&JigyosyoCd=0770700268-00&ServiceCd=120&Type=search" }, "geometry": { "type": "Point", "coordinates": [ 140.372743200000059, 37.2998538 ] } },
{ "type": "Feature", "properties": { "内容": "アサヒサンクリーン在宅介護センター相馬【訪問入浴介護】福島県相馬市沖ノ内２丁目１5-４フラット　101号室", "url2": "https://www.kaigokensaku.mhlw.go.jp/07/index.php?action_kouhyou_detail_004_kani=true&JigyosyoCd=0770900694-00&ServiceCd=120&Type=search" }, "geometry": { "type": "Point", "coordinates": [ 140.932556555819673, 37.806502354408039 ] } },
{ "type": "Feature", "properties": { "内容": "そうま・ほっと入浴サービス【訪問入浴介護】福島県相馬市今田字大竹３４", "url2": "https://www.kaigokensaku.mhlw.go.jp/07/index.php?action_kouhyou_detail_004_kani=true&JigyosyoCd=0770900306-00&ServiceCd=120&Type=search" }, "geometry": { "type": "Point", "coordinates": [ 140.902916499999947, 37.7811941 ] } },
{ "type": "Feature", "properties": { "内容": "居宅介護事業所でんでん虫【訪問入浴介護】福島県相馬市中野字北反町８５番地", "url2": "https://www.kaigokensaku.mhlw.go.jp/07/index.php?action_kouhyou_detail_004_kani=true&JigyosyoCd=0770900587-00&ServiceCd=120&Type=search" }, "geometry": { "type": "Point", "coordinates": [ 140.923898799999989, 37.795259 ] } },
{ "type": "Feature", "properties": { "内容": "二本松市社会福祉協議会入浴ステーションにほんまつ【訪問入浴介護】福島県二本松市油井字濡石1番地２", "url2": "https://www.kaigokensaku.mhlw.go.jp/07/index.php?action_kouhyou_detail_004_kani=true&JigyosyoCd=0771000403-00&ServiceCd=120&Type=search" }, "geometry": { "type": "Point", "coordinates": [ 140.461153200000012, 37.6077394 ] } },
{ "type": "Feature", "properties": { "内容": "訪問入浴介護事業所　たむら【訪問入浴介護】福島県田村市船引町春山字道ノ原７３－４", "url2": "https://www.kaigokensaku.mhlw.go.jp/07/index.php?action_kouhyou_detail_004_kani=true&JigyosyoCd=0771100229-00&ServiceCd=120&Type=search" }, "geometry": { "type": "Point", "coordinates": [ 140.546466600000031, 37.4368525 ] } },
{ "type": "Feature", "properties": { "内容": "訪問入浴サービス　えーる【訪問入浴介護】福島県南相馬市原町区国見町3丁目8番4", "url2": "https://www.kaigokensaku.mhlw.go.jp/07/index.php?action_kouhyou_detail_004_kani=true&JigyosyoCd=0771200458-00&ServiceCd=120&Type=search" }, "geometry": { "type": "Point", "coordinates": [ 140.946741054508976, 37.625927048890368 ] } },
{ "type": "Feature", "properties": { "内容": "株式会社　アフロサービス【訪問入浴介護】福島県本宮市本宮字舘町132", "url2": "https://www.kaigokensaku.mhlw.go.jp/07/index.php?action_kouhyou_detail_004_kani=true&JigyosyoCd=0772100012-00&ServiceCd=120&Type=search" }, "geometry": { "type": "Point", "coordinates": [ 140.397737199999938, 37.5207221 ] } },
{ "type": "Feature", "properties": { "内容": "訪問入浴ぽかぽかサービス【訪問入浴介護】福島県本宮市本宮字南町裡７１－４", "url2": "https://www.kaigokensaku.mhlw.go.jp/07/index.php?action_kouhyou_detail_004_kani=true&JigyosyoCd=0772100590-00&ServiceCd=120&Type=search" }, "geometry": { "type": "Point", "coordinates": [ 140.4013397, 37.51527 ] } },
{ "type": "Feature", "properties": { "内容": "下郷町社会福祉協議会指定居宅サービス事業所【訪問入浴介護】福島県南会津郡下郷町大字湯野上字杉ノ内乙５４８番地", "url2": "https://www.kaigokensaku.mhlw.go.jp/07/index.php?action_kouhyou_detail_004_kani=true&JigyosyoCd=0772300208-00&ServiceCd=120&Type=search" }, "geometry": { "type": "Point", "coordinates": [ 139.8992356, 37.2955212 ] } },
{ "type": "Feature", "properties": { "内容": "南会津町社協指定訪問入浴介護事業所【訪問入浴介護】福島県南会津郡南会津町田島字中町甲３９１８番地１０", "url2": "https://www.kaigokensaku.mhlw.go.jp/07/index.php?action_kouhyou_detail_004_kani=true&JigyosyoCd=0772300547-00&ServiceCd=120&Type=search" }, "geometry": { "type": "Point", "coordinates": [ 139.773957, 37.2007115 ] } },
{ "type": "Feature", "properties": { "内容": "柳津町社会福祉協議会訪問入浴介護サービス【訪問入浴介護】福島県河沼郡柳津町大字柳津字下荒町甲1111番地", "url2": "https://www.kaigokensaku.mhlw.go.jp/07/index.php?action_kouhyou_detail_004_kani=true&JigyosyoCd=0782600035-00&ServiceCd=120&Type=search" }, "geometry": { "type": "Point", "coordinates": [ 139.727666499999941, 37.5294786 ] } },
{ "type": "Feature", "properties": { "内容": "ホームヘルプステーション「ゆうゆう」【訪問入浴介護】福島県大沼郡金山町大字中川字沖根原1324", "url2": "https://www.kaigokensaku.mhlw.go.jp/07/index.php?action_kouhyou_detail_004_kani=true&JigyosyoCd=0782700033-00&ServiceCd=120&Type=search" }, "geometry": { "type": "Point", "coordinates": [ 139.530257400000011, 37.4742836 ] } },
{ "type": "Feature", "properties": { "内容": "丸光産業株式会社　丸光ケアサービス白河支店【訪問入浴介護】福島県西白河郡西郷村大字柏野字鞍石１５－１", "url2": "https://www.kaigokensaku.mhlw.go.jp/07/index.php?action_kouhyou_detail_004_kani=true&JigyosyoCd=0772800207-00&ServiceCd=120&Type=search" }, "geometry": { "type": "Point", "coordinates": [ 140.1788666, 37.1592301 ] } },
{ "type": "Feature", "properties": { "内容": "泉崎村社会福祉協議会訪問入浴サービス事業所【訪問入浴介護】福島県西白河郡泉崎村大字泉崎字山ヶ入１０１番地泉崎村保健福祉総合センター内", "url2": "https://www.kaigokensaku.mhlw.go.jp/07/index.php?action_kouhyou_detail_004_kani=true&JigyosyoCd=0772800280-00&ServiceCd=120&Type=search" }, "geometry": { "type": "Point", "coordinates": [ 140.291604799999959, 37.1581216 ] } },
{ "type": "Feature", "properties": { "内容": "寿恵園(訪問入浴介護事業所)【訪問入浴介護】福島県東白川郡棚倉町大字棚倉字舘ヶ丘７９番地", "url2": "https://www.kaigokensaku.mhlw.go.jp/07/index.php?action_kouhyou_detail_004_kani=true&JigyosyoCd=0772900080-00&ServiceCd=120&Type=search" }, "geometry": { "type": "Point", "coordinates": [ 140.376423899999963, 37.0222757 ] } }
]
}
