{
"type": "FeatureCollection",
"name": "geo_07_訪問リハビリテーション",
"crs": { "type": "name", "properties": { "name": "urn:ogc:def:crs:OGC:1.3:CRS84" } },
"features": [
{ "type": "Feature", "properties": { "内容": "にじのまち訪問リハビリテーション【訪問リハビリテーション】北沢又字番匠田5番地老人保健施設にじのまち", "url": "https://www.kaigokensaku.mhlw.go.jp/07/index.php?action_kouhyou_detail_004_kani=true&JigyosyoCd=0770106177-00&ServiceCd=140&Type=search", "url2": "https://www.kirari-hcoop.com" }, "geometry": { "type": "Point", "coordinates": [ 140.4346401, 37.7854876 ] } },
{ "type": "Feature", "properties": { "内容": "医療法人　生愛会【訪問リハビリテーション】福島市大笹生字向平13-1", "url": "https://www.kaigokensaku.mhlw.go.jp/07/index.php?action_kouhyou_detail_004_kani=true&JigyosyoCd=0750185035-00&ServiceCd=140&Type=search", "url2": "http://www.seiaikai.jp/" }, "geometry": { "type": "Point", "coordinates": [ 140.3919252, 37.7963946 ] } },
{ "type": "Feature", "properties": { "内容": "わたり病院訪問リハビリテーション【訪問リハビリテーション】福島県福島市渡利字中江町66番地", "url": "https://www.kaigokensaku.mhlw.go.jp/07/index.php?action_kouhyou_detail_004_kani=true&JigyosyoCd=0710112863-00&ServiceCd=140&Type=search", "url2": "https://www.watari-hp.jp/homevisit/" }, "geometry": { "type": "Point", "coordinates": [ 140.4825635, 37.7478922 ] } },
{ "type": "Feature", "properties": { "内容": "福島寿光会病院指定訪問リハビリテーション【訪問リハビリテーション】福島県福島市北町1番40号", "url": "https://www.kaigokensaku.mhlw.go.jp/07/index.php?action_kouhyou_detail_004_kani=true&JigyosyoCd=0770104099-00&ServiceCd=140&Type=search", "url2": "gokoukai@sirius.ocn.ne.jp" }, "geometry": { "type": "Point", "coordinates": [ 140.470285850926189, 37.753367155375031 ] } },
{ "type": "Feature", "properties": { "内容": "介護老人保健施設　リハビリ南東北福島【訪問リハビリテーション】福島県福島市荒井北3丁目1-18", "url": "https://www.kaigokensaku.mhlw.go.jp/07/index.php?action_kouhyou_detail_004_kani=true&JigyosyoCd=0750180010-00&ServiceCd=140&Type=search", "url2": "https://f-str.jp/healthcare_facility/index.html" }, "geometry": { "type": "Point", "coordinates": [ 140.387481866934195, 37.725975600000019 ] } },
{ "type": "Feature", "properties": { "内容": "きらり健康生活協同組合　上松川診療所【訪問リハビリテーション】福島県福島市北沢又字番匠田5", "url": "https://www.kaigokensaku.mhlw.go.jp/07/index.php?action_kouhyou_detail_004_kani=true&JigyosyoCd=0710115916-00&ServiceCd=140&Type=search", "url2": "http://www.kirari-hcoop.com/" }, "geometry": { "type": "Point", "coordinates": [ 140.434640100000024, 37.7854876 ] } },
{ "type": "Feature", "properties": { "内容": "福島第一病院指定訪問リハビリテーション【訪問リハビリテーション】福島県福島市北沢又字成出16-2", "url": "https://www.kaigokensaku.mhlw.go.jp/07/index.php?action_kouhyou_detail_004_kani=true&JigyosyoCd=0770105740-00&ServiceCd=140&Type=search", "url2": "http://www.daiichihosp.jp/index.php" }, "geometry": { "type": "Point", "coordinates": [ 140.437993600000027, 37.7864412 ] } },
{ "type": "Feature", "properties": { "内容": "訪問リハビリテーション指定事業所あづま【訪問リハビリテーション】福島県福島市大森字柳下10－1ライフガーデンあづま　２階", "url": "https://www.kaigokensaku.mhlw.go.jp/07/index.php?action_kouhyou_detail_004_kani=true&JigyosyoCd=0770103216-00&ServiceCd=140&Type=search", "url2": "http://www.azumanh.or.jp/" }, "geometry": { "type": "Point", "coordinates": [ 140.44543887784576, 37.739986031159198 ] } },
{ "type": "Feature", "properties": { "内容": "井上整形外科医院訪問リハビリテーション【訪問リハビリテーション】福島県福島市鳥谷野梅ノ木内29-3", "url": "https://www.kaigokensaku.mhlw.go.jp/07/index.php?action_kouhyou_detail_004_kani=true&JigyosyoCd=0770105906-00&ServiceCd=140&Type=search", "url2": null }, "geometry": { "type": "Point", "coordinates": [ 140.4683152, 37.732659 ] } },
{ "type": "Feature", "properties": { "内容": "訪問リハビリテーション　Life【訪問リハビリテーション】福島県会津若松市山鹿町3番27号竹田綜合病院", "url": "https://www.kaigokensaku.mhlw.go.jp/07/index.php?action_kouhyou_detail_004_kani=true&JigyosyoCd=0770202174-00&ServiceCd=140&Type=search", "url2": "http://www.takeda.or.jp/" }, "geometry": { "type": "Point", "coordinates": [ 139.92199370000003, 37.4900115 ] } },
{ "type": "Feature", "properties": { "内容": "小野木クリニック【訪問リハビリテーション】福島県会津若松市材木町2-5-20", "url": "https://www.kaigokensaku.mhlw.go.jp/07/index.php?action_kouhyou_detail_004_kani=true&JigyosyoCd=0710213216-00&ServiceCd=140&Type=search", "url2": "onogiclinic.jp" }, "geometry": { "type": "Point", "coordinates": [ 139.9107702, 37.4837985 ] } },
{ "type": "Feature", "properties": { "内容": "会津中央訪問リハビリテーション【訪問リハビリテーション】福島県会津若松市鶴賀町１番１号", "url": "https://www.kaigokensaku.mhlw.go.jp/07/index.php?action_kouhyou_detail_004_kani=true&JigyosyoCd=0710211772-00&ServiceCd=140&Type=search", "url2": null }, "geometry": { "type": "Point", "coordinates": [ 139.945128959519167, 37.521739202498985 ] } },
{ "type": "Feature", "properties": { "内容": "介護老人保健施設　啓寿園訪問リハビリテーション【訪問リハビリテーション】福島県郡山市安積町笹川字経坦31", "url": "https://www.kaigokensaku.mhlw.go.jp/07/index.php?action_kouhyou_detail_004_kani=true&JigyosyoCd=0750385015-00&ServiceCd=140&Type=search", "url2": "asaka.or.jp" }, "geometry": { "type": "Point", "coordinates": [ 140.3637955, 37.34882 ] } },
{ "type": "Feature", "properties": { "内容": "いがらし内科外科クリニック【訪問リハビリテーション】福島県郡山市並木二丁目１２番地７", "url": "https://www.kaigokensaku.mhlw.go.jp/07/index.php?action_kouhyou_detail_004_kani=true&JigyosyoCd=0710315094-00&ServiceCd=140&Type=search", "url2": "http://yasuragi-web.com/rehabili01.html" }, "geometry": { "type": "Point", "coordinates": [ 140.364715100000012, 37.4131149 ] } },
{ "type": "Feature", "properties": { "内容": "さかえ内科クリニック【訪問リハビリテーション】福島県郡山市横塚2-15-6", "url": "https://www.kaigokensaku.mhlw.go.jp/07/index.php?action_kouhyou_detail_004_kani=true&JigyosyoCd=0710316027-00&ServiceCd=140&Type=search", "url2": "https://eishinkai-med.jp" }, "geometry": { "type": "Point", "coordinates": [ 140.3999447, 37.3986869 ] } },
{ "type": "Feature", "properties": { "内容": "南東北第二病院【訪問リハビリテーション】福島県郡山市八山田六丁目95", "url": "https://www.kaigokensaku.mhlw.go.jp/07/index.php?action_kouhyou_detail_004_kani=true&JigyosyoCd=0710317132-00&ServiceCd=140&Type=search", "url2": "https://shinsei.minamitohoku.or.jp/" }, "geometry": { "type": "Point", "coordinates": [ 140.3826233, 37.4248918 ] } },
{ "type": "Feature", "properties": { "内容": "介護老人保健施設コスモス通り訪問リハビリテーション【訪問リハビリテーション】福島県郡山市鳴神三丁目110番地", "url": "https://www.kaigokensaku.mhlw.go.jp/07/index.php?action_kouhyou_detail_004_kani=true&JigyosyoCd=0750385049-00&ServiceCd=140&Type=search", "url2": "http://www.koriyama-seikeigeka.jp/" }, "geometry": { "type": "Point", "coordinates": [ 140.3350613, 37.3940124 ] } },
{ "type": "Feature", "properties": { "内容": "岡沼内科・往診クリニック【訪問リハビリテーション】福島県郡山市安積3-349-1", "url": "https://www.kaigokensaku.mhlw.go.jp/07/index.php?action_kouhyou_detail_004_kani=true&JigyosyoCd=0710316985-00&ServiceCd=140&Type=search", "url2": null }, "geometry": { "type": "Point", "coordinates": [ 140.3623824, 37.3566533 ] } },
{ "type": "Feature", "properties": { "内容": "一般財団法人　脳神経疾患研究所　附属　南東北医療クリニック【訪問リハビリテーション】福島県郡山市八山田七丁目161", "url": "https://www.kaigokensaku.mhlw.go.jp/07/index.php?action_kouhyou_detail_004_kani=true&JigyosyoCd=0710315987-00&ServiceCd=140&Type=search", "url2": "https://www.minamitohoku.or.jp/" }, "geometry": { "type": "Point", "coordinates": [ 140.3816589, 37.4230964 ] } },
{ "type": "Feature", "properties": { "内容": "一般財団法人太田綜合病院附属太田熱海病院【訪問リハビリテーション】福島県郡山市熱海町熱海5-240", "url": "https://www.kaigokensaku.mhlw.go.jp/07/index.php?action_kouhyou_detail_004_kani=true&JigyosyoCd=0710310947-00&ServiceCd=140&Type=search", "url2": "https://www.ohta-hp.or.jp" }, "geometry": { "type": "Point", "coordinates": [ 140.2634876, 37.4862507 ] } },
{ "type": "Feature", "properties": { "内容": "桑野協立病院訪問リハビリテーション【訪問リハビリテーション】福島県郡山市島2丁目９番１８号", "url": "https://www.kaigokensaku.mhlw.go.jp/07/index.php?action_kouhyou_detail_004_kani=true&JigyosyoCd=0710312802-00&ServiceCd=140&Type=search", "url2": "http://www.koriyama-h-coop.or.jp/" }, "geometry": { "type": "Point", "coordinates": [ 140.346816600000011, 37.396888300000015 ] } },
{ "type": "Feature", "properties": { "内容": "介護老人保健施設　光の森　訪問リハビリテーション【訪問リハビリテーション】福島県郡山市横川町字遠後５０－１", "url": "https://www.kaigokensaku.mhlw.go.jp/07/index.php?action_kouhyou_detail_004_kani=true&JigyosyoCd=0750385072-00&ServiceCd=140&Type=search", "url2": "http://hikarino-mori.jp/" }, "geometry": { "type": "Point", "coordinates": [ 140.415273699999943, 37.3913759 ] } },
{ "type": "Feature", "properties": { "内容": "松尾病院訪問リハビリテーション【訪問リハビリテーション】福島県いわき市平字新田前2番地の5", "url": "https://www.kaigokensaku.mhlw.go.jp/07/index.php?action_kouhyou_detail_004_kani=true&JigyosyoCd=0710418609-00&ServiceCd=140&Type=search", "url2": "http://www2.ocn.ne.jp/~matsuo-h/main.htm" }, "geometry": { "type": "Point", "coordinates": [ 140.8969559, 37.0504209 ] } },
{ "type": "Feature", "properties": { "内容": "かしま病院【訪問リハビリテーション】福島県いわき市鹿島町下蔵持字中沢目22番地の１", "url": "https://www.kaigokensaku.mhlw.go.jp/07/index.php?action_kouhyou_detail_004_kani=true&JigyosyoCd=0710413584-00&ServiceCd=140&Type=search", "url2": "https://www.kashima.jp" }, "geometry": { "type": "Point", "coordinates": [ 140.91054100185238, 36.992923253877649 ] } },
{ "type": "Feature", "properties": { "内容": "こうじま慈愛病院訪問リハビリテーション【訪問リハビリテーション】福島県いわき市錦町鈴鹿", "url": "https://www.kaigokensaku.mhlw.go.jp/07/index.php?action_kouhyou_detail_004_kani=true&JigyosyoCd=0710415498-00&ServiceCd=140&Type=search", "url2": "http://shiseikai.org/" }, "geometry": { "type": "Point", "coordinates": [ 140.770399618077704, 36.913802946091778 ] } },
{ "type": "Feature", "properties": { "内容": "指定訪問リハビリテーション事業所医療法人社団秀友会介護老人保健施設サンライフゆもと【訪問リハビリテーション】福島県いわき市常磐藤原町大畑13-1", "url": "https://www.kaigokensaku.mhlw.go.jp/07/index.php?action_kouhyou_detail_004_kani=true&JigyosyoCd=0750485013-00&ServiceCd=140&Type=search", "url2": "http://www.sunlife-yumoto.com/" }, "geometry": { "type": "Point", "coordinates": [ 140.813527799999946, 37.0011338 ] } },
{ "type": "Feature", "properties": { "内容": "医療法人常磐会　いわき湯本病院【訪問リハビリテーション】常磐湯本町台山6番地", "url": "https://www.kaigokensaku.mhlw.go.jp/07/index.php?action_kouhyou_detail_004_kani=true&JigyosyoCd=0710411737-00&ServiceCd=140&Type=search", "url2": "https://iwakiyumoto-hp.or.jp/" }, "geometry": { "type": "Point", "coordinates": [ 140.8500608, 37.0105835 ] } },
{ "type": "Feature", "properties": { "内容": "いきがい村訪問リハビリテーション事業所【訪問リハビリテーション】福島県いわき市小浜町東ノ作164-2", "url": "https://www.kaigokensaku.mhlw.go.jp/07/index.php?action_kouhyou_detail_004_kani=true&JigyosyoCd=0770405629-00&ServiceCd=140&Type=search", "url2": "http://www.ishiihp.or.jp" }, "geometry": { "type": "Point", "coordinates": [ 140.843004899999983, 36.9170222 ] } },
{ "type": "Feature", "properties": { "内容": "ひもろぎ訪問リハビリテーション【訪問リハビリテーション】福島県白河市関辺川前８８", "url": "https://www.kaigokensaku.mhlw.go.jp/07/index.php?action_kouhyou_detail_004_kani=true&JigyosyoCd=0770500379-00&ServiceCd=140&Type=search", "url2": "https://sono-himorogi.org/" }, "geometry": { "type": "Point", "coordinates": [ 140.250843700000019, 37.0953891 ] } },
{ "type": "Feature", "properties": { "内容": "南東北春日訪問リハビリテーション【訪問リハビリテーション】福島県須賀川市南上町１２３－１", "url": "https://www.kaigokensaku.mhlw.go.jp/07/index.php?action_kouhyou_detail_004_kani=true&JigyosyoCd=0770701308-00&ServiceCd=140&Type=search", "url2": "http://www.kasuga-rehabili.com" }, "geometry": { "type": "Point", "coordinates": [ 140.386523500000067, 37.2834807 ] } },
{ "type": "Feature", "properties": { "内容": "あきもと整形外科クリニック【訪問リハビリテーション】福島県喜多方市字下川原8290-12", "url": "https://www.kaigokensaku.mhlw.go.jp/07/index.php?action_kouhyou_detail_004_kani=true&JigyosyoCd=0710810920-00&ServiceCd=140&Type=search", "url2": "http://www.akimoto-clinic.jp" }, "geometry": { "type": "Point", "coordinates": [ 139.8640346, 37.6446817 ] } },
{ "type": "Feature", "properties": { "内容": "佐原病院訪問リハビリテーション【訪問リハビリテーション】福島県喜多方市字永久7689番地の1", "url": "https://www.kaigokensaku.mhlw.go.jp/07/index.php?action_kouhyou_detail_004_kani=true&JigyosyoCd=0710810664-00&ServiceCd=140&Type=search", "url2": "https://sawara.or.jp/" }, "geometry": { "type": "Point", "coordinates": [ 139.872487, 37.6453996 ] } },
{ "type": "Feature", "properties": { "内容": "医療法人　昨雲会　飯塚病院附属有隣病院【訪問リハビリテーション】福島県喜多方市松山町村松字北原3643-1", "url": "https://www.kaigokensaku.mhlw.go.jp/07/index.php?action_kouhyou_detail_004_kani=true&JigyosyoCd=0710810672-00&ServiceCd=140&Type=search", "url2": "https://www.sakuunkai.or.jp/yuurin" }, "geometry": { "type": "Point", "coordinates": [ 139.8703687, 37.6822894 ] } },
{ "type": "Feature", "properties": { "内容": "介護老人保健施設ケアホームやまと【訪問リハビリテーション】福島県喜多方市山都町木幡字鼬塚丁1571", "url": "https://www.kaigokensaku.mhlw.go.jp/07/index.php?action_kouhyou_detail_004_kani=true&JigyosyoCd=0752580019-00&ServiceCd=140&Type=search", "url2": "http://www.sawara.or.jp" }, "geometry": { "type": "Point", "coordinates": [ 139.7744255, 37.6544703 ] } },
{ "type": "Feature", "properties": { "内容": "介護老人保健施設ベテランズサークル【訪問リハビリテーション】福島県相馬市小泉字高池319-1", "url": "https://www.kaigokensaku.mhlw.go.jp/07/index.php?action_kouhyou_detail_004_kani=true&JigyosyoCd=0750985012-00&ServiceCd=140&Type=search", "url2": "https://soma-vc.com/" }, "geometry": { "type": "Point", "coordinates": [ 140.9193616, 37.8074357 ] } },
{ "type": "Feature", "properties": { "内容": "医療法人辰星会　枡病院【訪問リハビリテーション】本町1-103", "url": "https://www.kaigokensaku.mhlw.go.jp/07/index.php?action_kouhyou_detail_004_kani=true&JigyosyoCd=0711010413-00&ServiceCd=140&Type=search", "url2": "http://www.masu-med.or.jp/masu_hospital/" }, "geometry": { "type": "Point", "coordinates": [ 139.6842379, 35.6804852 ] } },
{ "type": "Feature", "properties": { "内容": "医療法人辰星会枡記念病院【訪問リハビリテーション】福島県二本松市住吉１００番地", "url": "https://www.kaigokensaku.mhlw.go.jp/07/index.php?action_kouhyou_detail_004_kani=true&JigyosyoCd=0711010561-00&ServiceCd=140&Type=search", "url2": "http://www.masu-med.or.jp/masu_memorial/" }, "geometry": { "type": "Point", "coordinates": [ 140.403751362565572, 37.554531151776636 ] } },
{ "type": "Feature", "properties": { "内容": "介護老人保健施設あだたら【訪問リハビリテーション】福島県二本松市油井字戸ノ内21-1", "url": "https://www.kaigokensaku.mhlw.go.jp/07/index.php?action_kouhyou_detail_004_kani=true&JigyosyoCd=0751080011-00&ServiceCd=140&Type=search", "url2": "http://www.sg-adatara.jp/" }, "geometry": { "type": "Point", "coordinates": [ 140.463799800000061, 37.6145385 ] } },
{ "type": "Feature", "properties": { "内容": "独立行政法人　地域医療機能推進機構　二本松病院附属訪問リハビリテーション【訪問リハビリテーション】福島県二本松市成田町一丁目553番地", "url": "https://www.kaigokensaku.mhlw.go.jp/07/index.php?action_kouhyou_detail_004_kani=true&JigyosyoCd=0711010660-00&ServiceCd=140&Type=search", "url2": null }, "geometry": { "type": "Point", "coordinates": [ 140.4226157, 37.5901439 ] } },
{ "type": "Feature", "properties": { "内容": "介護老人保健施設　歩【訪問リハビリテーション】福島県田村市船引町船引字砂子田４２番地", "url": "https://www.kaigokensaku.mhlw.go.jp/07/index.php?action_kouhyou_detail_004_kani=true&JigyosyoCd=0751180027-00&ServiceCd=140&Type=search", "url2": "https://funehiki.clinic/" }, "geometry": { "type": "Point", "coordinates": [ 140.5717218, 37.4457984 ] } },
{ "type": "Feature", "properties": { "内容": "訪問リハビリテーション　きぼう【訪問リハビリテーション】福島県伊達市保原町大泉字小作逢１５－１", "url": "https://www.kaigokensaku.mhlw.go.jp/07/index.php?action_kouhyou_detail_004_kani=true&JigyosyoCd=0771300456-00&ServiceCd=140&Type=search", "url2": "http://www.azumanh.or.jp" }, "geometry": { "type": "Point", "coordinates": [ 140.568790600000057, 37.8320568 ] } },
{ "type": "Feature", "properties": { "内容": "医療法人慈久会　介護老人保健施設明生苑【訪問リハビリテーション】福島県本宮市本宮字南町裡１４９", "url": "https://www.kaigokensaku.mhlw.go.jp/07/index.php?action_kouhyou_detail_004_kani=true&JigyosyoCd=0752185017-00&ServiceCd=140&Type=search", "url2": "http://www.tanihospital.jp/meiseien/" }, "geometry": { "type": "Point", "coordinates": [ 140.401547192053954, 37.517056875265034 ] } },
{ "type": "Feature", "properties": { "内容": "介護老人保健施設　まゆみの里【訪問リハビリテーション】福島県本宮市青田字花掛２０番地", "url": "https://www.kaigokensaku.mhlw.go.jp/07/index.php?action_kouhyou_detail_004_kani=true&JigyosyoCd=0752185025-00&ServiceCd=140&Type=search", "url2": "http://www.ochiaikai.jp/" }, "geometry": { "type": "Point", "coordinates": [ 140.392885100000058, 37.5021603 ] } },
{ "type": "Feature", "properties": { "内容": "介護老人保健施設　リハビリ南東北川俣　訪問リハビリテーション【訪問リハビリテーション】福島県伊達郡川俣町大字鶴沢字池ノ上３０－１", "url": "https://www.kaigokensaku.mhlw.go.jp/07/index.php?action_kouhyou_detail_004_kani=true&JigyosyoCd=0752080036-00&ServiceCd=140&Type=search", "url2": "http://www.kaigo-kawamata.com/" }, "geometry": { "type": "Point", "coordinates": [ 140.575051700000017, 37.6636992 ] } },
{ "type": "Feature", "properties": { "内容": "医療法人社団弘徳会　白河訪問診療所【訪問リハビリテーション】福島県西白河郡西郷村字下前田東3-3サンライズ新白河A1-C", "url": "https://www.kaigokensaku.mhlw.go.jp/07/index.php?action_kouhyou_detail_004_kani=true&JigyosyoCd=0712810878-00&ServiceCd=140&Type=search", "url2": "https://www.kotokukainasu.com/" }, "geometry": { "type": "Point", "coordinates": [ 140.190371503375047, 37.123352921559082 ] } },
{ "type": "Feature", "properties": { "内容": "介護老人保健施設ニコニコリハビリ【訪問リハビリテーション】福島県西白河郡西郷村字下前田東４", "url": "https://www.kaigokensaku.mhlw.go.jp/07/index.php?action_kouhyou_detail_004_kani=true&JigyosyoCd=0752880013-00&ServiceCd=140&Type=search", "url2": "http://www.hakueikai.gr.jp/" }, "geometry": { "type": "Point", "coordinates": [ 140.190645646032749, 37.122941631769159 ] } },
{ "type": "Feature", "properties": { "内容": "介護老人保健施設　泉崎南東北リハビリテーション・ケアセンター【訪問リハビリテーション】福島県西白河郡泉崎村大字泉崎字山ヶ入56", "url": "https://www.kaigokensaku.mhlw.go.jp/07/index.php?action_kouhyou_detail_004_kani=true&JigyosyoCd=0772800819-00&ServiceCd=140&Type=search", "url2": "http://www.izumizaki-rehabili.com/" }, "geometry": { "type": "Point", "coordinates": [ 140.292122799999987, 37.1570479 ] } },
{ "type": "Feature", "properties": { "内容": "訪問リハビリテーション青空【訪問リハビリテーション】福島県東白川郡塙町大字塙字大町４丁目18-7", "url": "https://www.kaigokensaku.mhlw.go.jp/07/index.php?action_kouhyou_detail_004_kani=true&JigyosyoCd=0712911007-00&ServiceCd=140&Type=search", "url2": "https://www.kurumadahp.com" }, "geometry": { "type": "Point", "coordinates": [ 140.408533, 36.9567054 ] } },
{ "type": "Feature", "properties": { "内容": "介護老人保健施設　三春南東北リハビリテーション・ケアセンター【訪問リハビリテーション】福島県田村郡三春町大字山田字クルミヤツ３－３", "url": "https://www.kaigokensaku.mhlw.go.jp/07/index.php?action_kouhyou_detail_004_kani=true&JigyosyoCd=0753180017-00&ServiceCd=140&Type=search", "url2": "http://www.kaigo-miharu.com/" }, "geometry": { "type": "Point", "coordinates": [ 140.448194699999931, 37.4266348 ] } },
{ "type": "Feature", "properties": { "内容": "医療法人伸裕会　渡辺病院【訪問リハビリテーション】福島県相馬郡新地町駒ケ嶺字原92番地医療法人伸裕会　渡辺病院", "url": "https://www.kaigokensaku.mhlw.go.jp/07/index.php?action_kouhyou_detail_004_kani=true&JigyosyoCd=0713310704-00&ServiceCd=140&Type=search", "url2": "www.watanabe-hospital.or.jp" }, "geometry": { "type": "Point", "coordinates": [ 140.9135872, 37.857028400000033 ] } }
]
}
