{
"type": "FeatureCollection",
"name": "geo_07_高校",
"crs": { "type": "name", "properties": { "name": "urn:ogc:def:crs:EPSG::6668" } },
"features": [
{ "type": "Feature", "properties": { "P29_001": "07201", "P29_002": "D107220160013", "P29_003": "16004", "P29_004": "福島県立福島高等学校", "P29_005": "福島県福島市森合町5-72", "P29_006": "2", "P29_007": "0", "P29_008": "00", "P29_009": null }, "geometry": { "type": "Point", "coordinates": [ 140.46092348991175, 37.764834900374076 ] } },
{ "type": "Feature", "properties": { "P29_001": "07201", "P29_002": "D107220160022", "P29_003": "16004", "P29_004": "福島県立橘高等学校", "P29_005": "福島県福島市宮下町7-41", "P29_006": "2", "P29_007": "0", "P29_008": "00", "P29_009": null }, "geometry": { "type": "Point", "coordinates": [ 140.46754912080749, 37.762166127393598 ] } },
{ "type": "Feature", "properties": { "P29_001": "07201", "P29_002": "D107220160031", "P29_003": "16004", "P29_004": "福島県立福島商業高等学校", "P29_005": "福島県福島市丸子字辰之尾1", "P29_006": "2", "P29_007": "0", "P29_008": "00", "P29_009": null }, "geometry": { "type": "Point", "coordinates": [ 140.476262831709533, 37.784326910028753 ] } },
{ "type": "Feature", "properties": { "P29_001": "07201", "P29_002": "D107220160040", "P29_003": "16004", "P29_004": "福島県立福島明成高等学校", "P29_005": "福島県福島市永井川字北原田1", "P29_006": "2", "P29_007": "0", "P29_008": "00", "P29_009": null }, "geometry": { "type": "Point", "coordinates": [ 140.449947712520213, 37.721788130350895 ] } },
{ "type": "Feature", "properties": { "P29_001": "07201", "P29_002": "D107220160059", "P29_003": "16004", "P29_004": "福島県立福島工業高等学校", "P29_005": "福島県福島市森合字小松原1", "P29_006": "2", "P29_007": "0", "P29_008": "00", "P29_009": null }, "geometry": { "type": "Point", "coordinates": [ 140.452432155015345, 37.768880366679319 ] } },
{ "type": "Feature", "properties": { "P29_001": "07201", "P29_002": "D107220160068", "P29_003": "16004", "P29_004": "福島県立福島西高等学校", "P29_005": "福島県福島市方木田字上原37", "P29_006": "2", "P29_007": "0", "P29_008": "00", "P29_009": null }, "geometry": { "type": "Point", "coordinates": [ 140.450411524953125, 37.747869275276052 ] } },
{ "type": "Feature", "properties": { "P29_001": "07201", "P29_002": "D107220160077", "P29_003": "16004", "P29_004": "福島県立福島北高等学校", "P29_005": "福島県福島市飯坂町字後畑1", "P29_006": "2", "P29_007": "0", "P29_008": "00", "P29_009": null }, "geometry": { "type": "Point", "coordinates": [ 140.451163585192148, 37.816512959497302 ] } },
{ "type": "Feature", "properties": { "P29_001": "07201", "P29_002": "D107220160086", "P29_003": "16004", "P29_004": "福島県立福島東高等学校", "P29_005": "福島県福島市浜田町12-21", "P29_006": "2", "P29_007": "0", "P29_008": "00", "P29_009": null }, "geometry": { "type": "Point", "coordinates": [ 140.476530187886823, 37.7579245244332 ] } },
{ "type": "Feature", "properties": { "P29_001": "07201", "P29_002": "D107220160095", "P29_003": "16004", "P29_004": "福島県立福島南高等学校", "P29_005": "福島県福島市渡利字七社宮17", "P29_006": "2", "P29_007": "0", "P29_008": "00", "P29_009": null }, "geometry": { "type": "Point", "coordinates": [ 140.474422723650264, 37.747524228651308 ] } },
{ "type": "Feature", "properties": { "P29_001": "07201", "P29_002": "D107220160111", "P29_003": "16004", "P29_004": "福島県立ふくしま新世高等学校", "P29_005": "福島県福島市渡利字七社宮17", "P29_006": "2", "P29_007": "0", "P29_008": "00", "P29_009": null }, "geometry": { "type": "Point", "coordinates": [ 140.474353661667919, 37.747857551803833 ] } },
{ "type": "Feature", "properties": { "P29_001": "07202", "P29_002": "D107220260012", "P29_003": "16004", "P29_004": "福島県立会津高等学校", "P29_005": "福島県会津若松市表町3-1", "P29_006": "2", "P29_007": "0", "P29_008": "00", "P29_009": null }, "geometry": { "type": "Point", "coordinates": [ 139.928988015196865, 37.480522563825637 ] } },
{ "type": "Feature", "properties": { "P29_001": "07202", "P29_002": "D107220260021", "P29_003": "16004", "P29_004": "福島県立葵高等学校", "P29_005": "福島県会津若松市西栄町4-61", "P29_006": "2", "P29_007": "0", "P29_008": "00", "P29_009": null }, "geometry": { "type": "Point", "coordinates": [ 139.926133172194767, 37.493882301970977 ] } },
{ "type": "Feature", "properties": { "P29_001": "07202", "P29_002": "D107220260030", "P29_003": "16004", "P29_004": "福島県立会津学鳳高等学校", "P29_005": "福島県会津若松市一箕町大字八幡字八幡1-1", "P29_006": "2", "P29_007": "0", "P29_008": "00", "P29_009": null }, "geometry": { "type": "Point", "coordinates": [ 139.943728395322523, 37.510972727781436 ] } },
{ "type": "Feature", "properties": { "P29_001": "07202", "P29_002": "D107220260049", "P29_003": "16004", "P29_004": "福島県立若松商業高等学校", "P29_005": "福島県会津若松市米代1-3-31", "P29_006": "2", "P29_007": "0", "P29_008": "00", "P29_009": null }, "geometry": { "type": "Point", "coordinates": [ 139.924604027393116, 37.487767568628783 ] } },
{ "type": "Feature", "properties": { "P29_001": "07202", "P29_002": "D107220260058", "P29_003": "16004", "P29_004": "福島県立会津工業高等学校", "P29_005": "福島県会津若松市徒之町1-37", "P29_006": "2", "P29_007": "0", "P29_008": "00", "P29_009": null }, "geometry": { "type": "Point", "coordinates": [ 139.934671003382221, 37.492744360152862 ] } },
{ "type": "Feature", "properties": { "P29_001": "07202", "P29_002": "D107220260067", "P29_003": "16004", "P29_004": "福島県立会津第二高等学校", "P29_005": "福島県会津若松市徒之町1-37", "P29_006": "2", "P29_007": "0", "P29_008": "00", "P29_009": null }, "geometry": { "type": "Point", "coordinates": [ 139.934228470040296, 37.493471485032124 ] } },
{ "type": "Feature", "properties": { "P29_001": "07203", "P29_002": "D107220360011", "P29_003": "16004", "P29_004": "福島県立安積高等学校", "P29_005": "福島県郡山市開成5-25-63", "P29_006": "2", "P29_007": "0", "P29_008": "00", "P29_009": null }, "geometry": { "type": "Point", "coordinates": [ 140.349254816266125, 37.391504313699599 ] } },
{ "type": "Feature", "properties": { "P29_001": "07203", "P29_002": "D107220360039", "P29_003": "16004", "P29_004": "福島県立安積黎明高等学校", "P29_005": "福島県郡山市長者2-3-3", "P29_006": "2", "P29_007": "0", "P29_008": "00", "P29_009": null }, "geometry": { "type": "Point", "coordinates": [ 140.369432675984768, 37.400152176574039 ] } },
{ "type": "Feature", "properties": { "P29_001": "07203", "P29_002": "D107220360048", "P29_003": "16004", "P29_004": "福島県立郡山東高等学校", "P29_005": "福島県郡山市山根町13-45", "P29_006": "2", "P29_007": "0", "P29_008": "00", "P29_009": null }, "geometry": { "type": "Point", "coordinates": [ 140.374050715923488, 37.386110597007821 ] } },
{ "type": "Feature", "properties": { "P29_001": "07203", "P29_002": "D107220360057", "P29_003": "16004", "P29_004": "福島県立郡山商業高等学校", "P29_005": "福島県郡山市菜根5-6-7", "P29_006": "2", "P29_007": "0", "P29_008": "00", "P29_009": null }, "geometry": { "type": "Point", "coordinates": [ 140.361852240347815, 37.384603965723166 ] } },
{ "type": "Feature", "properties": { "P29_001": "07203", "P29_002": "D107220360066", "P29_003": "16004", "P29_004": "福島県立郡山北工業高等学校", "P29_005": "福島県郡山市八山田2-224", "P29_006": "2", "P29_007": "0", "P29_008": "00", "P29_009": null }, "geometry": { "type": "Point", "coordinates": [ 140.373884176163955, 37.427453737639837 ] } },
{ "type": "Feature", "properties": { "P29_001": "07203", "P29_002": "D107220360075", "P29_003": "16004", "P29_004": "福島県立郡山高等学校", "P29_005": "福島県郡山市大槻町上篠林3", "P29_006": "2", "P29_007": "0", "P29_008": "00", "P29_009": null }, "geometry": { "type": "Point", "coordinates": [ 140.337185402596504, 37.402138499261348 ] } },
{ "type": "Feature", "properties": { "P29_001": "07203", "P29_002": "D107220360084", "P29_003": "16004", "P29_004": "福島県立あさか開成高等学校", "P29_005": "福島県郡山市桃見台15-1", "P29_006": "2", "P29_007": "0", "P29_008": "00", "P29_009": null }, "geometry": { "type": "Point", "coordinates": [ 140.37126321885691, 37.404424215289829 ] } },
{ "type": "Feature", "properties": { "P29_001": "07203", "P29_002": "D107220360093", "P29_003": "16004", "P29_004": "福島県立湖南高等学校", "P29_005": "福島県郡山市湖南町福良字車ノ上8453-1", "P29_006": "2", "P29_007": "0", "P29_008": "00", "P29_009": null }, "geometry": { "type": "Point", "coordinates": [ 140.087026157337164, 37.389139930984967 ] } },
{ "type": "Feature", "properties": { "P29_001": "07203", "P29_002": "D107220361056", "P29_003": "16004", "P29_004": "福島県立郡山萌世高等学校", "P29_005": "福島県郡山市駅前2-11-1", "P29_006": "2", "P29_007": "0", "P29_008": "00", "P29_009": null }, "geometry": { "type": "Point", "coordinates": [ 140.388355596458638, 37.400292478368193 ] } },
{ "type": "Feature", "properties": { "P29_001": "07204", "P29_002": "D107220460010", "P29_003": "16004", "P29_004": "福島県立磐城高等学校", "P29_005": "福島県いわき市平字高月7", "P29_006": "2", "P29_007": "0", "P29_008": "00", "P29_009": null }, "geometry": { "type": "Point", "coordinates": [ 140.879713493887294, 37.06286854067195 ] } },
{ "type": "Feature", "properties": { "P29_001": "07204", "P29_002": "D107220460029", "P29_003": "16004", "P29_004": "福島県立磐城桜が丘高等学校", "P29_005": "福島県いわき市平字桜町5", "P29_006": "2", "P29_007": "0", "P29_008": "00", "P29_009": null }, "geometry": { "type": "Point", "coordinates": [ 140.887017006530868, 37.063133667481416 ] } },
{ "type": "Feature", "properties": { "P29_001": "07204", "P29_002": "D107220460038", "P29_003": "16004", "P29_004": "福島県立平工業高等学校", "P29_005": "福島県いわき市平下荒川字中剃1-3", "P29_006": "2", "P29_007": "0", "P29_008": "00", "P29_009": null }, "geometry": { "type": "Point", "coordinates": [ 140.903302953546387, 37.036899444503369 ] } },
{ "type": "Feature", "properties": { "P29_001": "07204", "P29_002": "D107220460047", "P29_003": "16004", "P29_004": "福島県立平商業高等学校", "P29_005": "福島県いわき市平中塩字一水口37-1", "P29_006": "2", "P29_007": "0", "P29_008": "00", "P29_009": null }, "geometry": { "type": "Point", "coordinates": [ 140.90058446580386, 37.070575609645118 ] } },
{ "type": "Feature", "properties": { "P29_001": "07204", "P29_002": "D107220460056", "P29_003": "16004", "P29_004": "福島県立いわき総合高等学校", "P29_005": "福島県いわき市内郷内町駒谷3-1", "P29_006": "2", "P29_007": "0", "P29_008": "00", "P29_009": null }, "geometry": { "type": "Point", "coordinates": [ 140.854762186240833, 37.039764427089558 ] } },
{ "type": "Feature", "properties": { "P29_001": "07204", "P29_002": "D107220460109", "P29_003": "16004", "P29_004": "福島県立磐城農業高等学校", "P29_005": "福島県いわき市植田町小名田60", "P29_006": "2", "P29_007": "0", "P29_008": "00", "P29_009": null }, "geometry": { "type": "Point", "coordinates": [ 140.790843347288956, 36.925974432572865 ] } },
{ "type": "Feature", "properties": { "P29_001": "07204", "P29_002": "D107220460118", "P29_003": "16004", "P29_004": "福島県立勿来高等学校", "P29_005": "福島県いわき市勿来町窪田町通2-1", "P29_006": "2", "P29_007": "0", "P29_008": "00", "P29_009": null }, "geometry": { "type": "Point", "coordinates": [ 140.767864594571535, 36.888681050366351 ] } },
{ "type": "Feature", "properties": { "P29_001": "07204", "P29_002": "D107220460127", "P29_003": "16004", "P29_004": "福島県立勿来工業高等学校", "P29_005": "福島県いわき市植田町堂の作10", "P29_006": "2", "P29_007": "0", "P29_008": "00", "P29_009": null }, "geometry": { "type": "Point", "coordinates": [ 140.792835584770955, 36.928214899792593 ] } },
{ "type": "Feature", "properties": { "P29_001": "07204", "P29_002": "D107220460136", "P29_003": "16004", "P29_004": "福島県立好間高等学校", "P29_005": "福島県いわき市好間町上好間字上川原25", "P29_006": "2", "P29_007": "0", "P29_008": "00", "P29_009": null }, "geometry": { "type": "Point", "coordinates": [ 140.849974469058509, 37.070409846137643 ] } },
{ "type": "Feature", "properties": { "P29_001": "07204", "P29_002": "D107220460154", "P29_003": "16004", "P29_004": "福島県立四倉高等学校", "P29_005": "福島県いわき市四倉町字5-4", "P29_006": "2", "P29_007": "0", "P29_008": "00", "P29_009": null }, "geometry": { "type": "Point", "coordinates": [ 140.988319924799157, 37.112736913426666 ] } },
{ "type": "Feature", "properties": { "P29_001": "07204", "P29_002": "D107220460163", "P29_003": "16004", "P29_004": "福島県立小名浜海星高等学校", "P29_005": "福島県いわき市小名浜下神白字武城23", "P29_006": "2", "P29_007": "0", "P29_008": "00", "P29_009": null }, "geometry": { "type": "Point", "coordinates": [ 140.922106773895763, 36.946945510875167 ] } },
{ "type": "Feature", "properties": { "P29_001": "07204", "P29_002": "D107220460172", "P29_003": "16004", "P29_004": "福島県立いわき湯本高等学校", "P29_005": "福島県いわき市常磐上湯長谷町五反田55", "P29_006": "2", "P29_007": "0", "P29_008": "00", "P29_009": null }, "geometry": { "type": "Point", "coordinates": [ 140.841648812791163, 36.997584180473872 ] } },
{ "type": "Feature", "properties": { "P29_001": "07204", "P29_002": "D107220461037", "P29_003": "16004", "P29_004": "福島県立いわき光洋高等学校", "P29_005": "福島県いわき市中央台高久4-1", "P29_006": "2", "P29_007": "0", "P29_008": "00", "P29_009": null }, "geometry": { "type": "Point", "coordinates": [ 140.927778278504121, 37.016231447058701 ] } },
{ "type": "Feature", "properties": { "P29_001": "07204", "P29_002": "D107220461064", "P29_003": "16004", "P29_004": "福島県立いわき翠の杜高等学校", "P29_005": "福島県いわき市内郷綴町板宮2", "P29_006": "2", "P29_007": "0", "P29_008": "00", "P29_009": null }, "geometry": { "type": "Point", "coordinates": [ 140.85912583025663, 37.033484437024107 ] } },
{ "type": "Feature", "properties": { "P29_001": "07205", "P29_002": "D107220560019", "P29_003": "16004", "P29_004": "福島県立白河高等学校", "P29_005": "福島県白河市南登リ町54", "P29_006": "2", "P29_007": "0", "P29_008": "00", "P29_009": null }, "geometry": { "type": "Point", "coordinates": [ 140.200195548881396, 37.124654914224926 ] } },
{ "type": "Feature", "properties": { "P29_001": "07205", "P29_002": "D107220560028", "P29_003": "16004", "P29_004": "福島県立白河旭高等学校", "P29_005": "福島県白河市旭町1-3", "P29_006": "2", "P29_007": "0", "P29_008": "00", "P29_009": null }, "geometry": { "type": "Point", "coordinates": [ 140.222011849391663, 37.121407795824126 ] } },
{ "type": "Feature", "properties": { "P29_001": "07205", "P29_002": "D107220560037", "P29_003": "16004", "P29_004": "福島県立白河実業高等学校", "P29_005": "福島県白河市瀬戸原6-1", "P29_006": "2", "P29_007": "0", "P29_008": "00", "P29_009": null }, "geometry": { "type": "Point", "coordinates": [ 140.227497097620983, 37.102148022038534 ] } },
{ "type": "Feature", "properties": { "P29_001": "07205", "P29_002": "D107220560046", "P29_003": "16004", "P29_004": "福島県立白河第二高等学校", "P29_005": "福島県白河市南登町54", "P29_006": "2", "P29_007": "0", "P29_008": "00", "P29_009": null }, "geometry": { "type": "Point", "coordinates": [ 140.19983703381277, 37.124895283057803 ] } },
{ "type": "Feature", "properties": { "P29_001": "07207", "P29_002": "D107220760026", "P29_003": "16004", "P29_004": "福島県立須賀川桐陽高等学校", "P29_005": "福島県須賀川市陣場町128", "P29_006": "2", "P29_007": "0", "P29_008": "00", "P29_009": null }, "geometry": { "type": "Point", "coordinates": [ 140.365087953760337, 37.298101270978854 ] } },
{ "type": "Feature", "properties": { "P29_001": "07207", "P29_002": "D107220760035", "P29_003": "16004", "P29_004": "福島県立清陵情報高等学校", "P29_005": "福島県須賀川市滑川字西町179-6", "P29_006": "2", "P29_007": "0", "P29_008": "00", "P29_009": null }, "geometry": { "type": "Point", "coordinates": [ 140.3714059650639, 37.331646162395707 ] } },
{ "type": "Feature", "properties": { "P29_001": "07207", "P29_002": "D107220760053", "P29_003": "16004", "P29_004": "福島県立須賀川創英館高等学校", "P29_005": "福島県須賀川市緑町88", "P29_006": "2", "P29_007": "0", "P29_008": "00", "P29_009": null }, "geometry": { "type": "Point", "coordinates": [ 140.388226475273711, 37.286513684371371 ] } },
{ "type": "Feature", "properties": { "P29_001": "07208", "P29_002": "D107220860034", "P29_003": "16004", "P29_004": "福島県立喜多方桐桜高等学校", "P29_005": "福島県喜多方市豊川町米室字高吉4344-5", "P29_006": "2", "P29_007": "0", "P29_008": "00", "P29_009": null }, "geometry": { "type": "Point", "coordinates": [ 139.870694364075632, 37.637970381130138 ] } },
{ "type": "Feature", "properties": { "P29_001": "07208", "P29_002": "D107220860052", "P29_003": "16004", "P29_004": "福島県立喜多方高等学校", "P29_005": "福島県喜多方市桜ガ丘1-129", "P29_006": "2", "P29_007": "0", "P29_008": "00", "P29_009": null }, "geometry": { "type": "Point", "coordinates": [ 139.873841655498012, 37.658849981403094 ] } },
{ "type": "Feature", "properties": { "P29_001": "07209", "P29_002": "D107220960015", "P29_003": "16004", "P29_004": "福島県立相馬高等学校", "P29_005": "福島県相馬市中村字大手先57-1", "P29_006": "2", "P29_007": "0", "P29_008": "00", "P29_009": null }, "geometry": { "type": "Point", "coordinates": [ 140.914051686326189, 37.795299702579683 ] } },
{ "type": "Feature", "properties": { "P29_001": "07209", "P29_002": "D107220960033", "P29_003": "16004", "P29_004": "福島県立相馬総合高等学校", "P29_005": "福島県相馬市北飯渕字阿弥陀堂200", "P29_006": "2", "P29_007": "0", "P29_008": "00", "P29_009": null }, "geometry": { "type": "Point", "coordinates": [ 140.939254766132478, 37.806001742360962 ] } },
{ "type": "Feature", "properties": { "P29_001": "07210", "P29_002": "D107221060012", "P29_003": "16004", "P29_004": "福島県立安達高等学校", "P29_005": "福島県二本松市郭内2-347", "P29_006": "2", "P29_007": "0", "P29_008": "00", "P29_009": null }, "geometry": { "type": "Point", "coordinates": [ 140.440802517857264, 37.600177635049413 ] } },
{ "type": "Feature", "properties": { "P29_001": "07210", "P29_002": "D107221060049", "P29_003": "16004", "P29_004": "福島県立二本松実業高等学校", "P29_005": "福島県二本松市榎戸1-58-2", "P29_006": "2", "P29_007": "0", "P29_008": "00", "P29_009": null }, "geometry": { "type": "Point", "coordinates": [ 140.450805450218155, 37.593300138376499 ] } },
{ "type": "Feature", "properties": { "P29_001": "07211", "P29_002": "D107221160011", "P29_003": "16004", "P29_004": "福島県立船引高等学校", "P29_005": "福島県田村市船引町船引石崎15-3", "P29_006": "2", "P29_007": "0", "P29_008": "00", "P29_009": null }, "geometry": { "type": "Point", "coordinates": [ 140.579251616146138, 37.448602451790258 ] } },
{ "type": "Feature", "properties": { "P29_001": "07212", "P29_002": "D107221260010", "P29_003": "16004", "P29_004": "福島県立原町高等学校", "P29_005": "福島県南相馬市原町区西町3-380", "P29_006": "2", "P29_007": "0", "P29_008": "00", "P29_009": null }, "geometry": { "type": "Point", "coordinates": [ 140.943465689522782, 37.634728442629104 ] } },
{ "type": "Feature", "properties": { "P29_001": "07212", "P29_002": "D107221260029", "P29_003": "16004", "P29_004": "福島県立相馬農業高等学校", "P29_005": "福島県南相馬市原町区三島町1-65", "P29_006": "2", "P29_007": "0", "P29_008": "00", "P29_009": null }, "geometry": { "type": "Point", "coordinates": [ 140.95458030401366, 37.637407131776897 ] } },
{ "type": "Feature", "properties": { "P29_001": "07212", "P29_002": "D107221260038", "P29_003": "16004", "P29_004": "福島県立小高産業技術高等学校", "P29_005": "福島県南相馬市小高区吉名字玉ノ木平78", "P29_006": "2", "P29_007": "0", "P29_008": "00", "P29_009": null }, "geometry": { "type": "Point", "coordinates": [ 140.982095842203705, 37.558125382409202 ] } },
{ "type": "Feature", "properties": { "P29_001": "07213", "P29_002": "D107221360037", "P29_003": "16004", "P29_004": "福島県立伊達高等学校", "P29_005": "福島県伊達市保原町字元木23", "P29_006": "2", "P29_007": "0", "P29_008": "00", "P29_009": null }, "geometry": { "type": "Point", "coordinates": [ 140.558853141797215, 37.823189084643765 ] } },
{ "type": "Feature", "properties": { "P29_001": "07214", "P29_002": "D107221460018", "P29_003": "16004", "P29_004": "福島県立本宮高等学校", "P29_005": "福島県本宮市大字高木字井戸上45", "P29_006": "2", "P29_007": "0", "P29_008": "00", "P29_009": null }, "geometry": { "type": "Point", "coordinates": [ 140.418768032645431, 37.514993396669013 ] } },
{ "type": "Feature", "properties": { "P29_001": "07308", "P29_002": "D107230860015", "P29_003": "16004", "P29_004": "福島県立川俣高等学校", "P29_005": "福島県伊達郡川俣町飯坂字諏訪山1", "P29_006": "2", "P29_007": "0", "P29_008": "00", "P29_009": null }, "geometry": { "type": "Point", "coordinates": [ 140.616791466552343, 37.669387077056719 ] } },
{ "type": "Feature", "properties": { "P29_001": "07342", "P29_002": "D107234260013", "P29_003": "16004", "P29_004": "福島県立岩瀬農業高等学校", "P29_005": "福島県岩瀬郡鏡石町桜町207", "P29_006": "2", "P29_007": "0", "P29_008": "00", "P29_009": null }, "geometry": { "type": "Point", "coordinates": [ 140.368220181468843, 37.253547536596656 ] } },
{ "type": "Feature", "properties": { "P29_001": "07367", "P29_002": "D107236760013", "P29_003": "16004", "P29_004": "福島県立只見高等学校", "P29_005": "福島県南会津郡只見町大字只見字根岸2358", "P29_006": "2", "P29_007": "0", "P29_008": "00", "P29_009": null }, "geometry": { "type": "Point", "coordinates": [ 139.320840974558706, 37.357821282449756 ] } },
{ "type": "Feature", "properties": { "P29_001": "07368", "P29_002": "D107236860030", "P29_003": "16004", "P29_004": "福島県立南会津高等学校", "P29_005": "福島県南会津郡南会津町田島字田部原260", "P29_006": "2", "P29_007": "0", "P29_008": "00", "P29_009": null }, "geometry": { "type": "Point", "coordinates": [ 139.802453664063108, 37.206910902531071 ] } },
{ "type": "Feature", "properties": { "P29_001": "07405", "P29_002": "D107240560017", "P29_003": "16004", "P29_004": "福島県立西会津高等学校", "P29_005": "福島県耶麻郡西会津町野沢字上條道東甲256", "P29_006": "2", "P29_007": "0", "P29_008": "00", "P29_009": null }, "geometry": { "type": "Point", "coordinates": [ 139.638531867455924, 37.588681509813348 ] } },
{ "type": "Feature", "properties": { "P29_001": "07408", "P29_002": "D107240860014", "P29_003": "16004", "P29_004": "福島県立猪苗代高等学校", "P29_005": "福島県耶麻郡猪苗代町字窪南3664", "P29_006": "2", "P29_007": "0", "P29_008": "00", "P29_009": null }, "geometry": { "type": "Point", "coordinates": [ 140.111793181503117, 37.563831186660316 ] } },
{ "type": "Feature", "properties": { "P29_001": "07421", "P29_002": "D107242160026", "P29_003": "16004", "P29_004": "福島県立会津農林高等学校", "P29_005": "福島県河沼郡会津坂下町字曲田1391", "P29_006": "2", "P29_007": "0", "P29_008": "00", "P29_009": null }, "geometry": { "type": "Point", "coordinates": [ 139.822584716785343, 37.555787358178449 ] } },
{ "type": "Feature", "properties": { "P29_001": "07445", "P29_002": "D107244560019", "P29_003": "16004", "P29_004": "福島県立川口高等学校", "P29_005": "福島県大沼郡金山町大字川口字蛇沢2434-2", "P29_006": "2", "P29_007": "0", "P29_008": "00", "P29_009": null }, "geometry": { "type": "Point", "coordinates": [ 139.518818465359487, 37.454708258754465 ] } },
{ "type": "Feature", "properties": { "P29_001": "07447", "P29_002": "D107244760026", "P29_003": "16004", "P29_004": "福島県立会津西陵高等学校", "P29_005": "福島県大沼郡会津美里町字法憧寺北甲3473", "P29_006": "2", "P29_007": "0", "P29_008": "00", "P29_009": null }, "geometry": { "type": "Point", "coordinates": [ 139.8421939404044, 37.462525284336991 ] } },
{ "type": "Feature", "properties": { "P29_001": "07466", "P29_002": "D107246660013", "P29_003": "16004", "P29_004": "福島県立光南高等学校", "P29_005": "福島県西白河郡矢吹町田町532", "P29_006": "2", "P29_007": "0", "P29_008": "00", "P29_009": null }, "geometry": { "type": "Point", "coordinates": [ 140.319502684768509, 37.184658200872633 ] } },
{ "type": "Feature", "properties": { "P29_001": "07481", "P29_002": "D107248160014", "P29_003": "16004", "P29_004": "福島県立修明高等学校", "P29_005": "福島県東白川郡棚倉町大字棚倉字東中居63", "P29_006": "2", "P29_007": "0", "P29_008": "00", "P29_009": null }, "geometry": { "type": "Point", "coordinates": [ 140.389232782994071, 37.022356895242822 ] } },
{ "type": "Feature", "properties": { "P29_001": "07501", "P29_002": "D107250160010", "P29_003": "16004", "P29_004": "福島県立石川高等学校", "P29_005": "福島県石川郡石川町高田200-1", "P29_006": "2", "P29_007": "0", "P29_008": "00", "P29_009": null }, "geometry": { "type": "Point", "coordinates": [ 140.452797104257684, 37.151200112616259 ] } },
{ "type": "Feature", "properties": { "P29_001": "07521", "P29_002": "D107252160016", "P29_003": "16004", "P29_004": "福島県立田村高等学校", "P29_005": "福島県田村郡三春町持合畑88-1", "P29_006": "2", "P29_007": "0", "P29_008": "00", "P29_009": null }, "geometry": { "type": "Point", "coordinates": [ 140.492584480050624, 37.447238700497344 ] } },
{ "type": "Feature", "properties": { "P29_001": "07522", "P29_002": "D107252260015", "P29_003": "16004", "P29_004": "福島県立小野高等学校", "P29_005": "福島県田村郡小野町小野新町字宿ノ後63", "P29_006": "2", "P29_007": "0", "P29_008": "00", "P29_009": null }, "geometry": { "type": "Point", "coordinates": [ 140.622176381527936, 37.284211887634562 ] } },
{ "type": "Feature", "properties": { "P29_001": "07541", "P29_002": "D107254160012", "P29_003": "16004", "P29_004": "ふたば未来学園高等学校", "P29_005": "福島県双葉郡広野町中央台1-6-3", "P29_006": "2", "P29_007": "0", "P29_008": "00", "P29_009": null }, "geometry": { "type": "Point", "coordinates": [ 140.989037033183166, 37.212396127738593 ] } },
{ "type": "Feature", "properties": { "P29_001": "07543", "P29_002": "D107254360010", "P29_003": "16004", "P29_004": "福島県立富岡高等学校", "P29_005": "福島県双葉郡富岡町大字小浜字中央632", "P29_006": "2", "P29_007": "0", "P29_008": "00", "P29_009": null }, "geometry": { "type": "Point", "coordinates": [ 141.008392235450231, 37.335330030609995 ] } },
{ "type": "Feature", "properties": { "P29_001": "07545", "P29_002": "D107254560018", "P29_003": "16004", "P29_004": "福島県立双葉翔陽高等学校", "P29_005": "福島県双葉郡大熊町大字下野上字原1", "P29_006": "2", "P29_007": "0", "P29_008": "00", "P29_009": null }, "geometry": { "type": "Point", "coordinates": [ 140.974935936686109, 37.402748906160113 ] } },
{ "type": "Feature", "properties": { "P29_001": "07546", "P29_002": "D107254660017", "P29_003": "16004", "P29_004": "福島県立双葉高等学校", "P29_005": "福島県双葉郡双葉町大字新山字広町80", "P29_006": "2", "P29_007": "0", "P29_008": "00", "P29_009": null }, "geometry": { "type": "Point", "coordinates": [ 141.005468461019348, 37.445836450892834 ] } },
{ "type": "Feature", "properties": { "P29_001": "07547", "P29_002": "D107254760016", "P29_003": "16004", "P29_004": "福島県立浪江高等学校", "P29_005": "福島県双葉郡浪江町大字酒田字東2-9-1", "P29_006": "2", "P29_007": "0", "P29_008": "00", "P29_009": null }, "geometry": { "type": "Point", "coordinates": [ 140.983277424387666, 37.501431916306309 ] } },
{ "type": "Feature", "properties": { "P29_001": "07547", "P29_002": "D107254760025", "P29_003": "16004", "P29_004": "福島県立浪江高等学校津島校", "P29_005": "福島県双葉郡浪江町大字下津島字大和久56-16", "P29_006": "2", "P29_007": "0", "P29_008": "00", "P29_009": null }, "geometry": { "type": "Point", "coordinates": [ 140.768749163031259, 37.562706987271248 ] } },
{ "type": "Feature", "properties": { "P29_001": "07564", "P29_002": "D107256460014", "P29_003": "16004", "P29_004": "福島県立相馬農業高等学校飯舘校", "P29_005": "福島県相馬郡飯舘村深谷字大森25", "P29_006": "2", "P29_007": "0", "P29_008": "00", "P29_009": null }, "geometry": { "type": "Point", "coordinates": [ 140.735980286581963, 37.69375754115044 ] } },
{ "type": "Feature", "properties": { "P29_001": "07201", "P29_002": "D107320161010", "P29_003": "16004", "P29_004": "学校法人松韻学園福島高等学校", "P29_005": "福島県福島市御山町9-1", "P29_006": "4", "P29_007": "0", "P29_008": "00", "P29_009": null }, "geometry": { "type": "Point", "coordinates": [ 140.468150503921436, 37.764697552228228 ] } },
{ "type": "Feature", "properties": { "P29_001": "07201", "P29_002": "D107320161029", "P29_003": "16004", "P29_004": "福島成蹊高等学校", "P29_005": "福島県福島市上浜町5-10", "P29_006": "4", "P29_007": "0", "P29_008": "00", "P29_009": null }, "geometry": { "type": "Point", "coordinates": [ 140.477935051243151, 37.755913210127083 ] } },
{ "type": "Feature", "properties": { "P29_001": "07201", "P29_002": "D107320161038", "P29_003": "16004", "P29_004": "桜の聖母学院高等学校", "P29_005": "福島県福島市野田町7-11-1", "P29_006": "4", "P29_007": "0", "P29_008": "00", "P29_009": null }, "geometry": { "type": "Point", "coordinates": [ 140.445298818034274, 37.76037938437571 ] } },
{ "type": "Feature", "properties": { "P29_001": "07201", "P29_002": "D107320161047", "P29_003": "16004", "P29_004": "福島東稜高等学校", "P29_005": "福島県福島市山居上3", "P29_006": "4", "P29_007": "0", "P29_008": "00", "P29_009": null }, "geometry": { "type": "Point", "coordinates": [ 140.474712742359884, 37.769090738955434 ] } },
{ "type": "Feature", "properties": { "P29_001": "07201", "P29_002": "D107320161056", "P29_003": "16004", "P29_004": "学校法人福島南高等学園", "P29_005": "福島県福島市太平寺字児子塚35", "P29_006": "4", "P29_007": "0", "P29_008": "00", "P29_009": null }, "geometry": { "type": "Point", "coordinates": [ 140.474231843939407, 37.747502497451805 ] } },
{ "type": "Feature", "properties": { "P29_001": "07202", "P29_002": "D107320261019", "P29_003": "16004", "P29_004": "会津北嶺高等学校", "P29_005": "福島県会津若松市相生町3-2", "P29_006": "4", "P29_007": "0", "P29_008": "00", "P29_009": null }, "geometry": { "type": "Point", "coordinates": [ 139.934807685305657, 37.502073296356819 ] } },
{ "type": "Feature", "properties": { "P29_001": "07202", "P29_002": "D107320261028", "P29_003": "16004", "P29_004": "会津若松ザベリオ学園高等学校", "P29_005": "福島県会津若松市西栄町1-18", "P29_006": "4", "P29_007": "0", "P29_008": "00", "P29_009": null }, "geometry": { "type": "Point", "coordinates": [ 139.925369050786855, 37.49223230757319 ] } },
{ "type": "Feature", "properties": { "P29_001": "07202", "P29_002": "D107320261037", "P29_003": "16004", "P29_004": "学校法人温知会仁愛高等学校", "P29_005": "福島県会津若松市鶴賀町1-5", "P29_006": "4", "P29_007": "0", "P29_008": "00", "P29_009": null }, "geometry": { "type": "Point", "coordinates": [ 139.946303118689741, 37.521062441895012 ] } },
{ "type": "Feature", "properties": { "P29_001": "07203", "P29_002": "D107320361018", "P29_003": "16004", "P29_004": "帝京安積高等学校", "P29_005": "福島県郡山市安積町日出山字神明下43", "P29_006": "4", "P29_007": "0", "P29_008": "00", "P29_009": null }, "geometry": { "type": "Point", "coordinates": [ 140.387967349604935, 37.36638498906872 ] } },
{ "type": "Feature", "properties": { "P29_001": "07203", "P29_002": "D107320361027", "P29_003": "16004", "P29_004": "日本大学東北高等学校", "P29_005": "福島県郡山市田村町徳定字中河原1", "P29_006": "4", "P29_007": "0", "P29_008": "00", "P29_009": null }, "geometry": { "type": "Point", "coordinates": [ 140.378977781769123, 37.358246831733084 ] } },
{ "type": "Feature", "properties": { "P29_001": "07203", "P29_002": "D107320361036", "P29_003": "16004", "P29_004": "学校法人尚志学園尚志高等学校", "P29_005": "福島県郡山市大槻町字坦ノ腰2", "P29_006": "4", "P29_007": "0", "P29_008": "01", "P29_009": null }, "geometry": { "type": "Point", "coordinates": [ 140.310523011428842, 37.380459959060381 ] } },
{ "type": "Feature", "properties": { "P29_001": "07203", "P29_002": "D107320361045", "P29_003": "16004", "P29_004": "郡山女子大学附属高等学校", "P29_005": "福島県郡山市開成3-25-2", "P29_006": "4", "P29_007": "0", "P29_008": "00", "P29_009": null }, "geometry": { "type": "Point", "coordinates": [ 140.349876533354831, 37.396350886968946 ] } },
{ "type": "Feature", "properties": { "P29_001": "07204", "P29_002": "D107320461017", "P29_003": "16004", "P29_004": "学校法人山崎学園福島県磐城第一高等学校", "P29_005": "福島県いわき市内郷御厩町上宿11", "P29_006": "4", "P29_007": "0", "P29_008": "00", "P29_009": null }, "geometry": { "type": "Point", "coordinates": [ 140.875180333603822, 37.04707340856487 ] } },
{ "type": "Feature", "properties": { "P29_001": "07204", "P29_002": "D107320461026", "P29_003": "16004", "P29_004": "学校法人山崎学園磐城緑蔭高等学校", "P29_005": "福島県いわき市平南白土字勝負田11", "P29_006": "4", "P29_007": "0", "P29_008": "00", "P29_009": null }, "geometry": { "type": "Point", "coordinates": [ 140.909662617235938, 37.043636115501798 ] } },
{ "type": "Feature", "properties": { "P29_001": "07204", "P29_002": "D107320461044", "P29_003": "16004", "P29_004": "東日本国際大学附属昌平高等学校", "P29_005": "福島県いわき市平上片寄字上ノ内152", "P29_006": "4", "P29_007": "0", "P29_008": "00", "P29_009": null }, "geometry": { "type": "Point", "coordinates": [ 140.913196286106029, 37.081366657433627 ] } },
{ "type": "Feature", "properties": { "P29_001": "07204", "P29_002": "D107320461053", "P29_003": "16004", "P29_004": "いわき秀英高等学校", "P29_005": "福島県いわき市泉町字滝ノ沢3-1", "P29_006": "4", "P29_007": "0", "P29_008": "00", "P29_009": null }, "geometry": { "type": "Point", "coordinates": [ 140.840448066090119, 36.94926520587223 ] } },
{ "type": "Feature", "properties": { "P29_001": "07213", "P29_002": "D107321361016", "P29_003": "16004", "P29_004": "聖光学院高等学校", "P29_005": "福島県伊達市六角3", "P29_006": "4", "P29_007": "0", "P29_008": "00", "P29_009": null }, "geometry": { "type": "Point", "coordinates": [ 140.499050869188409, 37.825865776274341 ] } },
{ "type": "Feature", "properties": { "P29_001": "07501", "P29_002": "D107350161017", "P29_003": "16004", "P29_004": "学校法人石川高等学校", "P29_005": "福島県石川郡石川町字大室502", "P29_006": "4", "P29_007": "0", "P29_008": "00", "P29_009": null }, "geometry": { "type": "Point", "coordinates": [ 140.453345588211789, 37.142059649148514 ] } },
{ "type": "Feature", "properties": { "P29_001": "07544", "P29_002": "D107354461016", "P29_003": "16004", "P29_004": "大智学園高等学校", "P29_005": "福島県双葉郡川内村大字上川内字町分143", "P29_006": "4", "P29_007": "0", "P29_008": "00", "P29_009": null }, "geometry": { "type": "Point", "coordinates": [ 140.807757992126653, 37.342637142693441 ] } },
{ "type": "Feature", "properties": { "P29_001": "07203", "P29_002": "D107320361036", "P29_003": "16004", "P29_004": "学校法人尚志学園尚志高等学校", "P29_005": "福島県郡山市中町14-18", "P29_006": "4", "P29_007": "0", "P29_008": "02", "P29_009": "単位制・通信制課程郡山キャンパス" }, "geometry": { "type": "Point", "coordinates": [ 140.384733977959513, 37.395349730778157 ] } },
{ "type": "Feature", "properties": { "P29_001": "07201", "P29_002": "D107320361036", "P29_003": "16004", "P29_004": "学校法人尚志学園尚志高等学校", "P29_005": "福島県福島市早稲町2-24", "P29_006": "4", "P29_007": "0", "P29_008": "03", "P29_009": "単位制・通信制課程福島キャンパス" }, "geometry": { "type": "Point", "coordinates": [ 140.46137062731745, 37.752542089786232 ] } },
{ "type": "Feature", "properties": { "P29_001": "07202", "P29_002": "D107320361036", "P29_003": "16004", "P29_004": "学校法人尚志学園尚志高等学校", "P29_005": "福島県会津若松市白虎町225日通会津ビル5F", "P29_006": "4", "P29_007": "0", "P29_008": "04", "P29_009": "単位制・通信制課程会津キャンパス" }, "geometry": { "type": "Point", "coordinates": [ 139.932017133622935, 37.508060758313157 ] } },
{ "type": "Feature", "properties": { "P29_001": "07205", "P29_002": "D107320361036", "P29_003": "16004", "P29_004": "学校法人尚志学園尚志高等学校", "P29_005": "福島県白河市大手町14-13K21ビル", "P29_006": "4", "P29_007": "0", "P29_008": "05", "P29_009": "単位制・通信制課程白河キャンパス" }, "geometry": { "type": "Point", "coordinates": [ 140.213150595527992, 37.128137817637153 ] } }
]
}
