{
"type": "FeatureCollection",
"name": "geo_07_特定施設入居者生活介護（有料老人ホーム）",
"crs": { "type": "name", "properties": { "name": "urn:ogc:def:crs:OGC:1.3:CRS84" } },
"features": [
{ "type": "Feature", "properties": { "内容": "ピーコムライフ鎌田【特定施設入居者生活介護（有料老人ホーム）】福島県福島市鎌田字舟戸40-1ピーコムライフ鎌田", "url": "https://www.kaigokensaku.mhlw.go.jp/07/index.php?action_kouhyou_detail_004_kani=true&JigyosyoCd=0770105013-00&ServiceCd=331&Type=search", "url2": "hhh://www.momotarousan.com/" }, "geometry": { "type": "Point", "coordinates": [ 140.4855954, 37.7922774 ] } },
{ "type": "Feature", "properties": { "内容": "ニチイケアセンター福島大森【特定施設入居者生活介護（有料老人ホーム）】福島県福島市大森字伯父母内２１-３", "url": "https://www.kaigokensaku.mhlw.go.jp/07/index.php?action_kouhyou_detail_004_kani=true&JigyosyoCd=0770103406-00&ServiceCd=331&Type=search", "url2": "http://www.nichiigakkan.co.jp" }, "geometry": { "type": "Point", "coordinates": [ 140.450850400000036, 37.7385747 ] } },
{ "type": "Feature", "properties": { "内容": "あいらの杜　福島御山【特定施設入居者生活介護（有料老人ホーム）】福島県福島市御山字稲荷田38-2", "url": "https://www.kaigokensaku.mhlw.go.jp/07/index.php?action_kouhyou_detail_004_kani=true&JigyosyoCd=0770105385-00&ServiceCd=331&Type=search", "url2": "https://www.halenosumai.jp" }, "geometry": { "type": "Point", "coordinates": [ 140.4640287, 37.775327 ] } },
{ "type": "Feature", "properties": { "内容": "ライフガーデンあづま【特定施設入居者生活介護（有料老人ホーム）】福島県福島市大森字柳下10番地1号", "url": "https://www.kaigokensaku.mhlw.go.jp/07/index.php?action_kouhyou_detail_004_kani=true&JigyosyoCd=0770105591-00&ServiceCd=331&Type=search", "url2": "lifegarden@shuukoukai.jp" }, "geometry": { "type": "Point", "coordinates": [ 140.445695948023939, 37.739975883962728 ] } },
{ "type": "Feature", "properties": { "内容": "あいらの杜福島笹谷【特定施設入居者生活介護（有料老人ホーム）】福島県福島市笹谷字東中條13-1", "url": "https://www.kaigokensaku.mhlw.go.jp/07/index.php?action_kouhyou_detail_004_kani=true&JigyosyoCd=0770105989-00&ServiceCd=331&Type=search", "url2": null }, "geometry": { "type": "Point", "coordinates": [ 140.4436724, 37.7889679 ] } },
{ "type": "Feature", "properties": { "内容": "あいらの杜福島市役所前【特定施設入居者生活介護（有料老人ホーム）】旭町1-30", "url": "https://www.kaigokensaku.mhlw.go.jp/07/index.php?action_kouhyou_detail_004_kani=true&JigyosyoCd=0770105393-00&ServiceCd=331&Type=search", "url2": "http://www.harenosumai.jp" }, "geometry": { "type": "Point", "coordinates": [ 139.3650769, 35.4374903 ] } },
{ "type": "Feature", "properties": { "内容": "さわやかふくしまの里【特定施設入居者生活介護（有料老人ホーム）】福島県福島市黒岩八郎内7-1さわやかふくしまの里", "url": "https://www.kaigokensaku.mhlw.go.jp/07/index.php?action_kouhyou_detail_004_kani=true&JigyosyoCd=0770105997-00&ServiceCd=331&Type=search", "url2": "www.sawayakaclub.jp/fukushimanosato/" }, "geometry": { "type": "Point", "coordinates": [ 140.4719062, 37.7250193 ] } },
{ "type": "Feature", "properties": { "内容": "介護付有料老人ホーム　シャローム【特定施設入居者生活介護（有料老人ホーム）】福島県福島市笹谷字上成出15番1", "url": "https://www.kaigokensaku.mhlw.go.jp/07/index.php?action_kouhyou_detail_004_kani=true&JigyosyoCd=0770104792-00&ServiceCd=331&Type=search", "url2": "http://www.daiichihosp.jp/shalom/" }, "geometry": { "type": "Point", "coordinates": [ 140.436763902516191, 37.788709453109107 ] } },
{ "type": "Feature", "properties": { "内容": "メープルハイム苑華【特定施設入居者生活介護（有料老人ホーム）】福島県福島市曽根田町３－２１介護付有料老人ホーム　メープルハイム苑華", "url": "https://www.kaigokensaku.mhlw.go.jp/07/index.php?action_kouhyou_detail_004_kani=true&JigyosyoCd=0770101996-00&ServiceCd=331&Type=search", "url2": "https://www.sonoka.jp/" }, "geometry": { "type": "Point", "coordinates": [ 140.459473900000035, 37.7610028 ] } },
{ "type": "Feature", "properties": { "内容": "聖ハートフルケア福島「十字の園」【特定施設入居者生活介護（有料老人ホーム）】福島県福島市野田町字台67", "url": "https://www.kaigokensaku.mhlw.go.jp/07/index.php?action_kouhyou_detail_004_kani=true&JigyosyoCd=0770100436-00&ServiceCd=331&Type=search", "url2": "http://park21.wakwak.com/~jyuujinosono" }, "geometry": { "type": "Point", "coordinates": [ 140.440806, 37.7648657 ] } },
{ "type": "Feature", "properties": { "内容": "ツクイ・サンシャイン会津若松【特定施設入居者生活介護（有料老人ホーム）】福島県会津若松市金川町9番1号", "url": "https://www.kaigokensaku.mhlw.go.jp/07/index.php?action_kouhyou_detail_004_kani=true&JigyosyoCd=0770202422-00&ServiceCd=331&Type=search", "url2": "https//www.tsukui.net" }, "geometry": { "type": "Point", "coordinates": [ 139.920051300000011, 37.5030425 ] } },
{ "type": "Feature", "properties": { "内容": "有料老人ホーム　プラセール日新【特定施設入居者生活介護（有料老人ホーム）】福島県会津若松市日新町10番10号", "url": "https://www.kaigokensaku.mhlw.go.jp/07/index.php?action_kouhyou_detail_004_kani=true&JigyosyoCd=0770201242-00&ServiceCd=331&Type=search", "url2": "http://www.65seiyo.net" }, "geometry": { "type": "Point", "coordinates": [ 139.921518500000047, 37.4972025 ] } },
{ "type": "Feature", "properties": { "内容": "介護付有料老人ホーム　多生苑西栄町【特定施設入居者生活介護（有料老人ホーム）】福島県会津若松市西栄町8-20", "url": "https://www.kaigokensaku.mhlw.go.jp/07/index.php?action_kouhyou_detail_004_kani=true&JigyosyoCd=0770201572-00&ServiceCd=331&Type=search", "url2": "http://www.onchikai.jp/tashoen/west/top.html" }, "geometry": { "type": "Point", "coordinates": [ 139.925573799999938, 37.4953833 ] } },
{ "type": "Feature", "properties": { "内容": "介護付有料老人ホーム　レジデンス桜子【特定施設入居者生活介護（有料老人ホーム）】福島県会津若松市城南町3番41号", "url": "https://www.kaigokensaku.mhlw.go.jp/07/index.php?action_kouhyou_detail_004_kani=true&JigyosyoCd=0770202331-00&ServiceCd=331&Type=search", "url2": null }, "geometry": { "type": "Point", "coordinates": [ 139.92945409999993, 37.4852603 ] } },
{ "type": "Feature", "properties": { "内容": "介護付有料老人ホーム「健康倶楽部館　ファンコート南」【特定施設入居者生活介護（有料老人ホーム）】福島県会津若松市館馬町6番2号", "url": "https://www.kaigokensaku.mhlw.go.jp/07/index.php?action_kouhyou_detail_004_kani=true&JigyosyoCd=0770201382-00&ServiceCd=331&Type=search", "url2": "http://www.heiseikai-group.com/" }, "geometry": { "type": "Point", "coordinates": [ 139.922685600000023, 37.4811262 ] } },
{ "type": "Feature", "properties": { "内容": "ニチイケアセンター郡山日和田【特定施設入居者生活介護（有料老人ホーム）】福島県郡山市日和田町字原12-376", "url": "https://www.kaigokensaku.mhlw.go.jp/07/index.php?action_kouhyou_detail_004_kani=true&JigyosyoCd=0770303451-00&ServiceCd=331&Type=search", "url2": "http://www.niciigakkan.co.jp" }, "geometry": { "type": "Point", "coordinates": [ 140.380637299999989, 37.4416414 ] } },
{ "type": "Feature", "properties": { "内容": "家族の家ひまわり細沼【特定施設入居者生活介護（有料老人ホーム）】福島県郡山市細沼11-14", "url": "https://www.kaigokensaku.mhlw.go.jp/07/index.php?action_kouhyou_detail_004_kani=true&JigyosyoCd=0770305464-00&ServiceCd=331&Type=search", "url2": "http://www.saneido.co.jp/kaigo/hosonuma/" }, "geometry": { "type": "Point", "coordinates": [ 140.3792737, 37.3971521 ] } },
{ "type": "Feature", "properties": { "内容": "南開成ケアコミュニティそよ風【特定施設入居者生活介護（有料老人ホーム）】福島県郡山市桑野清水台48-8", "url": "https://www.kaigokensaku.mhlw.go.jp/07/index.php?action_kouhyou_detail_004_kani=true&JigyosyoCd=0770304111-00&ServiceCd=331&Type=search", "url2": "http://www.unimat-rc.co.jp/" }, "geometry": { "type": "Point", "coordinates": [ 140.355637300000012, 37.3860528 ] } },
{ "type": "Feature", "properties": { "内容": "ツクイ・サンシャイン郡山【特定施設入居者生活介護（有料老人ホーム）】福島県郡山市御前南5丁目123ツクイ・サンシャイン郡山", "url": "https://www.kaigokensaku.mhlw.go.jp/07/index.php?action_kouhyou_detail_004_kani=true&JigyosyoCd=0770305845-00&ServiceCd=331&Type=search", "url2": "https://www.tsukui.net" }, "geometry": { "type": "Point", "coordinates": [ 140.3264153, 37.3851526 ] } },
{ "type": "Feature", "properties": { "内容": "あさかの杜ケアコミュニティそよ風【特定施設入居者生活介護（有料老人ホーム）】福島県郡山市安積町成田字漆山４５", "url": "https://www.kaigokensaku.mhlw.go.jp/07/index.php?action_kouhyou_detail_004_kani=true&JigyosyoCd=0770303378-00&ServiceCd=331&Type=search", "url2": "https://corp.sykz.co.jp/" }, "geometry": { "type": "Point", "coordinates": [ 140.340612299999947, 37.3590025 ] } },
{ "type": "Feature", "properties": { "内容": "家族の家ひまわり富久山【特定施設入居者生活介護（有料老人ホーム）】福島県郡山市富久山町久保田字大久保2-1", "url": "https://www.kaigokensaku.mhlw.go.jp/07/index.php?action_kouhyou_detail_004_kani=true&JigyosyoCd=0770305589-00&ServiceCd=331&Type=search", "url2": "http://www.saneido.co.jp" }, "geometry": { "type": "Point", "coordinates": [ 140.376974, 37.4132134 ] } },
{ "type": "Feature", "properties": { "内容": "介護付有料老人ホームいまいずみ荘【特定施設入居者生活介護（有料老人ホーム）】福島県郡山市富田西三丁目172", "url": "https://www.kaigokensaku.mhlw.go.jp/07/index.php?action_kouhyou_detail_004_kani=true&JigyosyoCd=0770304541-00&ServiceCd=331&Type=search", "url2": "https://imaizumikaigo.jp/" }, "geometry": { "type": "Point", "coordinates": [ 140.334738199999947, 37.4203403 ] } },
{ "type": "Feature", "properties": { "内容": "さかえグリーンハート美術館通り【特定施設入居者生活介護（有料老人ホーム）】福島県郡山市字下舘野1-1", "url": "https://www.kaigokensaku.mhlw.go.jp/07/index.php?action_kouhyou_detail_004_kani=true&JigyosyoCd=0770303220-00&ServiceCd=331&Type=search", "url2": "sakaegreenheart@friend.ocn.jp" }, "geometry": { "type": "Point", "coordinates": [ 140.404024400000026, 37.3977527 ] } },
{ "type": "Feature", "properties": { "内容": "介護付有料老人ホーム　雅【特定施設入居者生活介護（有料老人ホーム）】福島県郡山市桜木一丁目1-11", "url": "https://www.kaigokensaku.mhlw.go.jp/07/index.php?action_kouhyou_detail_004_kani=true&JigyosyoCd=0770304715-00&ServiceCd=331&Type=search", "url2": "https://mutsukikai.com/" }, "geometry": { "type": "Point", "coordinates": [ 140.373740600000019, 37.4077925 ] } },
{ "type": "Feature", "properties": { "内容": "介護付有料老人ホーム　カーサヴェッキオ【特定施設入居者生活介護（有料老人ホーム）】福島県郡山市安積町笹川字荒池下3番41", "url": "https://www.kaigokensaku.mhlw.go.jp/07/index.php?action_kouhyou_detail_004_kani=true&JigyosyoCd=0770303568-00&ServiceCd=331&Type=search", "url2": "http://asaka.or.jp/vecchio/" }, "geometry": { "type": "Point", "coordinates": [ 140.359950571626314, 37.347590235824882 ] } },
{ "type": "Feature", "properties": { "内容": "介護付有料老人ホーム「健康倶楽部館　ファンコート郡山」【特定施設入居者生活介護（有料老人ホーム）】福島県郡山市安積町長久保四丁目2番1号", "url": "https://www.kaigokensaku.mhlw.go.jp/07/index.php?action_kouhyou_detail_004_kani=true&JigyosyoCd=0770303519-00&ServiceCd=331&Type=search", "url2": "http://www.heiseikai-group.com/" }, "geometry": { "type": "Point", "coordinates": [ 140.3575717, 37.3581614 ] } },
{ "type": "Feature", "properties": { "内容": "介護付有料老人ホーム「健康倶楽部館　ファンコート郡山北」【特定施設入居者生活介護（有料老人ホーム）】福島県郡山市東原一丁目33番地", "url": "https://www.kaigokensaku.mhlw.go.jp/07/index.php?action_kouhyou_detail_004_kani=true&JigyosyoCd=0770306090-00&ServiceCd=331&Type=search", "url2": "https://www.heiseikai-group.com/" }, "geometry": { "type": "Point", "coordinates": [ 140.355295410381217, 37.428384736016497 ] } },
{ "type": "Feature", "properties": { "内容": "特定施設入居者生活介護有料老人ホーム　つくし村【特定施設入居者生活介護（有料老人ホーム）】福島県いわき市勿来町酒井酒井原８", "url": "https://www.kaigokensaku.mhlw.go.jp/07/index.php?action_kouhyou_detail_004_kani=true&JigyosyoCd=0770407526-00&ServiceCd=331&Type=search", "url2": null }, "geometry": { "type": "Point", "coordinates": [ 140.7460125, 36.8897711 ] } },
{ "type": "Feature", "properties": { "内容": "介護付有料老人ホームカンナ【特定施設入居者生活介護（有料老人ホーム）】福島県いわき市小名浜字鳥居北7-24", "url": "https://www.kaigokensaku.mhlw.go.jp/07/index.php?action_kouhyou_detail_004_kani=true&JigyosyoCd=0770407724-00&ServiceCd=331&Type=search", "url2": "http:/www.canna-care.co.jp/" }, "geometry": { "type": "Point", "coordinates": [ 140.888888100000031, 36.9499987 ] } },
{ "type": "Feature", "properties": { "内容": "介護付き有料老人ホームくすの木【特定施設入居者生活介護（有料老人ホーム）】福島県いわき市金山町東台84-1", "url": "https://www.kaigokensaku.mhlw.go.jp/07/index.php?action_kouhyou_detail_004_kani=true&JigyosyoCd=0770409571-00&ServiceCd=331&Type=search", "url2": "https://www.miraigroupyoshida.com/kusunoki" }, "geometry": { "type": "Point", "coordinates": [ 140.824176200000011, 36.9266414 ] } },
{ "type": "Feature", "properties": { "内容": "ニチイケアセンター小名浜【特定施設入居者生活介護（有料老人ホーム）】福島県いわき市小名浜岡小名三丁目6-14", "url": "https://www.kaigokensaku.mhlw.go.jp/07/index.php?action_kouhyou_detail_004_kani=true&JigyosyoCd=0770405934-00&ServiceCd=331&Type=search", "url2": "http://www.nichiigakkan.co.jp" }, "geometry": { "type": "Point", "coordinates": [ 140.9086155, 36.9631954 ] } },
{ "type": "Feature", "properties": { "内容": "いわきふるさとの楽園【特定施設入居者生活介護（有料老人ホーム）】福島県いわき市平下荒川字大作130-2", "url": "https://www.kaigokensaku.mhlw.go.jp/07/index.php?action_kouhyou_detail_004_kani=true&JigyosyoCd=0770400547-00&ServiceCd=331&Type=search", "url2": "http://www.fukuzyukai.com" }, "geometry": { "type": "Point", "coordinates": [ 140.903771058860826, 37.033657855207395 ] } },
{ "type": "Feature", "properties": { "内容": "いわきふるさとの楽園　ペンシエロ【特定施設入居者生活介護（有料老人ホーム）】平下荒川字大作131-2いわきふるさとの楽園　ペンシエロ", "url": "https://www.kaigokensaku.mhlw.go.jp/07/index.php?action_kouhyou_detail_004_kani=true&JigyosyoCd=0770408755-00&ServiceCd=331&Type=search", "url2": "fukuzyukai.com" }, "geometry": { "type": "Point", "coordinates": [ 140.903676228449967, 37.034226851699195 ] } },
{ "type": "Feature", "properties": { "内容": "ケアタウンつどいいわき好間【特定施設入居者生活介護（有料老人ホーム）】福島県いわき市好間町中好間字寺台74-1", "url": "https://www.kaigokensaku.mhlw.go.jp/07/index.php?action_kouhyou_detail_004_kani=true&JigyosyoCd=0770409514-00&ServiceCd=331&Type=search", "url2": "https：//mcp－net.jp" }, "geometry": { "type": "Point", "coordinates": [ 140.85636310000001, 37.0587446 ] } },
{ "type": "Feature", "properties": { "内容": "介護付き有料老人ホームきづな【特定施設入居者生活介護（有料老人ホーム）】福島県いわき市平南白土字八ツ坂74番地", "url": "https://www.kaigokensaku.mhlw.go.jp/07/index.php?action_kouhyou_detail_004_kani=true&JigyosyoCd=0770408151-00&ServiceCd=331&Type=search", "url2": "http//kizuna3@kizuna-iwaki.co.jp" }, "geometry": { "type": "Point", "coordinates": [ 140.904674, 37.0423824 ] } },
{ "type": "Feature", "properties": { "内容": "介護付有料老人ホーム　幸福の家　桜の里【特定施設入居者生活介護（有料老人ホーム）】福島県いわき市平谷川瀬字根木作62番地", "url": "https://www.kaigokensaku.mhlw.go.jp/07/index.php?action_kouhyou_detail_004_kani=true&JigyosyoCd=0770406288-00&ServiceCd=331&Type=search", "url2": "https://sakuranosato-iwaki.com/" }, "geometry": { "type": "Point", "coordinates": [ 140.889684200000033, 37.0462147 ] } },
{ "type": "Feature", "properties": { "内容": "メープルハイムいわき【特定施設入居者生活介護（有料老人ホーム）】福島県いわき市平上荒川字安草２８番地介護付有料老人ホーム　メープルハイムいわき", "url": "https://www.kaigokensaku.mhlw.go.jp/07/index.php?action_kouhyou_detail_004_kani=true&JigyosyoCd=0770404143-00&ServiceCd=331&Type=search", "url2": "https://www.m-iwaki.jp/" }, "geometry": { "type": "Point", "coordinates": [ 140.892092300000058, 37.0360857 ] } },
{ "type": "Feature", "properties": { "内容": "いわき市徳風園特定施設入居者生活介護事業所【特定施設入居者生活介護（有料老人ホーム）】福島県いわき市平下高久字中谷地58-1", "url": "https://www.kaigokensaku.mhlw.go.jp/07/index.php?action_kouhyou_detail_004_kani=true&JigyosyoCd=0770404119-00&ServiceCd=331&Type=search", "url2": "http://www.kireisou.com" }, "geometry": { "type": "Point", "coordinates": [ 140.967924, 37.0308048 ] } },
{ "type": "Feature", "properties": { "内容": "シルバーレジデンス　孔輪閣【特定施設入居者生活介護（有料老人ホーム）】福島県いわき市平上片寄字上ノ内175番地の1", "url": "https://www.kaigokensaku.mhlw.go.jp/07/index.php?action_kouhyou_detail_004_kani=true&JigyosyoCd=0770406536-00&ServiceCd=331&Type=search", "url2": "http://www.ko-rinkaku.jp" }, "geometry": { "type": "Point", "coordinates": [ 140.914109522090172, 37.079718531733718 ] } },
{ "type": "Feature", "properties": { "内容": "感謝の郷いわき【特定施設入居者生活介護（有料老人ホーム）】福島県いわき市好間町上好間字道成川原15番地の20有料老人ホーム感謝の郷いわき", "url": "https://www.kaigokensaku.mhlw.go.jp/07/index.php?action_kouhyou_detail_004_kani=true&JigyosyoCd=0770403301-00&ServiceCd=331&Type=search", "url2": "http://www.kanshanosato-iwaki.com" }, "geometry": { "type": "Point", "coordinates": [ 140.84106010000005, 37.0671822 ] } },
{ "type": "Feature", "properties": { "内容": "介護付有料老人ホーム　サンステージいわき【特定施設入居者生活介護（有料老人ホーム）】福島県いわき市常磐西郷町金山75番地の1サンステージいわき", "url": "https://www.kaigokensaku.mhlw.go.jp/07/index.php?action_kouhyou_detail_004_kani=true&JigyosyoCd=0770407096-00&ServiceCd=331&Type=search", "url2": "http://cosmo-m-s.co.jp/" }, "geometry": { "type": "Point", "coordinates": [ 140.857509099999987, 36.9851784 ] } },
{ "type": "Feature", "properties": { "内容": "介護付有料老人ホーム　せせらぎ会津町【特定施設入居者生活介護（有料老人ホーム）】福島県白河市会津町83-1介護付有料老人ホーム　せせらぎ会津町", "url": "https://www.kaigokensaku.mhlw.go.jp/07/index.php?action_kouhyou_detail_004_kani=true&JigyosyoCd=0770501187-00&ServiceCd=331&Type=search", "url2": "seseragiaidumachi.web.fc2.com/" }, "geometry": { "type": "Point", "coordinates": [ 140.207102099999929, 37.1307997 ] } },
{ "type": "Feature", "properties": { "内容": "介護付有料老人ホーム　ハートランドケア東町【特定施設入居者生活介護（有料老人ホーム）】福島県喜多方市字蒔田3106-4", "url": "https://www.kaigokensaku.mhlw.go.jp/07/index.php?action_kouhyou_detail_004_kani=true&JigyosyoCd=0770801074-00&ServiceCd=331&Type=search", "url2": "https://keiwakai.net/" }, "geometry": { "type": "Point", "coordinates": [ 139.882938200000012, 37.6556451 ] } },
{ "type": "Feature", "properties": { "内容": "介護付き有料老人ホーム　暖ノ奏【特定施設入居者生活介護（有料老人ホーム）】福島県喜多方市小田付道下7132-4", "url": "https://www.kaigokensaku.mhlw.go.jp/07/index.php?action_kouhyou_detail_004_kani=true&JigyosyoCd=0770800977-00&ServiceCd=331&Type=search", "url2": "https://www.gurutto-aizu.com/detail/index_603.html" }, "geometry": { "type": "Point", "coordinates": [ 139.8752757, 37.6521612 ] } },
{ "type": "Feature", "properties": { "内容": "介護付き有料老人ホーム　暖ノ奏ときわ台【特定施設入居者生活介護（有料老人ホーム）】福島県喜多方市字常盤台13-3", "url": "https://www.kaigokensaku.mhlw.go.jp/07/index.php?action_kouhyou_detail_004_kani=true&JigyosyoCd=0770801033-00&ServiceCd=331&Type=search", "url2": "https://www.gurutto-aizu.com/detail/index_545.html" }, "geometry": { "type": "Point", "coordinates": [ 139.871952495106484, 37.666343114901089 ] } },
{ "type": "Feature", "properties": { "内容": "メープルハイム伊達【特定施設入居者生活介護（有料老人ホーム）】福島県伊達市箱崎字川端１番地１介護付有料老人ホーム　メープルハイム伊達", "url": "https://www.kaigokensaku.mhlw.go.jp/07/index.php?action_kouhyou_detail_004_kani=true&JigyosyoCd=0771300449-00&ServiceCd=331&Type=search", "url2": "https://www.m-date.jp/" }, "geometry": { "type": "Point", "coordinates": [ 140.510748199999966, 37.814985 ] } },
{ "type": "Feature", "properties": { "内容": "しなのきホーム西会津【特定施設入居者生活介護（有料老人ホーム）】福島県耶麻郡西会津町野沢字南松原甲1028番69", "url": "https://www.kaigokensaku.mhlw.go.jp/07/index.php?action_kouhyou_detail_004_kani=true&JigyosyoCd=0772500542-00&ServiceCd=331&Type=search", "url2": "http://www.sinanoki.co.jp/" }, "geometry": { "type": "Point", "coordinates": [ 139.633979, 37.5916556 ] } },
{ "type": "Feature", "properties": { "内容": "介護付有料老人ホーム　ケアテル吾妻苑【特定施設入居者生活介護（有料老人ホーム）】福島県耶麻郡猪苗代町大字蚕養字山根乙535番地の12", "url": "https://www.kaigokensaku.mhlw.go.jp/07/index.php?action_kouhyou_detail_004_kani=true&JigyosyoCd=0772500625-00&ServiceCd=331&Type=search", "url2": "https://caretel-azumaen.jp/" }, "geometry": { "type": "Point", "coordinates": [ 140.1386321, 37.6010929 ] } },
{ "type": "Feature", "properties": { "内容": "介護付有料老人ホーム　シルクケア坂下【特定施設入居者生活介護（有料老人ホーム）】福島県河沼郡会津坂下町大字羽林字西碇183番地", "url": "https://www.kaigokensaku.mhlw.go.jp/07/index.php?action_kouhyou_detail_004_kani=true&JigyosyoCd=0772600466-00&ServiceCd=331&Type=search", "url2": "https://www.npo-seifukai.com/" }, "geometry": { "type": "Point", "coordinates": [ 139.828022426876288, 37.555805944979845 ] } }
]
}
