{
"type": "FeatureCollection",
"name": "geo_7_4",
"crs": { "type": "name", "properties": { "name": "urn:ogc:def:crs:OGC:1.3:CRS84" } },
"features": [
{ "type": "Feature", "properties": { "ID": 740751000017, "正式名称": "もみじ助産院", "機関区分": 4, "都道府県コード": 7, "市区町村コード": 203, "所在地": "福島県郡山市田村町大善寺字上野代４－１", "緯度": 37.351767, "経度": 140.401289, "url": "https://www.iryou.teikyouseido.mhlw.go.jp/znk-web/juminkanja/S2430/initialize?prefCd=07&kikanCd=0751000017&kikanKbn=4", "url2": null, "内容": "もみじ助産院【4:助産院】福島県郡山市田村町大善寺字上野代４－１" }, "geometry": { "type": "Point", "coordinates": [ 140.401289, 37.351767 ] } },
{ "type": "Feature", "properties": { "ID": 740751000020, "正式名称": "特定非営利活動法人　Ｃｏｍｍｕｎｅ　ｗｉｔｈ　助産師　こみゅーん助産院", "機関区分": 4, "都道府県コード": 7, "市区町村コード": 204, "所在地": "福島県いわき市平谷川瀬２丁目１１－１２", "緯度": 37.047756, "経度": 140.895333, "url": "https://www.iryou.teikyouseido.mhlw.go.jp/znk-web/juminkanja/S2430/initialize?prefCd=07&kikanCd=0751000020&kikanKbn=4", "url2": "http://cw-jyosanshi.com/", "内容": "特定非営利活動法人　Ｃｏｍｍｕｎｅ　ｗｉｔｈ　助産師　こみゅーん助産院【4:助産院】福島県いわき市平谷川瀬２丁目１１－１２" }, "geometry": { "type": "Point", "coordinates": [ 140.895333, 37.047756 ] } },
{ "type": "Feature", "properties": { "ID": 740751000025, "正式名称": "会津助産院　おひさま", "機関区分": 4, "都道府県コード": 7, "市区町村コード": 408, "所在地": "福島県耶麻郡猪苗代町大字三ツ和字家北７５２の１番地", "緯度": 37.537092, "経度": 140.071861, "url": "https://www.iryou.teikyouseido.mhlw.go.jp/znk-web/juminkanja/S2430/initialize?prefCd=07&kikanCd=0751000025&kikanKbn=4", "url2": "http://fukushima-midwife.org/ohisama/", "内容": "会津助産院　おひさま【4:助産院】福島県耶麻郡猪苗代町大字三ツ和字家北７５２の１番地" }, "geometry": { "type": "Point", "coordinates": [ 140.071861, 37.537092 ] } },
{ "type": "Feature", "properties": { "ID": 740751000028, "正式名称": "ふくしま助産所", "機関区分": 4, "都道府県コード": 7, "市区町村コード": 201, "所在地": "福島県福島市渡利字岩崎町１９－２", "緯度": 37.748539, "経度": 140.481386, "url": "https://www.iryou.teikyouseido.mhlw.go.jp/znk-web/juminkanja/S2430/initialize?prefCd=07&kikanCd=0751000028&kikanKbn=4", "url2": "http://fukushima-midwife.org/", "内容": "ふくしま助産所【4:助産院】福島県福島市渡利字岩崎町１９－２" }, "geometry": { "type": "Point", "coordinates": [ 140.481386, 37.748539 ] } },
{ "type": "Feature", "properties": { "ID": 740751000029, "正式名称": "かしわ助産院", "機関区分": 4, "都道府県コード": 7, "市区町村コード": 461, "所在地": "福島県西白河郡西郷村大字米字向山１３８－７", "緯度": 37.133411, "経度": 140.189947, "url": "https://www.iryou.teikyouseido.mhlw.go.jp/znk-web/juminkanja/S2430/initialize?prefCd=07&kikanCd=0751000029&kikanKbn=4", "url2": "http://midwifemap.com/kashiwa/mysite/", "内容": "かしわ助産院【4:助産院】福島県西白河郡西郷村大字米字向山１３８－７" }, "geometry": { "type": "Point", "coordinates": [ 140.189947, 37.133411 ] } },
{ "type": "Feature", "properties": { "ID": 740751000032, "正式名称": "ママケアハウス", "機関区分": 4, "都道府県コード": 7, "市区町村コード": 204, "所在地": "福島県いわき市洋向台１丁目１番の１１", "緯度": 36.968756, "経度": 140.935436, "url": "https://www.iryou.teikyouseido.mhlw.go.jp/znk-web/juminkanja/S2430/initialize?prefCd=07&kikanCd=0751000032&kikanKbn=4", "url2": "http://www.mamacarehouse.com/", "内容": "ママケアハウス【4:助産院】福島県いわき市洋向台１丁目１番の１１" }, "geometry": { "type": "Point", "coordinates": [ 140.935436, 36.968756 ] } },
{ "type": "Feature", "properties": { "ID": 740751000034, "正式名称": "すかがわ助産院きずな", "機関区分": 4, "都道府県コード": 7, "市区町村コード": 207, "所在地": "福島県須賀川市南町２９０－１０", "緯度": 37.280456, "経度": 140.374572, "url": "https://www.iryou.teikyouseido.mhlw.go.jp/znk-web/juminkanja/S2430/initialize?prefCd=07&kikanCd=0751000034&kikanKbn=4", "url2": null, "内容": "すかがわ助産院きずな【4:助産院】福島県須賀川市南町２９０－１０" }, "geometry": { "type": "Point", "coordinates": [ 140.374572, 37.280456 ] } },
{ "type": "Feature", "properties": { "ID": 740751000035, "正式名称": "助産師の家うるる", "機関区分": 4, "都道府県コード": 7, "市区町村コード": 207, "所在地": "福島県須賀川市小作田字天下清水２", "緯度": 37.268528, "経度": 140.412861, "url": "https://www.iryou.teikyouseido.mhlw.go.jp/znk-web/juminkanja/S2430/initialize?prefCd=07&kikanCd=0751000035&kikanKbn=4", "url2": null, "内容": "助産師の家うるる【4:助産院】福島県須賀川市小作田字天下清水２" }, "geometry": { "type": "Point", "coordinates": [ 140.412861, 37.268528 ] } },
{ "type": "Feature", "properties": { "ID": 740751000036, "正式名称": "相馬助産所", "機関区分": 4, "都道府県コード": 7, "市区町村コード": 209, "所在地": "福島県相馬市北飯渕１丁目８番地５", "緯度": 37.801306, "経度": 140.930778, "url": "https://www.iryou.teikyouseido.mhlw.go.jp/znk-web/juminkanja/S2430/initialize?prefCd=07&kikanCd=0751000036&kikanKbn=4", "url2": null, "内容": "相馬助産所【4:助産院】福島県相馬市北飯渕１丁目８番地５" }, "geometry": { "type": "Point", "coordinates": [ 140.930778, 37.801306 ] } },
{ "type": "Feature", "properties": { "ID": 740751000038, "正式名称": "ゆっこ助産院", "機関区分": 4, "都道府県コード": 7, "市区町村コード": 213, "所在地": "福島県伊達市保原町上保原字大木田２３－１５", "緯度": 37.810714, "経度": 140.545492, "url": "https://www.iryou.teikyouseido.mhlw.go.jp/znk-web/juminkanja/S2430/initialize?prefCd=07&kikanCd=0751000038&kikanKbn=4", "url2": null, "内容": "ゆっこ助産院【4:助産院】福島県伊達市保原町上保原字大木田２３－１５" }, "geometry": { "type": "Point", "coordinates": [ 140.545492, 37.810714 ] } },
{ "type": "Feature", "properties": { "ID": 740751000039, "正式名称": "あおい助産所（出張専門）", "機関区分": 4, "都道府県コード": 7, "市区町村コード": 201, "所在地": "福島県福島市御山町７ー９ー４０３", "緯度": 37.763714, "経度": 140.467914, "url": "https://www.iryou.teikyouseido.mhlw.go.jp/znk-web/juminkanja/S2430/initialize?prefCd=07&kikanCd=0751000039&kikanKbn=4", "url2": null, "内容": "あおい助産所（出張専門）【4:助産院】福島県福島市御山町７ー９ー４０３" }, "geometry": { "type": "Point", "coordinates": [ 140.467914, 37.763714 ] } },
{ "type": "Feature", "properties": { "ID": 740751000040, "正式名称": "高野・よろず助産所", "機関区分": 4, "都道府県コード": 7, "市区町村コード": 201, "所在地": "福島県福島市本内字東慶ニ６３の３", "緯度": 37.789397, "経度": 140.501872, "url": "https://www.iryou.teikyouseido.mhlw.go.jp/znk-web/juminkanja/S2430/initialize?prefCd=07&kikanCd=0751000040&kikanKbn=4", "url2": null, "内容": "高野・よろず助産所【4:助産院】福島県福島市本内字東慶ニ６３の３" }, "geometry": { "type": "Point", "coordinates": [ 140.501872, 37.789397 ] } },
{ "type": "Feature", "properties": { "ID": 740751000041, "正式名称": "助産所ひろ羽（出張専門）", "機関区分": 4, "都道府県コード": 7, "市区町村コード": 201, "所在地": "福島県福島市", "緯度": 37.746806, "経度": 140.486167, "url": "https://www.iryou.teikyouseido.mhlw.go.jp/znk-web/juminkanja/S2430/initialize?prefCd=07&kikanCd=0751000041&kikanKbn=4", "url2": null, "内容": "助産所ひろ羽（出張専門）【4:助産院】福島県福島市" }, "geometry": { "type": "Point", "coordinates": [ 140.486167, 37.746806 ] } },
{ "type": "Feature", "properties": { "ID": 740751000043, "正式名称": "のっち助産所", "機関区分": 4, "都道府県コード": 7, "市区町村コード": 210, "所在地": "福島県二本松市油井字大森腰２０番１", "緯度": 37.611203, "経度": 140.469061, "url": "https://www.iryou.teikyouseido.mhlw.go.jp/znk-web/juminkanja/S2430/initialize?prefCd=07&kikanCd=0751000043&kikanKbn=4", "url2": null, "内容": "のっち助産所【4:助産院】福島県二本松市油井字大森腰２０番１" }, "geometry": { "type": "Point", "coordinates": [ 140.469061, 37.611203 ] } },
{ "type": "Feature", "properties": { "ID": 740751000046, "正式名称": "ゆりかご助産院", "機関区分": 4, "都道府県コード": 7, "市区町村コード": 201, "所在地": "福島県福島市瀬上町字行人堂１３－１", "緯度": 37.807181, "経度": 140.495122, "url": "https://www.iryou.teikyouseido.mhlw.go.jp/znk-web/juminkanja/S2430/initialize?prefCd=07&kikanCd=0751000046&kikanKbn=4", "url2": "https://fukushima-komorebi-cl.jp/", "内容": "ゆりかご助産院【4:助産院】福島県福島市瀬上町字行人堂１３－１" }, "geometry": { "type": "Point", "coordinates": [ 140.495122, 37.807181 ] } },
{ "type": "Feature", "properties": { "ID": 740751000047, "正式名称": "にこにこ助産所出張専門", "機関区分": 4, "都道府県コード": 7, "市区町村コード": 201, "所在地": "福島県福島市蓬莱町八丁目１１番２３号", "緯度": 37.696592, "経度": 140.487681, "url": "https://www.iryou.teikyouseido.mhlw.go.jp/znk-web/juminkanja/S2430/initialize?prefCd=07&kikanCd=0751000047&kikanKbn=4", "url2": null, "内容": "にこにこ助産所出張専門【4:助産院】福島県福島市蓬莱町八丁目１１番２３号" }, "geometry": { "type": "Point", "coordinates": [ 140.487681, 37.696592 ] } },
{ "type": "Feature", "properties": { "ID": 740751000050, "正式名称": "郡山　里の母乳相談室　桶谷式", "機関区分": 4, "都道府県コード": 7, "市区町村コード": 203, "所在地": "福島県郡山市桑野１ー７ー６", "緯度": 37.401188, "経度": 140.356246, "url": "https://www.iryou.teikyouseido.mhlw.go.jp/znk-web/juminkanja/S2430/initialize?prefCd=07&kikanCd=0751000050&kikanKbn=4", "url2": "https://satono.localinfo.jp", "内容": "郡山　里の母乳相談室　桶谷式【4:助産院】福島県郡山市桑野１ー７ー６" }, "geometry": { "type": "Point", "coordinates": [ 140.356246, 37.401188 ] } },
{ "type": "Feature", "properties": { "ID": 747000000011, "正式名称": "星の丘助産院", "機関区分": 4, "都道府県コード": 7, "市区町村コード": 201, "所在地": "福島県福島市野田町字上谷地２－６", "緯度": 37.768843, "経度": 140.44022, "url": "https://www.iryou.teikyouseido.mhlw.go.jp/znk-web/juminkanja/S2430/initialize?prefCd=07&kikanCd=7000000011&kikanKbn=4", "url2": null, "内容": "星の丘助産院【4:助産院】福島県福島市野田町字上谷地２－６" }, "geometry": { "type": "Point", "coordinates": [ 140.44022, 37.768843 ] } },
{ "type": "Feature", "properties": { "ID": 749000000009, "正式名称": "桜の森助産院", "機関区分": 4, "都道府県コード": 7, "市区町村コード": 204, "所在地": "福島県いわき市平字長橋町１－１", "緯度": 37.053875, "経度": 140.882331, "url": "https://www.iryou.teikyouseido.mhlw.go.jp/znk-web/juminkanja/S2430/initialize?prefCd=07&kikanCd=9000000009&kikanKbn=4", "url2": "https://www.midwifemap.com/mysite/sakuranomori/", "内容": "桜の森助産院【4:助産院】福島県いわき市平字長橋町１－１" }, "geometry": { "type": "Point", "coordinates": [ 140.882331, 37.053875 ] } },
{ "type": "Feature", "properties": { "ID": 749000000024, "正式名称": "ハル助産院", "機関区分": 4, "都道府県コード": 7, "市区町村コード": 204, "所在地": "福島県いわき市平字作町三丁目５－２サテライトハイツⅡ２０２号", "緯度": 37.047293, "経度": 140.903976, "url": "https://www.iryou.teikyouseido.mhlw.go.jp/znk-web/juminkanja/S2430/initialize?prefCd=07&kikanCd=9000000024&kikanKbn=4", "url2": "harujyosanin0117.wixsite.com", "内容": "ハル助産院【4:助産院】福島県いわき市平字作町三丁目５－２サテライトハイツⅡ２０２号" }, "geometry": { "type": "Point", "coordinates": [ 140.903976, 37.047293 ] } }
]
}
