{
"type": "FeatureCollection",
"name": "geo_07_大学",
"crs": { "type": "name", "properties": { "name": "urn:ogc:def:crs:EPSG::6668" } },
"features": [
{ "type": "Feature", "properties": { "P29_001": "07201", "P29_002": "F107110101273", "P29_003": "16007", "P29_004": "福島大学", "P29_005": "福島県福島市金谷川1", "P29_006": "1", "P29_007": "0", "P29_008": "00", "P29_009": null }, "geometry": { "type": "Point", "coordinates": [ 140.454969881623214, 37.682978396091563 ] } },
{ "type": "Feature", "properties": { "P29_001": "07201", "P29_002": "F107210101280", "P29_003": "16007", "P29_004": "福島県立医科大学", "P29_005": "福島県福島市光が丘1", "P29_006": "2", "P29_007": "0", "P29_008": "00", "P29_009": null }, "geometry": { "type": "Point", "coordinates": [ 140.469388886335366, 37.689997083054195 ] } },
{ "type": "Feature", "properties": { "P29_001": "07202", "P29_002": "F107210101299", "P29_003": "16007", "P29_004": "会津大学", "P29_005": "福島県会津若松市一箕町大字鶴賀字上居合90", "P29_006": "3", "P29_007": "0", "P29_008": "00", "P29_009": null }, "geometry": { "type": "Point", "coordinates": [ 139.938829033410201, 37.523759851058344 ] } },
{ "type": "Feature", "properties": { "P29_001": "07203", "P29_002": "F107310101304", "P29_003": "16007", "P29_004": "郡山女子大学", "P29_005": "福島県郡山市開成3-25-2", "P29_006": "4", "P29_007": "0", "P29_008": "00", "P29_009": null }, "geometry": { "type": "Point", "coordinates": [ 140.351775557670322, 37.39724086178753 ] } },
{ "type": "Feature", "properties": { "P29_001": "07203", "P29_002": "F107310101313", "P29_003": "16007", "P29_004": "奥羽大学", "P29_005": "福島県郡山市富田町字三角堂31-1", "P29_006": "4", "P29_007": "0", "P29_008": "00", "P29_009": null }, "geometry": { "type": "Point", "coordinates": [ 140.374306470241635, 37.418187589885889 ] } },
{ "type": "Feature", "properties": { "P29_001": "07204", "P29_002": "F107310101322", "P29_003": "16007", "P29_004": "医療創生大学", "P29_005": "福島県いわき市中央台飯野5-5-1", "P29_006": "4", "P29_007": "0", "P29_008": "00", "P29_009": null }, "geometry": { "type": "Point", "coordinates": [ 140.916940848110073, 37.018871832667394 ] } },
{ "type": "Feature", "properties": { "P29_001": "07204", "P29_002": "F107310101331", "P29_003": "16007", "P29_004": "東日本国際大学", "P29_005": "福島県いわき市平鎌田字寿金沢37", "P29_006": "4", "P29_007": "0", "P29_008": "00", "P29_009": null }, "geometry": { "type": "Point", "coordinates": [ 140.907952082103151, 37.057550019791307 ] } },
{ "type": "Feature", "properties": { "P29_001": "07201", "P29_002": "F107310101340", "P29_003": "16007", "P29_004": "福島学院大学", "P29_005": "福島県福島市宮代字乳児池1-1", "P29_006": "4", "P29_007": "0", "P29_008": "00", "P29_009": null }, "geometry": { "type": "Point", "coordinates": [ 140.487476457434212, 37.799651411180896 ] } },
{ "type": "Feature", "properties": { "P29_001": "07203", "P29_002": "F113310103395", "P29_003": "16007", "P29_004": "日本大学", "P29_005": "福島県郡山市田村町徳定字河原1", "P29_006": "4", "P29_007": "0", "P29_008": "02", "P29_009": "工学部" }, "geometry": { "type": "Point", "coordinates": [ 140.382655247716571, 37.35948271550248 ] } }
]
}
