{
"type": "FeatureCollection",
"name": "geo_07_介護老人保健施設",
"crs": { "type": "name", "properties": { "name": "urn:ogc:def:crs:OGC:1.3:CRS84" } },
"features": [
{ "type": "Feature", "properties": { "内容": "介護老人保健施設エルダーランド【介護老人保健施設】福島県福島市吉倉字谷地５２", "url": "https://www.kaigokensaku.mhlw.go.jp/07/index.php?action_kouhyou_detail_004_kani=true&JigyosyoCd=0750185019-00&ServiceCd=520&Type=search", "url2": "http://www.elder-land.jp/" }, "geometry": { "type": "Point", "coordinates": [ 140.446267499999976, 37.7423852 ] } },
{ "type": "Feature", "properties": { "内容": "介護老人保健施設　「聖・オリーブの郷」【介護老人保健施設】福島県福島市山口字梅本１１－１", "url": "https://www.kaigokensaku.mhlw.go.jp/07/index.php?action_kouhyou_detail_004_kani=true&JigyosyoCd=0750185027-00&ServiceCd=520&Type=search", "url2": "https://sosei.org/publics/index/86/" }, "geometry": { "type": "Point", "coordinates": [ 140.513666100000023, 37.7668537 ] } },
{ "type": "Feature", "properties": { "内容": "医療法人　生愛会　附属介護老人保健施設　生愛会ナーシングケアセンター【介護老人保健施設】福島県福島市大笹生字向平１３－１", "url": "https://www.kaigokensaku.mhlw.go.jp/07/index.php?action_kouhyou_detail_004_kani=true&JigyosyoCd=0750185035-00&ServiceCd=520&Type=search", "url2": "http://www.seiaikai.jp/" }, "geometry": { "type": "Point", "coordinates": [ 140.39175130000001, 37.796467 ] } },
{ "type": "Feature", "properties": { "内容": "介護老人保健施設　リハビリ南東北福島【介護老人保健施設】福島県福島市荒井北3丁目1-18", "url": "https://www.kaigokensaku.mhlw.go.jp/07/index.php?action_kouhyou_detail_004_kani=true&JigyosyoCd=0750180010-00&ServiceCd=520&Type=search", "url2": "https://f-str.jp/healthcare_facility/index.html" }, "geometry": { "type": "Point", "coordinates": [ 140.387326298811331, 37.725644647904097 ] } },
{ "type": "Feature", "properties": { "内容": "介護老人保健施設　ケアフォーラムあづま【介護老人保健施設】福島県福島市大森字柳下４８番地の１", "url": "https://www.kaigokensaku.mhlw.go.jp/07/index.php?action_kouhyou_detail_004_kani=true&JigyosyoCd=0750180036-00&ServiceCd=520&Type=search", "url2": "https://www.azumanh.or.jp" }, "geometry": { "type": "Point", "coordinates": [ 140.444748299999986, 37.7388828 ] } },
{ "type": "Feature", "properties": { "内容": "介護老人保健施設　ケアタウンひまわり【介護老人保健施設】福島県福島市伏拝字沼ノ上2-17", "url": "https://www.kaigokensaku.mhlw.go.jp/07/index.php?action_kouhyou_detail_004_kani=true&JigyosyoCd=0750180051-00&ServiceCd=520&Type=search", "url2": "http://www.seijukai.org/" }, "geometry": { "type": "Point", "coordinates": [ 140.4675532, 37.7113198 ] } },
{ "type": "Feature", "properties": { "内容": "介護老人保健施設はなひらの【介護老人保健施設】福島県福島市飯坂町平野字小深田1-5", "url": "https://www.kaigokensaku.mhlw.go.jp/07/index.php?action_kouhyou_detail_004_kani=true&JigyosyoCd=0750185043-00&ServiceCd=520&Type=search", "url2": "https://watari-fukushikai.jp/" }, "geometry": { "type": "Point", "coordinates": [ 140.44077429999993, 37.8015067 ] } },
{ "type": "Feature", "properties": { "内容": "介護老人保健施設「聖・オリーブの郷」東館【介護老人保健施設】福島県福島市山口字四至田１－１", "url": "https://www.kaigokensaku.mhlw.go.jp/07/index.php?action_kouhyou_detail_004_kani=true&JigyosyoCd=0750180028-00&ServiceCd=520&Type=search", "url2": "http://www.seiolivenosatohigashikan.jp/" }, "geometry": { "type": "Point", "coordinates": [ 140.514171799999986, 37.7641567 ] } },
{ "type": "Feature", "properties": { "内容": "老人保健施設にじのまち【介護老人保健施設】福島県福島市北沢又字番匠田5", "url": "https://www.kaigokensaku.mhlw.go.jp/07/index.php?action_kouhyou_detail_004_kani=true&JigyosyoCd=0750185050-00&ServiceCd=520&Type=search", "url2": "http://www.kirari-hcoop.com" }, "geometry": { "type": "Point", "coordinates": [ 140.4346031, 37.7854746 ] } },
{ "type": "Feature", "properties": { "内容": "介護老人保健施設　ホリスティカかまた【介護老人保健施設】福島県福島市鎌田字門丈壇4番1", "url": "https://www.kaigokensaku.mhlw.go.jp/07/index.php?action_kouhyou_detail_004_kani=true&JigyosyoCd=0750180069-00&ServiceCd=520&Type=search", "url2": "http://www.holistica-kamata.jp" }, "geometry": { "type": "Point", "coordinates": [ 140.480304199999978, 37.7962722 ] } },
{ "type": "Feature", "properties": { "内容": "敬愛シニアガーデン卸町【介護老人保健施設】福島県福島市鎌田字卸町８－１", "url": "https://www.kaigokensaku.mhlw.go.jp/07/index.php?action_kouhyou_detail_004_kani=true&JigyosyoCd=0750180077-00&ServiceCd=520&Type=search", "url2": "http://www.keiai-kai.or.jp/publics/index/321/" }, "geometry": { "type": "Point", "coordinates": [ 140.480812600000036, 37.7942113 ] } },
{ "type": "Feature", "properties": { "内容": "介護療養型老人保健施設天生【介護老人保健施設】福島県会津若松市一箕町松長6丁目12番地1", "url": "https://www.kaigokensaku.mhlw.go.jp/07/index.php?action_kouhyou_detail_004_kani=true&JigyosyoCd=0750280059-00&ServiceCd=520&Type=search", "url2": "https://www.onchikai.jp/hillstensho/rouken/" }, "geometry": { "type": "Point", "coordinates": [ 139.95843558332831, 37.525148112315343 ] } },
{ "type": "Feature", "properties": { "内容": "介護老人保健施設　美野里【介護老人保健施設】福島県会津若松市北会津町東小松字南古川12番地", "url": "https://www.kaigokensaku.mhlw.go.jp/07/index.php?action_kouhyou_detail_004_kani=true&JigyosyoCd=0752485011-00&ServiceCd=520&Type=search", "url2": "http://www.meisei-kai.or.jp" }, "geometry": { "type": "Point", "coordinates": [ 139.890953500000023, 37.4724038 ] } },
{ "type": "Feature", "properties": { "内容": "一般財団法人　竹田健康財団　介護老人保健施設エミネンス芦ノ牧【介護老人保健施設】福島県会津若松市大戸町大字芦牧字湯平５２７－１", "url": "https://www.kaigokensaku.mhlw.go.jp/07/index.php?action_kouhyou_detail_004_kani=true&JigyosyoCd=0750285025-00&ServiceCd=520&Type=search", "url2": "http//www.takeda.or.jp" }, "geometry": { "type": "Point", "coordinates": [ 139.9138266, 37.3640019 ] } },
{ "type": "Feature", "properties": { "内容": "介護老人保健施設　悠悠【介護老人保健施設】福島県会津若松市一箕町大字松長字上長原54", "url": "https://www.kaigokensaku.mhlw.go.jp/07/index.php?action_kouhyou_detail_004_kani=true&JigyosyoCd=0750280042-00&ServiceCd=520&Type=search", "url2": "https://www.onchikai.jp/yuyu/" }, "geometry": { "type": "Point", "coordinates": [ 139.96039769999993, 37.5218054 ] } },
{ "type": "Feature", "properties": { "内容": "介護老人保健施設　ライフケア鶴賀【介護老人保健施設】福島県会津若松市一箕町大字鶴賀字船ヶ森東535-1", "url": "https://www.kaigokensaku.mhlw.go.jp/07/index.php?action_kouhyou_detail_004_kani=true&JigyosyoCd=0750280067-00&ServiceCd=520&Type=search", "url2": "https://www.onchikai.jp/lifecare-tsuruga" }, "geometry": { "type": "Point", "coordinates": [ 139.949244499999963, 37.5215305 ] } },
{ "type": "Feature", "properties": { "内容": "介護老人保健施設悠悠【介護老人保健施設】福島県会津若松市一箕町大字松長字上長原54", "url": "https://www.kaigokensaku.mhlw.go.jp/07/index.php?action_kouhyou_detail_004_kani=true&JigyosyoCd=0750280018-00&ServiceCd=520&Type=search", "url2": "http://www.onchikai.jp/yuyu" }, "geometry": { "type": "Point", "coordinates": [ 139.9603588, 37.5217582 ] } },
{ "type": "Feature", "properties": { "内容": "介護老人保健施設　ライフサポート寧寧【介護老人保健施設】福島県会津若松市一箕町大字鶴賀字苅林39番地１", "url": "https://www.kaigokensaku.mhlw.go.jp/07/index.php?action_kouhyou_detail_004_kani=true&JigyosyoCd=0750280075-00&ServiceCd=520&Type=search", "url2": null }, "geometry": { "type": "Point", "coordinates": [ 139.952090099999964, 37.523222 ] } },
{ "type": "Feature", "properties": { "内容": "介護老人保健施設　啓寿園【介護老人保健施設】福島県郡山市安積町笹川字経坦31番地", "url": "https://www.kaigokensaku.mhlw.go.jp/07/index.php?action_kouhyou_detail_004_kani=true&JigyosyoCd=0750385015-00&ServiceCd=520&Type=search", "url2": "http://www.asaka.or.jp" }, "geometry": { "type": "Point", "coordinates": [ 140.363743900000031, 37.3487957 ] } },
{ "type": "Feature", "properties": { "内容": "介護老人保健施設コスモス通り【介護老人保健施設】福島県郡山市鳴神三丁目１１０番地", "url": "https://www.kaigokensaku.mhlw.go.jp/07/index.php?action_kouhyou_detail_004_kani=true&JigyosyoCd=0750385049-00&ServiceCd=520&Type=search", "url2": "http://www.koriyama-seikeigeka.jp/" }, "geometry": { "type": "Point", "coordinates": [ 140.3350613, 37.3940124 ] } },
{ "type": "Feature", "properties": { "内容": "介護老人保健施設さかえハートみらい【介護老人保健施設】郡山市東原3-112", "url": "https://www.kaigokensaku.mhlw.go.jp/07/index.php?action_kouhyou_detail_004_kani=true&JigyosyoCd=0750380024-00&ServiceCd=520&Type=search", "url2": null }, "geometry": { "type": "Point", "coordinates": [ 140.354744300000021, 37.43272590000003 ] } },
{ "type": "Feature", "properties": { "内容": "介護老人保健施設　ゴールドメディア【介護老人保健施設】福島県郡山市八山田七丁目136", "url": "https://www.kaigokensaku.mhlw.go.jp/07/index.php?action_kouhyou_detail_004_kani=true&JigyosyoCd=0750385031-00&ServiceCd=520&Type=search", "url2": "http://www.minamitohoku.or.jp/goldmedia/" }, "geometry": { "type": "Point", "coordinates": [ 140.3837476, 37.4216411 ] } },
{ "type": "Feature", "properties": { "内容": "一般財団法人太田綜合病院附属介護老人保健施設桔梗【介護老人保健施設】福島県郡山市熱海町玉川字万海田46番地7", "url": "https://www.kaigokensaku.mhlw.go.jp/07/index.php?action_kouhyou_detail_004_kani=true&JigyosyoCd=0750385056-00&ServiceCd=520&Type=search", "url2": "https://roken.ohta-hp.or.jp" }, "geometry": { "type": "Point", "coordinates": [ 140.287407028172311, 37.482408778040842 ] } },
{ "type": "Feature", "properties": { "内容": "介護老人保健施設　光の森【介護老人保健施設】福島県郡山市横川町字遠後５０－１", "url": "https://www.kaigokensaku.mhlw.go.jp/07/index.php?action_kouhyou_detail_004_kani=true&JigyosyoCd=0750385072-00&ServiceCd=520&Type=search", "url2": "http://hikarino-mori.jp/" }, "geometry": { "type": "Point", "coordinates": [ 140.415273699999943, 37.3913759 ] } },
{ "type": "Feature", "properties": { "内容": "社会福祉法人昌平黌　介護老人保健施設二ツ箭荘【介護老人保健施設】福島県いわき市小川町上小川字大坂68番地の1", "url": "https://www.kaigokensaku.mhlw.go.jp/07/index.php?action_kouhyou_detail_004_kani=true&JigyosyoCd=0750485021-00&ServiceCd=520&Type=search", "url2": "http://syouheikou.or.jp/futatsuya/" }, "geometry": { "type": "Point", "coordinates": [ 140.856860899999987, 37.1415997 ] } },
{ "type": "Feature", "properties": { "内容": "介護老人保健施設　ヒーリングホーム四倉【介護老人保健施設】福島県いわき市四倉町下仁井田南追切２３番地", "url": "https://www.kaigokensaku.mhlw.go.jp/07/index.php?action_kouhyou_detail_004_kani=true&JigyosyoCd=0750485070-00&ServiceCd=520&Type=search", "url2": "http://www.yotsukura.or.jp/healing-home-yotsukura.html" }, "geometry": { "type": "Point", "coordinates": [ 140.97247010000001, 37.0898531 ] } },
{ "type": "Feature", "properties": { "内容": "介護老人保健施設　佳勝園【介護老人保健施設】福島県いわき市金山町月見台134-1", "url": "https://www.kaigokensaku.mhlw.go.jp/07/index.php?action_kouhyou_detail_004_kani=true&JigyosyoCd=0750480030-00&ServiceCd=520&Type=search", "url2": "https://www.kashouen.net/" }, "geometry": { "type": "Point", "coordinates": [ 140.83124620000001, 36.9249125 ] } },
{ "type": "Feature", "properties": { "内容": "介護老人保健施設　ガーデニア【介護老人保健施設】福島県いわき市錦町落合１番地１", "url": "https://www.kaigokensaku.mhlw.go.jp/07/index.php?action_kouhyou_detail_004_kani=true&JigyosyoCd=0750480022-00&ServiceCd=520&Type=search", "url2": "https://www.kureha-hosp.jp/guidance/gardenia/" }, "geometry": { "type": "Point", "coordinates": [ 140.782424803041039, 36.900462878219045 ] } },
{ "type": "Feature", "properties": { "内容": "介護老人保健施設　小名浜ときわ苑【介護老人保健施設】福島県いわき市小名浜金成字町田18-1", "url": "https://www.kaigokensaku.mhlw.go.jp/07/index.php?action_kouhyou_detail_004_kani=true&JigyosyoCd=0750480055-00&ServiceCd=520&Type=search", "url2": "http://www.onahama-tokiwaen.com" }, "geometry": { "type": "Point", "coordinates": [ 140.897140400000012, 36.988131 ] } },
{ "type": "Feature", "properties": { "内容": "介護老人保健施設　小名浜ときわ苑【介護老人保健施設】福島県いわき市小名浜金成字町田18-1", "url": "https://www.kaigokensaku.mhlw.go.jp/07/index.php?action_kouhyou_detail_004_kani=true&JigyosyoCd=0750485088-00&ServiceCd=520&Type=search", "url2": "http://www.onahama-tokiwaen.com/" }, "geometry": { "type": "Point", "coordinates": [ 140.897140400000012, 36.988131 ] } },
{ "type": "Feature", "properties": { "内容": "医療法人社団秀友会介護老人保健施設　サンライフゆもと【介護老人保健施設】福島県いわき市常磐藤原町大畑13-１", "url": "https://www.kaigokensaku.mhlw.go.jp/07/index.php?action_kouhyou_detail_004_kani=true&JigyosyoCd=0750485013-00&ServiceCd=520&Type=search", "url2": "http://www.sunlife-yumoto.com/" }, "geometry": { "type": "Point", "coordinates": [ 140.813527799999946, 37.0011338 ] } },
{ "type": "Feature", "properties": { "内容": "介護老人保健施設　うらら苑【介護老人保健施設】福島県いわき市常磐長孫町大平８０番地", "url": "https://www.kaigokensaku.mhlw.go.jp/07/index.php?action_kouhyou_detail_004_kani=true&JigyosyoCd=0750485047-00&ServiceCd=520&Type=search", "url2": "http://syunyoukai.sakura.ne.jp" }, "geometry": { "type": "Point", "coordinates": [ 140.85331, 36.9718245 ] } },
{ "type": "Feature", "properties": { "内容": "医療法人桂生会介護老人保健施設四季庵【介護老人保健施設】福島県いわき市好間町中好間字六反歩１－４６", "url": "https://www.kaigokensaku.mhlw.go.jp/07/index.php?action_kouhyou_detail_004_kani=true&JigyosyoCd=0750485096-00&ServiceCd=520&Type=search", "url2": "https://sikian-iwaki.com/" }, "geometry": { "type": "Point", "coordinates": [ 140.842824899999982, 37.0515256 ] } },
{ "type": "Feature", "properties": { "内容": "介護老人保健施設　楢葉ときわ苑【介護老人保健施設】福島県いわき市内郷高坂町四方木田155（仮設）", "url": "https://www.kaigokensaku.mhlw.go.jp/07/index.php?action_kouhyou_detail_004_kani=true&JigyosyoCd=0753280023-00&ServiceCd=520&Type=search", "url2": "https://www.tokiwa.or.jp/welfare/naraha/summary.html" }, "geometry": { "type": "Point", "coordinates": [ 140.865551580624356, 37.044718892028314 ] } },
{ "type": "Feature", "properties": { "内容": "医療法人社団正風会　介護老人保健施設　いきがい村【介護老人保健施設】福島県いわき市小浜町東ノ作１６４の２番地", "url": "https://www.kaigokensaku.mhlw.go.jp/07/index.php?action_kouhyou_detail_004_kani=true&JigyosyoCd=0750485104-00&ServiceCd=520&Type=search", "url2": "http://www.ishiihp.or.jp" }, "geometry": { "type": "Point", "coordinates": [ 140.843004899999983, 36.9170222 ] } },
{ "type": "Feature", "properties": { "内容": "介護老人保健施設　しろがねの里【介護老人保健施設】いわき市四倉町字東一丁目５４番地", "url": "https://www.kaigokensaku.mhlw.go.jp/07/index.php?action_kouhyou_detail_004_kani=true&JigyosyoCd=0750480048-00&ServiceCd=520&Type=search", "url2": "https://www.big-advance.site/c/191/1452" }, "geometry": { "type": "Point", "coordinates": [ 140.985551500000042, 37.1000771 ] } },
{ "type": "Feature", "properties": { "内容": "介護老人保健施設「ひもろぎの園」【介護老人保健施設】福島県白河市関辺川前88", "url": "https://www.kaigokensaku.mhlw.go.jp/07/index.php?action_kouhyou_detail_004_kani=true&JigyosyoCd=0750585010-00&ServiceCd=520&Type=search", "url2": "https://sono-himorogi.org/" }, "geometry": { "type": "Point", "coordinates": [ 140.250843700000019, 37.0953891 ] } },
{ "type": "Feature", "properties": { "内容": "介護老人保健施設アネシス【介護老人保健施設】福島県須賀川市稲字古舘３９－２", "url": "https://www.kaigokensaku.mhlw.go.jp/07/index.php?action_kouhyou_detail_004_kani=true&JigyosyoCd=0750785016-00&ServiceCd=520&Type=search", "url2": "http://www.h3.dion.ne.jp/~heishin/index2.htm" }, "geometry": { "type": "Point", "coordinates": [ 140.326414399999976, 37.2858264 ] } },
{ "type": "Feature", "properties": { "内容": "介護老人保健施設　南東北春日リハビリテーション・ケアセンター【介護老人保健施設】福島県須賀川市南上町１２３番地ー１", "url": "https://www.kaigokensaku.mhlw.go.jp/07/index.php?action_kouhyou_detail_004_kani=true&JigyosyoCd=0750780017-00&ServiceCd=520&Type=search", "url2": "http://www.kasuga-rehabili.com" }, "geometry": { "type": "Point", "coordinates": [ 140.386445699999967, 37.2834419 ] } },
{ "type": "Feature", "properties": { "内容": "介護老人保健施設　南東北春日リハビリテーション・ケアセンター【介護老人保健施設】福島県須賀川市南上町123番地の1", "url": "https://www.kaigokensaku.mhlw.go.jp/07/index.php?action_kouhyou_detail_004_kani=true&JigyosyoCd=0750780025-00&ServiceCd=520&Type=search", "url2": "http://www.kasuga-rehabili.com" }, "geometry": { "type": "Point", "coordinates": [ 140.386523500000067, 37.2834807 ] } },
{ "type": "Feature", "properties": { "内容": "介護老人保健施設オープンアームズ【介護老人保健施設】福島県須賀川市西川字池ノ上５１－１０２", "url": "https://www.kaigokensaku.mhlw.go.jp/07/index.php?action_kouhyou_detail_004_kani=true&JigyosyoCd=0750785024-00&ServiceCd=520&Type=search", "url2": "http://open-arms.or.jp" }, "geometry": { "type": "Point", "coordinates": [ 140.367398800000046, 37.3074141 ] } },
{ "type": "Feature", "properties": { "内容": "介護老人保健施設　パステルヴィレッジ小野【介護老人保健施設】福島県喜多方市字加登２９７１－１", "url": "https://www.kaigokensaku.mhlw.go.jp/07/index.php?action_kouhyou_detail_004_kani=true&JigyosyoCd=0750885022-00&ServiceCd=520&Type=search", "url2": "http://onohp.jp/publics/index/65/" }, "geometry": { "type": "Point", "coordinates": [ 139.8809635, 37.6583266 ] } },
{ "type": "Feature", "properties": { "内容": "医療機関併設型小規模介護老人保健施設ハートランドケア東町【介護老人保健施設】福島県喜多方市字蒔田3106番地の4", "url": "https://www.kaigokensaku.mhlw.go.jp/07/index.php?action_kouhyou_detail_004_kani=true&JigyosyoCd=0750880023-00&ServiceCd=520&Type=search", "url2": "https://keiwakai.net/" }, "geometry": { "type": "Point", "coordinates": [ 139.882938200000012, 37.6556451 ] } },
{ "type": "Feature", "properties": { "内容": "介護老人保健施設　天心ケアハイツ【介護老人保健施設】福島県喜多方市松山町村松字北原3656-3", "url": "https://www.kaigokensaku.mhlw.go.jp/07/index.php?action_kouhyou_detail_004_kani=true&JigyosyoCd=0750885014-00&ServiceCd=520&Type=search", "url2": "http://www.tenshinkai.or.jp" }, "geometry": { "type": "Point", "coordinates": [ 139.8699967, 37.6836482 ] } },
{ "type": "Feature", "properties": { "内容": "介護老人保健施設　ケアホームやまと【介護老人保健施設】福島県喜多方市山都町木幡字鼬塚丁１５７１", "url": "https://www.kaigokensaku.mhlw.go.jp/07/index.php?action_kouhyou_detail_004_kani=true&JigyosyoCd=0752580019-00&ServiceCd=520&Type=search", "url2": "http://www.sawara.or.jp" }, "geometry": { "type": "Point", "coordinates": [ 139.775271, 37.6547738 ] } },
{ "type": "Feature", "properties": { "内容": "介護老人保健施設　森の都【介護老人保健施設】福島県相馬市柚木字大関70-１", "url": "https://www.kaigokensaku.mhlw.go.jp/07/index.php?action_kouhyou_detail_004_kani=true&JigyosyoCd=0750980013-00&ServiceCd=520&Type=search", "url2": "http://www.koureikai.jp/" }, "geometry": { "type": "Point", "coordinates": [ 140.955335699999978, 37.7443884 ] } },
{ "type": "Feature", "properties": { "内容": "介護老人保健施設ベテランズサークル【介護老人保健施設】福島県相馬市小泉字高池319-1", "url": "https://www.kaigokensaku.mhlw.go.jp/07/index.php?action_kouhyou_detail_004_kani=true&JigyosyoCd=0750985012-00&ServiceCd=520&Type=search", "url2": "https://soma-vc.com/" }, "geometry": { "type": "Point", "coordinates": [ 140.919208199999957, 37.8074731 ] } },
{ "type": "Feature", "properties": { "内容": "二本松病院附属介護老人保健施設【介護老人保健施設】福島県二本松市成田町１丁目８６７番地", "url": "https://www.kaigokensaku.mhlw.go.jp/07/index.php?action_kouhyou_detail_004_kani=true&JigyosyoCd=0751085010-00&ServiceCd=520&Type=search", "url2": "http://nihonmatsu.jcho.go.jp/" }, "geometry": { "type": "Point", "coordinates": [ 140.4215742, 37.5910489 ] } },
{ "type": "Feature", "properties": { "内容": "介護老人保健施設あだたら【介護老人保健施設】福島県二本松市油井字戸ノ内21-1", "url": "https://www.kaigokensaku.mhlw.go.jp/07/index.php?action_kouhyou_detail_004_kani=true&JigyosyoCd=0751080011-00&ServiceCd=520&Type=search", "url2": "http://www.sg-adatara.jp/" }, "geometry": { "type": "Point", "coordinates": [ 140.4639664, 37.6145274 ] } },
{ "type": "Feature", "properties": { "内容": "介護老人保健施設　やまびこ苑【介護老人保健施設】福島県二本松市住吉100", "url": "https://www.kaigokensaku.mhlw.go.jp/07/index.php?action_kouhyou_detail_004_kani=true&JigyosyoCd=0751085028-00&ServiceCd=520&Type=search", "url2": "http://www.masu-med.or.jp" }, "geometry": { "type": "Point", "coordinates": [ 140.403902199999948, 37.5545189 ] } },
{ "type": "Feature", "properties": { "内容": "介護老人保健施設　滝根「聖・オリオンの郷」【介護老人保健施設】福島県田村市滝根町神俣字大平２６６－３", "url": "https://www.kaigokensaku.mhlw.go.jp/07/index.php?action_kouhyou_detail_004_kani=true&JigyosyoCd=0751180019-00&ServiceCd=520&Type=search", "url2": "https://sosei.org/publics/index/127/" }, "geometry": { "type": "Point", "coordinates": [ 140.678557500000011, 37.3261503 ] } },
{ "type": "Feature", "properties": { "内容": "介護老人保健施設　桜美苑【介護老人保健施設】福島県田村市船引町船引字馬場41-2", "url": "https://www.kaigokensaku.mhlw.go.jp/07/index.php?action_kouhyou_detail_004_kani=true&JigyosyoCd=0753185016-00&ServiceCd=520&Type=search", "url2": "https://www.shukeikai-s.jp" }, "geometry": { "type": "Point", "coordinates": [ 140.569058899999959, 37.4424771 ] } },
{ "type": "Feature", "properties": { "内容": "介護老人保健施設　歩【介護老人保健施設】福島県田村市船引町船引字砂子田42", "url": "https://www.kaigokensaku.mhlw.go.jp/07/index.php?action_kouhyou_detail_004_kani=true&JigyosyoCd=0751180027-00&ServiceCd=520&Type=search", "url2": "https://funehiki.clinic/" }, "geometry": { "type": "Point", "coordinates": [ 140.571241260049419, 37.446090427074957 ] } },
{ "type": "Feature", "properties": { "内容": "介護老人保健施設　長生院【介護老人保健施設】福島県南相馬市原町区本町一丁目１４１番地", "url": "https://www.kaigokensaku.mhlw.go.jp/07/index.php?action_kouhyou_detail_004_kani=true&JigyosyoCd=0750685018-00&ServiceCd=520&Type=search", "url2": "www.chouseiin.jp/" }, "geometry": { "type": "Point", "coordinates": [ 140.95988669999997, 37.6392056 ] } },
{ "type": "Feature", "properties": { "内容": "福島県厚生農業協同組合連合会鹿島厚生病院併設介護老人保健施設厚寿苑【介護老人保健施設】福島県南相馬市鹿島区横手字八郎内３番地", "url": "https://www.kaigokensaku.mhlw.go.jp/07/index.php?action_kouhyou_detail_004_kani=true&JigyosyoCd=0753385012-00&ServiceCd=520&Type=search", "url2": "http://kashima-koujuen.net/" }, "geometry": { "type": "Point", "coordinates": [ 140.962700390074133, 37.708928488654649 ] } },
{ "type": "Feature", "properties": { "内容": "介護老人保健施設ヨッシーランド【介護老人保健施設】原町区石神字赤坂110番地1", "url": "https://www.kaigokensaku.mhlw.go.jp/07/index.php?action_kouhyou_detail_004_kani=true&JigyosyoCd=0751280017-00&ServiceCd=520&Type=search", "url2": "jiseikai-mc.jp/" }, "geometry": { "type": "Point", "coordinates": [ 140.924366700000064, 37.6434999 ] } },
{ "type": "Feature", "properties": { "内容": "プライムケア桃花林【介護老人保健施設】福島県伊達市保原町字岡代9番地1", "url": "https://www.kaigokensaku.mhlw.go.jp/07/index.php?action_kouhyou_detail_004_kani=true&JigyosyoCd=0752085019-00&ServiceCd=520&Type=search", "url2": "http://www.jinsenkai.or.jp/prime/" }, "geometry": { "type": "Point", "coordinates": [ 140.561789099999942, 37.810914 ] } },
{ "type": "Feature", "properties": { "内容": "医療法人慈久会　介護老人保健施設明生苑【介護老人保健施設】福島県本宮市本宮字南町裡１４９番地", "url": "https://www.kaigokensaku.mhlw.go.jp/07/index.php?action_kouhyou_detail_004_kani=true&JigyosyoCd=0752185017-00&ServiceCd=520&Type=search", "url2": "http://www.tanihospital.jp/meiseien/" }, "geometry": { "type": "Point", "coordinates": [ 140.401542179314276, 37.51706150644452 ] } },
{ "type": "Feature", "properties": { "内容": "介護老人保健施設　まゆみの里【介護老人保健施設】福島県本宮市青田字花掛20番地", "url": "https://www.kaigokensaku.mhlw.go.jp/07/index.php?action_kouhyou_detail_004_kani=true&JigyosyoCd=0752185025-00&ServiceCd=520&Type=search", "url2": "http://www.ochiaikai.jp/" }, "geometry": { "type": "Point", "coordinates": [ 140.392885100000058, 37.5021603 ] } },
{ "type": "Feature", "properties": { "内容": "介護老人保健施設　桑折「聖・オリーブの郷」【介護老人保健施設】福島県伊達郡桑折町大字上郡字内記1番地1", "url": "https://www.kaigokensaku.mhlw.go.jp/07/index.php?action_kouhyou_detail_004_kani=true&JigyosyoCd=0752080010-00&ServiceCd=520&Type=search", "url2": "http://sosei.org" }, "geometry": { "type": "Point", "coordinates": [ 140.523220056483524, 37.848955559929045 ] } },
{ "type": "Feature", "properties": { "内容": "介護老人保健施設　めがみ【介護老人保健施設】福島県伊達郡川俣町字五百田２０－１", "url": "https://www.kaigokensaku.mhlw.go.jp/07/index.php?action_kouhyou_detail_004_kani=true&JigyosyoCd=0752080044-00&ServiceCd=520&Type=search", "url2": "https://kawamata.saiseikai.or.jp/nadeshiko/" }, "geometry": { "type": "Point", "coordinates": [ 140.599116099999947, 37.6659941 ] } },
{ "type": "Feature", "properties": { "内容": "介護老人保健施設　リハビリ南東北川俣【介護老人保健施設】福島県伊達郡川俣町大字鶴沢字池ノ上30-1", "url": "https://www.kaigokensaku.mhlw.go.jp/07/index.php?action_kouhyou_detail_004_kani=true&JigyosyoCd=0752080036-00&ServiceCd=520&Type=search", "url2": "http://www.kaigo-kawamata.com/" }, "geometry": { "type": "Point", "coordinates": [ 140.575051700000017, 37.6636992 ] } },
{ "type": "Feature", "properties": { "内容": "只見町介護老人保健施設「こぶし苑」【介護老人保健施設】福島県南会津郡只見町大字長浜字唱平３１番地", "url": "https://www.kaigokensaku.mhlw.go.jp/07/index.php?action_kouhyou_detail_004_kani=true&JigyosyoCd=0752385013-00&ServiceCd=520&Type=search", "url2": "http://business4.plala.or.jp/kobusi04/" }, "geometry": { "type": "Point", "coordinates": [ 139.374581300000045, 37.3040678 ] } },
{ "type": "Feature", "properties": { "内容": "南会津町介護老人保健施設湯花里苑【介護老人保健施設】福島県南会津郡南会津町湯ノ花６４８番地", "url": "https://www.kaigokensaku.mhlw.go.jp/07/index.php?action_kouhyou_detail_004_kani=true&JigyosyoCd=0752380022-00&ServiceCd=520&Type=search", "url2": "https://www.jinkakai.jp" }, "geometry": { "type": "Point", "coordinates": [ 139.522600099999977, 37.0675423 ] } },
{ "type": "Feature", "properties": { "内容": "西会津町介護老人保健施設｢憩の森」【介護老人保健施設】福島県耶麻郡西会津町登世島字田畑乙2042-65", "url": "https://www.kaigokensaku.mhlw.go.jp/07/index.php?action_kouhyou_detail_004_kani=true&JigyosyoCd=0752580092-00&ServiceCd=520&Type=search", "url2": "http://nishiaizu-fukushi.jp/" }, "geometry": { "type": "Point", "coordinates": [ 139.639561500000013, 37.5979247 ] } },
{ "type": "Feature", "properties": { "内容": "磐梯町介護老人保健施設「りんどう」【介護老人保健施設】福島県耶麻郡磐梯町大字磐梯字諏訪山２９２６番地", "url": "https://www.kaigokensaku.mhlw.go.jp/07/index.php?action_kouhyou_detail_004_kani=true&JigyosyoCd=0752580084-00&ServiceCd=520&Type=search", "url2": "http://www.jadecom.or.jp" }, "geometry": { "type": "Point", "coordinates": [ 139.981228, 37.5571353 ] } },
{ "type": "Feature", "properties": { "内容": "介護老人保健施設　多生苑猪苗代【介護老人保健施設】福島県耶麻郡猪苗代町字梨木西101番地", "url": "https://www.kaigokensaku.mhlw.go.jp/07/index.php?action_kouhyou_detail_004_kani=true&JigyosyoCd=0752580100-00&ServiceCd=520&Type=search", "url2": "https://www.onchikai.jp/tashouen-inawashiro/" }, "geometry": { "type": "Point", "coordinates": [ 140.11167649999993, 37.5553772 ] } },
{ "type": "Feature", "properties": { "内容": "介護老人保健施設　ケアテル猪苗代(従来型)【介護老人保健施設】福島県耶麻郡猪苗代町大字川桁字元寺2403番地1", "url": "https://www.kaigokensaku.mhlw.go.jp/07/index.php?action_kouhyou_detail_004_kani=true&JigyosyoCd=0752580068-00&ServiceCd=520&Type=search", "url2": "http://www.caretel.jp/" }, "geometry": { "type": "Point", "coordinates": [ 140.1533904, 37.5421088 ] } },
{ "type": "Feature", "properties": { "内容": "介護老人保健施設　ケアテル猪苗代(ユニット型）【介護老人保健施設】福島県耶麻郡猪苗代町大字川桁字元寺2403番地1", "url": "https://www.kaigokensaku.mhlw.go.jp/07/index.php?action_kouhyou_detail_004_kani=true&JigyosyoCd=0752580118-00&ServiceCd=520&Type=search", "url2": "http:/www.caretel.jp/" }, "geometry": { "type": "Point", "coordinates": [ 140.1533904, 37.5421088 ] } },
{ "type": "Feature", "properties": { "内容": "坂下厚生総合病院併設介護老人保健施設　なごみ【介護老人保健施設】福島県河沼郡会津坂下町字上柳田2210-1", "url": "https://www.kaigokensaku.mhlw.go.jp/07/index.php?action_kouhyou_detail_004_kani=true&JigyosyoCd=0752685016-00&ServiceCd=520&Type=search", "url2": "https://fkosei-nagomi.jp/" }, "geometry": { "type": "Point", "coordinates": [ 139.80825389092297, 37.565068590999111 ] } },
{ "type": "Feature", "properties": { "内容": "介護老人保健施設　グリーンケアハイツ【介護老人保健施設】福島県大沼郡会津美里町荻窪字上野１８５番地", "url": "https://www.kaigokensaku.mhlw.go.jp/07/index.php?action_kouhyou_detail_004_kani=true&JigyosyoCd=0752780015-00&ServiceCd=520&Type=search", "url2": "http://www.heiseikai-group.com/" }, "geometry": { "type": "Point", "coordinates": [ 139.80949951772152, 37.450818746329361 ] } },
{ "type": "Feature", "properties": { "内容": "介護老人保健施設　グリーンケアハイツ【介護老人保健施設】福島県大沼郡会津美里町荻窪字上野１８５番地", "url": "https://www.kaigokensaku.mhlw.go.jp/07/index.php?action_kouhyou_detail_004_kani=true&JigyosyoCd=0752785014-00&ServiceCd=520&Type=search", "url2": "http://www.heiseikai-group.com/" }, "geometry": { "type": "Point", "coordinates": [ 139.809456602377281, 37.450784676877277 ] } },
{ "type": "Feature", "properties": { "内容": "介護老人保健施設ニコニコリハビリ【介護老人保健施設】福島県西白河郡西郷村字下前田東４", "url": "https://www.kaigokensaku.mhlw.go.jp/07/index.php?action_kouhyou_detail_004_kani=true&JigyosyoCd=0752880013-00&ServiceCd=520&Type=search", "url2": "http://www.hakueikai.gr.jp/" }, "geometry": { "type": "Point", "coordinates": [ 140.190629385319568, 37.122910072805958 ] } },
{ "type": "Feature", "properties": { "内容": "介護老人保健施設　泉崎南東北リハビリテーション・ケアセンター【介護老人保健施設】福島県西白河郡泉崎村大字泉崎字山ヶ入56", "url": "https://www.kaigokensaku.mhlw.go.jp/07/index.php?action_kouhyou_detail_004_kani=true&JigyosyoCd=0752880021-00&ServiceCd=520&Type=search", "url2": "http://www.izumizaki-rehabili.com/" }, "geometry": { "type": "Point", "coordinates": [ 140.291996499999982, 37.1572856 ] } },
{ "type": "Feature", "properties": { "内容": "医療法人あさひ会　介護老人保健施設南東北プロヴィデンス【介護老人保健施設】福島県西白河郡矢吹町文京町226", "url": "https://www.kaigokensaku.mhlw.go.jp/07/index.php?action_kouhyou_detail_004_kani=true&JigyosyoCd=0752880047-00&ServiceCd=520&Type=search", "url2": "http://www.asahi-providence.com./" }, "geometry": { "type": "Point", "coordinates": [ 140.338734100000011, 37.1881902 ] } },
{ "type": "Feature", "properties": { "内容": "介護老人保健施設ほのぼの【介護老人保健施設】福島県西白河郡矢吹町井戸尻４４５番地６", "url": "https://www.kaigokensaku.mhlw.go.jp/07/index.php?action_kouhyou_detail_004_kani=true&JigyosyoCd=0752880039-00&ServiceCd=520&Type=search", "url2": "http://www.ns-hp.ecnet.jp" }, "geometry": { "type": "Point", "coordinates": [ 140.308841900000061, 37.2052045 ] } },
{ "type": "Feature", "properties": { "内容": "介護老人保健施設　志宝台【介護老人保健施設】福島県東白川郡棚倉町大字関口字上志宝73番地", "url": "https://www.kaigokensaku.mhlw.go.jp/07/index.php?action_kouhyou_detail_004_kani=true&JigyosyoCd=0752980011-00&ServiceCd=520&Type=search", "url2": "https://kujikai.or.jp/" }, "geometry": { "type": "Point", "coordinates": [ 140.388455468122856, 37.035907604111642 ] } },
{ "type": "Feature", "properties": { "内容": "塙厚生病院併設　介護老人保健施設久慈の郷【介護老人保健施設】福島県東白川郡塙町大字塙字材木町14番地", "url": "https://www.kaigokensaku.mhlw.go.jp/07/index.php?action_kouhyou_detail_004_kani=true&JigyosyoCd=0752985010-00&ServiceCd=520&Type=search", "url2": null }, "geometry": { "type": "Point", "coordinates": [ 140.409109, 36.9605479 ] } },
{ "type": "Feature", "properties": { "内容": "介護老人保健施設オルキス【介護老人保健施設】福島県石川郡石川町大字沢井字西ノ作89-40", "url": "https://www.kaigokensaku.mhlw.go.jp/07/index.php?action_kouhyou_detail_004_kani=true&JigyosyoCd=0753080035-00&ServiceCd=520&Type=search", "url2": "http://www.h3.dion.ne.jp/~heishin/o/index.html" }, "geometry": { "type": "Point", "coordinates": [ 140.391789900000049, 37.1389778 ] } },
{ "type": "Feature", "properties": { "内容": "（医）誠励会　医療併設型介護老人保健施設　いしかわリハビリテーション・ケアセンター【介護老人保健施設】福島県石川郡石川町字新町46-1", "url": "https://www.kaigokensaku.mhlw.go.jp/07/index.php?action_kouhyou_detail_004_kani=true&JigyosyoCd=0753080068-00&ServiceCd=520&Type=search", "url2": "http://www.seireikai.net" }, "geometry": { "type": "Point", "coordinates": [ 140.454592300000058, 37.148359700000015 ] } },
{ "type": "Feature", "properties": { "内容": "医療法人誠励会介護老人保健施設ひらたリハビリテーション・ケアセンター【介護老人保健施設】福島県石川郡平田村上蓬田字清水内18-2", "url": "https://www.kaigokensaku.mhlw.go.jp/07/index.php?action_kouhyou_detail_004_kani=true&JigyosyoCd=0753080043-00&ServiceCd=520&Type=search", "url2": "http://www.seireikai.net/" }, "geometry": { "type": "Point", "coordinates": [ 140.567756599999939, 37.2433604 ] } },
{ "type": "Feature", "properties": { "内容": "（医）誠励会介護老人保健施設サテライト大久田リハビリテーション・ケアセンター【介護老人保健施設】福島県石川郡古殿町大字大久田字石神44-1", "url": "https://www.kaigokensaku.mhlw.go.jp/07/index.php?action_kouhyou_detail_004_kani=true&JigyosyoCd=0753080050-00&ServiceCd=520&Type=search", "url2": "http://www.seireikai.net" }, "geometry": { "type": "Point", "coordinates": [ 140.596545099999958, 37.0919906 ] } },
{ "type": "Feature", "properties": { "内容": "介護老人保健施設　三春南東北リハビリテーション・ケアセンター【介護老人保健施設】福島県田村郡三春町大字山田字クルミヤツ3-3", "url": "https://www.kaigokensaku.mhlw.go.jp/07/index.php?action_kouhyou_detail_004_kani=true&JigyosyoCd=0753180017-00&ServiceCd=520&Type=search", "url2": "http://www.kaigo-miharu.com/" }, "geometry": { "type": "Point", "coordinates": [ 140.448194699999931, 37.4266348 ] } }
]
}
