{
"type": "FeatureCollection",
"name": "geo_7_1",
"crs": { "type": "name", "properties": { "name": "urn:ogc:def:crs:OGC:1.3:CRS84" } },
"features": [
{ "type": "Feature", "properties": { "ID": 710710000001, "正式名称": "一般財団法人桜ヶ丘病院", "機関区分": 1, "都道府県コード": 7, "市区町村コード": 201, "所在地": "福島県福島市丸子字上川原２８－７３", "緯度": 37.783819, "経度": 140.479039, "url": "https://www.iryou.teikyouseido.mhlw.go.jp/znk-web/juminkanja/S2430/initialize?prefCd=07&kikanCd=0710000001&kikanKbn=1", "url2": "https://www.sakuragaokahp.com", "内容": "一般財団法人桜ヶ丘病院【1:病院】【診療科目:内科_精神科_心療内科】【一般病床数:0療養病床数:0精神病床数:180感染症病床数:0合計病床数:180】福島県福島市丸子字上川原２８－７３" }, "geometry": { "type": "Point", "coordinates": [ 140.479039, 37.783819 ] } },
{ "type": "Feature", "properties": { "ID": 710710000003, "正式名称": "社会医療法人　一陽会　一陽会病院", "機関区分": 1, "都道府県コード": 7, "市区町村コード": 201, "所在地": "福島県福島市八島町１５－２７", "緯度": 37.769783, "経度": 140.487147, "url": "https://www.iryou.teikyouseido.mhlw.go.jp/znk-web/juminkanja/S2430/initialize?prefCd=07&kikanCd=0710000003&kikanKbn=1", "url2": "http://www.ichiyo.jp", "内容": "社会医療法人　一陽会　一陽会病院【1:病院】【診療科目:内科_精神科_心療内科】【一般病床数:0療養病床数:0精神病床数:157感染症病床数:0合計病床数:157】福島県福島市八島町１５－２７" }, "geometry": { "type": "Point", "coordinates": [ 140.487147, 37.769783 ] } },
{ "type": "Feature", "properties": { "ID": 710710000004, "正式名称": "福島赤十字病院", "機関区分": 1, "都道府県コード": 7, "市区町村コード": 201, "所在地": "福島県福島市八島町７－７", "緯度": 37.769069, "経度": 140.483808, "url": "https://www.iryou.teikyouseido.mhlw.go.jp/znk-web/juminkanja/S2430/initialize?prefCd=07&kikanCd=0710000004&kikanKbn=1", "url2": "https://www.fukushima-med-jrc.jp/", "内容": "福島赤十字病院【1:病院】【診療科目:内科_糖尿病・代謝内科_脳神経内科_呼吸器内科_循環器内科_消化器内科_腎臓内科_外科_脳神経外科_呼吸器外科_心臓血管外科_整形外科_形成外科_小児科_産婦人科_眼科_耳鼻いんこう科_皮膚科_泌尿器科_精神科_リウマチ科_リハビリテーション科_放射線科_病理診断科_救急科_麻酔科】【一般病床数:280療養病床数:0精神病床数:10感染症病床数:6合計病床数:296】福島県福島市八島町７－７" }, "geometry": { "type": "Point", "coordinates": [ 140.483808, 37.769069 ] } },
{ "type": "Feature", "properties": { "ID": 710710000005, "正式名称": "一般財団法人大原記念財団　大原綜合病院", "機関区分": 1, "都道府県コード": 7, "市区町村コード": 201, "所在地": "福島県福島市上町６番１号", "緯度": 37.753306, "経度": 140.468453, "url": "https://www.iryou.teikyouseido.mhlw.go.jp/znk-web/juminkanja/S2430/initialize?prefCd=07&kikanCd=0710000005&kikanKbn=1", "url2": "https://www.ohara-hp.or.jp/", "内容": "一般財団法人大原記念財団　大原綜合病院【1:病院】【診療科目:内科_糖尿病・内分泌内科_脳神経内科_呼吸器内科_循環器内科_消化器内科_腎臓内科_外科_脳神経外科_呼吸器外科_心臓血管外科_消化器外科_乳腺外科_整形外科_形成外科_小児科_小児外科_産婦人科_眼科_頭頸部・耳鼻いんこう科_皮膚科_泌尿器科_精神科_心療内科_歯科_歯科口腔外科_アレルギー科_リウマチ科_リハビリテーション科_放射線科_病理診断科_麻酔科】【一般病床数:353療養病床数:0精神病床数:0感染症病床数:0合計病床数:353】福島県福島市上町６番１号" }, "geometry": { "type": "Point", "coordinates": [ 140.468453, 37.753306 ] } },
{ "type": "Feature", "properties": { "ID": 710710000006, "正式名称": "福島中央病院", "機関区分": 1, "都道府県コード": 7, "市区町村コード": 201, "所在地": "福島県福島市吉倉字谷地５２", "緯度": 37.742386, "経度": 140.446267, "url": "https://www.iryou.teikyouseido.mhlw.go.jp/znk-web/juminkanja/S2430/initialize?prefCd=07&kikanCd=0710000006&kikanKbn=1", "url2": null, "内容": "福島中央病院【1:病院】【診療科目:内科_呼吸器内科_循環器内科_消化器内科_アレルギー科_放射線科】【一般病床数:58療養病床数:0精神病床数:0感染症病床数:0合計病床数:58】福島県福島市吉倉字谷地５２" }, "geometry": { "type": "Point", "coordinates": [ 140.446267, 37.742386 ] } },
{ "type": "Feature", "properties": { "ID": 710710000007, "正式名称": "福島第一病院", "機関区分": 1, "都道府県コード": 7, "市区町村コード": 201, "所在地": "福島県福島市北沢又字成出１６－２", "緯度": 37.786147, "経度": 140.437625, "url": "https://www.iryou.teikyouseido.mhlw.go.jp/znk-web/juminkanja/S2430/initialize?prefCd=07&kikanCd=0710000007&kikanKbn=1", "url2": "http://www.daiichihosp.jp/", "内容": "福島第一病院【1:病院】【診療科目:内科_血液内科_内分泌内科_呼吸器内科_循環器内科_消化器内科_腎臓内科_人工透析内科_アレルギー疾患内科_外科_心臓血管外科_消化器外科_胃腸外科_大腸外科_胆のう外科_乳腺外科_肛門外科_腫瘍外科_腹部外科_整形外科_歯科_リウマチ科_リハビリテーション科_放射線科_麻酔科】【一般病床数:196療養病床数:0精神病床数:0感染症病床数:0合計病床数:196】福島県福島市北沢又字成出１６－２" }, "geometry": { "type": "Point", "coordinates": [ 140.437625, 37.786147 ] } },
{ "type": "Feature", "properties": { "ID": 710710000008, "正式名称": "医療法人五光会　福島寿光会病院", "機関区分": 1, "都道府県コード": 7, "市区町村コード": 201, "所在地": "福島県福島市北町１－４０", "緯度": 37.753319, "経度": 140.470306, "url": "https://www.iryou.teikyouseido.mhlw.go.jp/znk-web/juminkanja/S2430/initialize?prefCd=07&kikanCd=0710000008&kikanKbn=1", "url2": "http://www.hmcg/fjh/", "内容": "医療法人五光会　福島寿光会病院【1:病院】【診療科目:内科_循環器内科_消化器内科_心臓血管外科_リハビリテーション科】【一般病床数:62療養病床数:0精神病床数:0感染症病床数:0合計病床数:62】福島県福島市北町１－４０" }, "geometry": { "type": "Point", "coordinates": [ 140.470306, 37.753319 ] } },
{ "type": "Feature", "properties": { "ID": 710710000009, "正式名称": "医療法人篤仁会　富士病院", "機関区分": 1, "都道府県コード": 7, "市区町村コード": 201, "所在地": "福島県福島市大波字熊野山１", "緯度": 37.752392, "経度": 140.531775, "url": "https://www.iryou.teikyouseido.mhlw.go.jp/znk-web/juminkanja/S2430/initialize?prefCd=07&kikanCd=0710000009&kikanKbn=1", "url2": "http://www.tokujinkai-fuji.jp", "内容": "医療法人篤仁会　富士病院【1:病院】【診療科目:内科_精神科_歯科】【一般病床数:0療養病床数:0精神病床数:282感染症病床数:0合計病床数:282】福島県福島市大波字熊野山１" }, "geometry": { "type": "Point", "coordinates": [ 140.531775, 37.752392 ] } },
{ "type": "Feature", "properties": { "ID": 710710000010, "正式名称": "医療生協わたり病院", "機関区分": 1, "都道府県コード": 7, "市区町村コード": 201, "所在地": "福島県福島市渡利字中江町３４", "緯度": 37.747556, "経度": 140.48275, "url": "https://www.iryou.teikyouseido.mhlw.go.jp/znk-web/juminkanja/S2430/initialize?prefCd=07&kikanCd=0710000010&kikanKbn=1", "url2": "http://watari-hp.jp/watari/index.html", "内容": "医療生協わたり病院【1:病院】【診療科目:内科_循環器内科_消化器内科_人工透析内科_神経内科_緩和ケア内科_心臓血管外科_消化器外科（内視鏡）_小児科_アレルギー科_婦人科_精神科_心療内科_アレルギー科_リハビリテーション科_放射線科_病理診断科_麻酔科】【一般病床数:135療養病床数:61精神病床数:0感染症病床数:0合計病床数:196】福島県福島市渡利字中江町３４" }, "geometry": { "type": "Point", "coordinates": [ 140.48275, 37.747556 ] } },
{ "type": "Feature", "properties": { "ID": 710710000011, "正式名称": "医療法人慈心会　村上病院", "機関区分": 1, "都道府県コード": 7, "市区町村コード": 201, "所在地": "福島県福島市立子山字北浦３番地", "緯度": 37.681056, "経度": 140.511656, "url": "https://www.iryou.teikyouseido.mhlw.go.jp/znk-web/juminkanja/S2430/initialize?prefCd=07&kikanCd=0710000011&kikanKbn=1", "url2": "http://murakami-hp.byoinnavi.jp/pc/", "内容": "医療法人慈心会　村上病院【1:病院】【診療科目:内科_精神科_心療内科】【一般病床数:0療養病床数:0精神病床数:111感染症病床数:0合計病床数:111】福島県福島市立子山字北浦３番地" }, "geometry": { "type": "Point", "coordinates": [ 140.511656, 37.681056 ] } },
{ "type": "Feature", "properties": { "ID": 710710000012, "正式名称": "医療法人明治病院", "機関区分": 1, "都道府県コード": 7, "市区町村コード": 201, "所在地": "福島県福島市北町２－４０", "緯度": 37.754056, "経度": 140.470806, "url": "https://www.iryou.teikyouseido.mhlw.go.jp/znk-web/juminkanja/S2430/initialize?prefCd=07&kikanCd=0710000012&kikanKbn=1", "url2": "https://meiji.or.jp", "内容": "医療法人明治病院【1:病院】【診療科目:産婦人科】【一般病床数:36療養病床数:0精神病床数:0感染症病床数:0合計病床数:36】福島県福島市北町２－４０" }, "geometry": { "type": "Point", "coordinates": [ 140.470806, 37.754056 ] } },
{ "type": "Feature", "properties": { "ID": 710710000013, "正式名称": "医療法人板倉病院", "機関区分": 1, "都道府県コード": 7, "市区町村コード": 201, "所在地": "福島県福島市成川下畑２６－１", "緯度": 37.739644, "経度": 140.437408, "url": "https://www.iryou.teikyouseido.mhlw.go.jp/znk-web/juminkanja/S2430/initialize?prefCd=07&kikanCd=0710000013&kikanKbn=1", "url2": "https://www.f-itakurahp.com", "内容": "医療法人板倉病院【1:病院】【診療科目:精神科_心療内科】【一般病床数:0療養病床数:0精神病床数:98感染症病床数:0合計病床数:98】福島県福島市成川下畑２６－１" }, "geometry": { "type": "Point", "coordinates": [ 140.437408, 37.739644 ] } },
{ "type": "Feature", "properties": { "ID": 710710000015, "正式名称": "あづま脳神経外科病院", "機関区分": 1, "都道府県コード": 7, "市区町村コード": 201, "所在地": "福島県福島市大森柳下１６－１", "緯度": 37.739642, "経度": 140.444972, "url": "https://www.iryou.teikyouseido.mhlw.go.jp/znk-web/juminkanja/S2430/initialize?prefCd=07&kikanCd=0710000015&kikanKbn=1", "url2": "http://www.azumanh.or.jp/", "内容": "あづま脳神経外科病院【1:病院】【診療科目:内科_循環器内科_神経内科_外科_脳神経外科_リハビリテーション科_麻酔科】【一般病床数:108療養病床数:60精神病床数:0感染症病床数:0合計病床数:168】福島県福島市大森柳下１６－１" }, "geometry": { "type": "Point", "coordinates": [ 140.444972, 37.739642 ] } },
{ "type": "Feature", "properties": { "ID": 710710000016, "正式名称": "公立大学法人　福島県立医科大学附属病院", "機関区分": 1, "都道府県コード": 7, "市区町村コード": 201, "所在地": "福島県福島市光が丘１番地", "緯度": 37.689992, "経度": 140.471533, "url": "https://www.iryou.teikyouseido.mhlw.go.jp/znk-web/juminkanja/S2430/initialize?prefCd=07&kikanCd=0710000016&kikanKbn=1", "url2": "http://www.fmu.ac.jp/byoin/index.php", "内容": "公立大学法人　福島県立医科大学附属病院【1:病院】【診療科目:内科_血液内科_糖尿病内科_代謝内科_内分泌内科_脳神経内科_呼吸器内科_循環器内科_消化器内科_腎臓内科_神経内科_腫瘍内科_漢方内科_疼痛緩和内科_外科_脳神経外科_呼吸器外科_心臓血管外科_消化器外科_乳腺外科_頭頸部外科_整形外科_形成外科_小児科_小児外科_産科_婦人科_眼科_耳鼻いんこう科_頭頸部・耳鼻いんこう科_皮膚科_泌尿器科_精神科_歯科_歯科口腔外科_リウマチ科_リハビリテーション科_放射線科_病理診断科_救急科_麻酔科】【一般病床数:713療養病床数:0精神病床数:49感染症病床数:2合計病床数:778】福島県福島市光が丘１番地" }, "geometry": { "type": "Point", "coordinates": [ 140.471533, 37.689992 ] } },
{ "type": "Feature", "properties": { "ID": 710710000017, "正式名称": "福島西部病院", "機関区分": 1, "都道府県コード": 7, "市区町村コード": 201, "所在地": "福島県福島市東中央３－１５", "緯度": 37.762097, "経度": 140.437467, "url": "https://www.iryou.teikyouseido.mhlw.go.jp/znk-web/juminkanja/S2430/initialize?prefCd=07&kikanCd=0710000017&kikanKbn=1", "url2": "https://www.keiai-kai.or.jp/", "内容": "福島西部病院【1:病院】【診療科目:内科_血液内科_糖尿病内科_糖尿病・内分泌内科_糖尿病・代謝内科_呼吸器内科_循環器内科_消化器内科_外科_心臓血管外科_消化器外科_乳腺外科_肛門外科_整形外科_小児科_婦人科_泌尿器科_歯科_歯科口腔外科_リハビリテーション科_放射線診断科】【一般病床数:99療養病床数:0精神病床数:0感染症病床数:0合計病床数:99】福島県福島市東中央３－１５" }, "geometry": { "type": "Point", "coordinates": [ 140.437467, 37.762097 ] } },
{ "type": "Feature", "properties": { "ID": 710710000018, "正式名称": "しのぶ病院", "機関区分": 1, "都道府県コード": 7, "市区町村コード": 201, "所在地": "福島県福島市大森高畑３１－１", "緯度": 37.733958, "経度": 140.447797, "url": "https://www.iryou.teikyouseido.mhlw.go.jp/znk-web/juminkanja/S2430/initialize?prefCd=07&kikanCd=0710000018&kikanKbn=1", "url2": "https://www.kaiseido.or.jp/", "内容": "しのぶ病院【1:病院】【診療科目:内科_呼吸器内科_循環器内科_消化器内科_腎臓内科_整形外科_リウマチ科_リハビリテーション科_放射線科】【一般病床数:50療養病床数:50精神病床数:0感染症病床数:0合計病床数:100】福島県福島市大森高畑３１－１" }, "geometry": { "type": "Point", "coordinates": [ 140.447797, 37.733958 ] } },
{ "type": "Feature", "properties": { "ID": 710710000019, "正式名称": "福島南病院", "機関区分": 1, "都道府県コード": 7, "市区町村コード": 201, "所在地": "福島県福島市方木田辻ノ内３－５", "緯度": 37.740389, "経度": 140.454975, "url": "https://www.iryou.teikyouseido.mhlw.go.jp/znk-web/juminkanja/S2430/initialize?prefCd=07&kikanCd=0710000019&kikanKbn=1", "url2": "https://www.keiai-kai.or.jp/publics/index/86/", "内容": "福島南病院【1:病院】【診療科目:内科_血液内科_循環器内科_消化器内科_外科_心臓血管外科_泌尿器科】【一般病床数:128療養病床数:0精神病床数:0感染症病床数:0合計病床数:128】福島県福島市方木田辻ノ内３－５" }, "geometry": { "type": "Point", "coordinates": [ 140.454975, 37.740389 ] } },
{ "type": "Feature", "properties": { "ID": 710710000020, "正式名称": "一般財団法人大原記念財団　大原医療センター", "機関区分": 1, "都道府県コード": 7, "市区町村コード": 201, "所在地": "福島県福島市鎌田字中江３３", "緯度": 37.796514, "経度": 140.477536, "url": "https://www.iryou.teikyouseido.mhlw.go.jp/znk-web/juminkanja/S2430/initialize?prefCd=07&kikanCd=0710000020&kikanKbn=1", "url2": "http://www.ohara-hp.or.jp/", "内容": "一般財団法人大原記念財団　大原医療センター【1:病院】【診療科目:内科_整形外科_リハビリテーション科】【一般病床数:186療養病床数:0精神病床数:0感染症病床数:0合計病床数:186】福島県福島市鎌田字中江３３" }, "geometry": { "type": "Point", "coordinates": [ 140.477536, 37.796514 ] } },
{ "type": "Feature", "properties": { "ID": 710710000021, "正式名称": "公立藤田総合病院", "機関区分": 1, "都道府県コード": 7, "市区町村コード": 303, "所在地": "福島県伊達郡国見町塚野目字三本木１４", "緯度": 37.872289, "経度": 140.540383, "url": "https://www.iryou.teikyouseido.mhlw.go.jp/znk-web/juminkanja/S2430/initialize?prefCd=07&kikanCd=0710000021&kikanKbn=1", "url2": "https://fujita-hp.jp", "内容": "公立藤田総合病院【1:病院】【診療科目:内科_循環器内科_消化器内科_腎臓内科_神経内科_外科_脳神経外科_心臓血管外科_整形外科_形成外科_小児科_産婦人科_眼科_耳鼻いんこう科_皮膚科_泌尿器科_精神科_歯科口腔外科_リハビリテーション科_麻酔科】【一般病床数:299療養病床数:0精神病床数:0感染症病床数:0合計病床数:311】福島県伊達郡国見町塚野目字三本木１４" }, "geometry": { "type": "Point", "coordinates": [ 140.540383, 37.872289 ] } },
{ "type": "Feature", "properties": { "ID": 710710000023, "正式名称": "医療法人湖山荘　福島松ヶ丘病院", "機関区分": 1, "都道府県コード": 7, "市区町村コード": 213, "所在地": "福島県伊達市保原町上保原字羽山１", "緯度": 37.797775, "経度": 140.523333, "url": "https://www.iryou.teikyouseido.mhlw.go.jp/znk-web/juminkanja/S2430/initialize?prefCd=07&kikanCd=0710000023&kikanKbn=1", "url2": "http://www14.plala.or.jp/matsugaoka", "内容": "医療法人湖山荘　福島松ヶ丘病院【1:病院】【診療科目:内科_精神科_心療内科】【一般病床数:0療養病床数:0精神病床数:176感染症病床数:0合計病床数:176】福島県伊達市保原町上保原字羽山１" }, "geometry": { "type": "Point", "coordinates": [ 140.523333, 37.797775 ] } },
{ "type": "Feature", "properties": { "ID": 710710000025, "正式名称": "独立行政法人地域医療機能推進機構　二本松病院", "機関区分": 1, "都道府県コード": 7, "市区町村コード": 210, "所在地": "福島県二本松市成田町１－５５３", "緯度": 37.590425, "経度": 140.422147, "url": "https://www.iryou.teikyouseido.mhlw.go.jp/znk-web/juminkanja/S2430/initialize?prefCd=07&kikanCd=0710000025&kikanKbn=1", "url2": "https://nihonmatsu.jcho.go.jp/", "内容": "独立行政法人地域医療機能推進機構　二本松病院【1:病院】【診療科目:内科_呼吸器内科_循環器内科_胃腸内科_神経内科_外科_脳神経外科_整形外科_小児科_産婦人科_耳鼻いんこう科_皮膚科_泌尿器科_精神科_リハビリテーション科_放射線科_麻酔科】【一般病床数:160療養病床数:0精神病床数:0感染症病床数:0合計病床数:160】福島県二本松市成田町１－５５３" }, "geometry": { "type": "Point", "coordinates": [ 140.422147, 37.590425 ] } },
{ "type": "Feature", "properties": { "ID": 710710000026, "正式名称": "医療法人辰星会　枡病院", "機関区分": 1, "都道府県コード": 7, "市区町村コード": 210, "所在地": "福島県二本松市本町１丁目１０３番地", "緯度": 37.592919, "経度": 140.436228, "url": "https://www.iryou.teikyouseido.mhlw.go.jp/znk-web/juminkanja/S2430/initialize?prefCd=07&kikanCd=0710000026&kikanKbn=1", "url2": "http://www.masu-med.or.jp/masu_hospital/", "内容": "医療法人辰星会　枡病院【1:病院】【診療科目:内科_呼吸器内科_循環器内科_消化器内科_外科_肛門外科_整形外科_歯科_アレルギー科_リウマチ科_リハビリテーション科】【一般病床数:55療養病床数:54精神病床数:0感染症病床数:0合計病床数:109】福島県二本松市本町１丁目１０３番地" }, "geometry": { "type": "Point", "coordinates": [ 140.436228, 37.592919 ] } },
{ "type": "Feature", "properties": { "ID": 710710000027, "正式名称": "医療法人慈久会谷病院", "機関区分": 1, "都道府県コード": 7, "市区町村コード": 214, "所在地": "福島県本宮市本宮南町裡１４９", "緯度": 37.516569, "経度": 140.401433, "url": "https://www.iryou.teikyouseido.mhlw.go.jp/znk-web/juminkanja/S2430/initialize?prefCd=07&kikanCd=0710000027&kikanKbn=1", "url2": "https://www.tanihospital.jp/tani-hospital/", "内容": "医療法人慈久会谷病院【1:病院】【診療科目:内科_外科_整形外科_小児科_産婦人科_耳鼻いんこう科_泌尿器科】【一般病床数:89療養病床数:40精神病床数:0感染症病床数:0合計病床数:129】福島県本宮市本宮南町裡１４９" }, "geometry": { "type": "Point", "coordinates": [ 140.401433, 37.516569 ] } },
{ "type": "Feature", "properties": { "ID": 710710000028, "正式名称": "東北病院", "機関区分": 1, "都道府県コード": 7, "市区町村コード": 214, "所在地": "福島県本宮市青田花掛２０", "緯度": 37.502161, "経度": 140.392886, "url": "https://www.iryou.teikyouseido.mhlw.go.jp/znk-web/juminkanja/S2430/initialize?prefCd=07&kikanCd=0710000028&kikanKbn=1", "url2": "http://www.ochiaikai.jp/", "内容": "東北病院【1:病院】【診療科目:内科_精神科_神経科】【一般病床数:0療養病床数:0精神病床数:212感染症病床数:0合計病床数:212】福島県本宮市青田花掛２０" }, "geometry": { "type": "Point", "coordinates": [ 140.392886, 37.502161 ] } },
{ "type": "Feature", "properties": { "ID": 710710000029, "正式名称": "医療法人辰星会枡記念病院", "機関区分": 1, "都道府県コード": 7, "市区町村コード": 210, "所在地": "福島県二本松市住吉１００", "緯度": 37.554544, "経度": 140.403747, "url": "https://www.iryou.teikyouseido.mhlw.go.jp/znk-web/juminkanja/S2430/initialize?prefCd=07&kikanCd=0710000029&kikanKbn=1", "url2": "http://www.masu-med.or.jp/masu_memorial/", "内容": "医療法人辰星会枡記念病院【1:病院】【診療科目:内科_脳神経内科_呼吸器内科_循環器内科_消化器内科_外科_脳神経外科_心臓血管外科_消化器外科_肛門外科_整形外科_形成外科_泌尿器科_リハビリテーション科_救急科_麻酔科】【一般病床数:216療養病床数:0精神病床数:0感染症病床数:0合計病床数:216】福島県二本松市住吉１００" }, "geometry": { "type": "Point", "coordinates": [ 140.403747, 37.554544 ] } },
{ "type": "Feature", "properties": { "ID": 710710000030, "正式名称": "一般財団法人脳神経疾患研究所附属南東北福島病院", "機関区分": 1, "都道府県コード": 7, "市区町村コード": 201, "所在地": "福島県福島市荒井北三丁目１－１３", "緯度": 37.725997, "経度": 140.387617, "url": "https://www.iryou.teikyouseido.mhlw.go.jp/znk-web/juminkanja/S2430/initialize?prefCd=07&kikanCd=0710000030&kikanKbn=1", "url2": "http://www.f-str.jp/", "内容": "一般財団法人脳神経疾患研究所附属南東北福島病院【1:病院】【診療科目:内科_脳神経内科_呼吸器内科_循環器内科_消化器内科_外科_脳神経外科_心臓血管外科_肛門外科_整形外科_形成外科_皮膚科_泌尿器科_歯科_歯科口腔外科_リハビリテーション科_放射線科_救急科_麻酔科】【一般病床数:189療養病床数:44精神病床数:0感染症病床数:0合計病床数:233】福島県福島市荒井北三丁目１－１３" }, "geometry": { "type": "Point", "coordinates": [ 140.387617, 37.725997 ] } },
{ "type": "Feature", "properties": { "ID": 710710000031, "正式名称": "済生会川俣病院", "機関区分": 1, "都道府県コード": 7, "市区町村コード": 308, "所在地": "福島県伊達郡川俣町鶴沢川端２番地４", "緯度": 37.664222, "経度": 140.595925, "url": "https://www.iryou.teikyouseido.mhlw.go.jp/znk-web/juminkanja/S2430/initialize?prefCd=07&kikanCd=0710000031&kikanKbn=1", "url2": "http://www.kawamata.saiseikai.or.jp", "内容": "済生会川俣病院【1:病院】【診療科目:内科_循環器内科_外科_整形外科_眼科_皮膚科_泌尿器科_リウマチ科】【一般病床数:90療養病床数:0精神病床数:0感染症病床数:0合計病床数:90】福島県伊達郡川俣町鶴沢川端２番地４" }, "geometry": { "type": "Point", "coordinates": [ 140.595925, 37.664222 ] } },
{ "type": "Feature", "properties": { "ID": 710710000032, "正式名称": "北福島医療センター", "機関区分": 1, "都道府県コード": 7, "市区町村コード": 213, "所在地": "福島県伊達市箱崎字東２３番地１", "緯度": 37.818589, "経度": 140.521061, "url": "https://www.iryou.teikyouseido.mhlw.go.jp/znk-web/juminkanja/S2430/initialize?prefCd=07&kikanCd=0710000032&kikanKbn=1", "url2": "http://www.jinsenkai.or.jp", "内容": "北福島医療センター【1:病院】【診療科目:内科_血液内科_糖尿病・内分泌内科_糖尿病・代謝内科_脳神経内科_呼吸器内科_循環器内科_消化器内科_外科_消化器外科_乳腺外科_整形外科_婦人科_眼科_リウマチ科_リハビリテーション科_放射線科_麻酔科】【一般病床数:175療養病床数:50精神病床数:0感染症病床数:0合計病床数:225】福島県伊達市箱崎字東２３番地１" }, "geometry": { "type": "Point", "coordinates": [ 140.521061, 37.818589 ] } },
{ "type": "Feature", "properties": { "ID": 710710000033, "正式名称": "済生会福島総合病院", "機関区分": 1, "都道府県コード": 7, "市区町村コード": 201, "所在地": "福島県福島市大森下原田２５", "緯度": 37.723536, "経度": 140.444694, "url": "https://www.iryou.teikyouseido.mhlw.go.jp/znk-web/juminkanja/S2430/initialize?prefCd=07&kikanCd=0710000033&kikanKbn=1", "url2": "http://www.saisei.ecnet.jp/", "内容": "済生会福島総合病院【1:病院】【診療科目:内科_呼吸器内科_循環器内科_消化器内科_外科_整形外科_形成外科_産婦人科_眼科_耳鼻いんこう科_泌尿器科_精神科_神経科_放射線科_麻酔科】【一般病床数:216療養病床数:0精神病床数:0感染症病床数:0合計病床数:216】福島県福島市大森下原田２５" }, "geometry": { "type": "Point", "coordinates": [ 140.444694, 37.723536 ] } },
{ "type": "Feature", "properties": { "ID": 710710000034, "正式名称": "公立岩瀬病院", "機関区分": 1, "都道府県コード": 7, "市区町村コード": 207, "所在地": "福島県須賀川市北町２０", "緯度": 37.294706, "経度": 140.374539, "url": "https://www.iryou.teikyouseido.mhlw.go.jp/znk-web/juminkanja/S2430/initialize?prefCd=07&kikanCd=0710000034&kikanKbn=1", "url2": "http://www.iwase-hp.jp", "内容": "公立岩瀬病院【1:病院】【診療科目:内科_呼吸器内科_循環器内科_消化器内科_神経内科_内視鏡内科_外科_脳神経外科_消化器外科_乳腺外科_肛門外科_整形外科_形成外科_小児科_小児外科_産婦人科_産科_婦人科_眼科_耳鼻いんこう科_気管食道・耳鼻いんこう科_皮膚科_泌尿器科_精神科_心療内科_リウマチ科_リハビリテーション科_放射線科_病理診断科_臨床検査科_麻酔科】【一般病床数:273療養病床数:0精神病床数:0感染症病床数:6合計病床数:279】福島県須賀川市北町２０" }, "geometry": { "type": "Point", "coordinates": [ 140.374539, 37.294706 ] } },
{ "type": "Feature", "properties": { "ID": 710710000035, "正式名称": "独立行政法人国立病院機構福島病院", "機関区分": 1, "都道府県コード": 7, "市区町村コード": 207, "所在地": "福島県須賀川市芦田塚１３", "緯度": 37.291969, "経度": 140.386986, "url": "https://www.iryou.teikyouseido.mhlw.go.jp/znk-web/juminkanja/S2430/initialize?prefCd=07&kikanCd=0710000035&kikanKbn=1", "url2": "https://fukushima.hosp.go.jp", "内容": "独立行政法人国立病院機構福島病院【1:病院】【診療科目:内科_脳神経内科_消化器内科_脳神経外科_整形外科_小児科_小児外科_眼科_耳鼻いんこう科_リハビリテーション科_放射線科】【一般病床数:220療養病床数:0精神病床数:0感染症病床数:0合計病床数:220】福島県須賀川市芦田塚１３" }, "geometry": { "type": "Point", "coordinates": [ 140.386986, 37.291969 ] } },
{ "type": "Feature", "properties": { "ID": 710710000036, "正式名称": "医療法人社団　三成会　南東北春日リハビリテーション病院", "機関区分": 1, "都道府県コード": 7, "市区町村コード": 207, "所在地": "福島県須賀川市南上町１２３－１", "緯度": 37.283442, "経度": 140.386444, "url": "https://www.iryou.teikyouseido.mhlw.go.jp/znk-web/juminkanja/S2430/initialize?prefCd=07&kikanCd=0710000036&kikanKbn=1", "url2": "http://www.kasuga-rehabili.com/", "内容": "医療法人社団　三成会　南東北春日リハビリテーション病院【1:病院】【診療科目:内科_神経内科_脳神経外科_形成外科_美容外科_眼科_皮膚科_リハビリテーション科_放射線科】【一般病床数:0療養病床数:60精神病床数:0感染症病床数:0合計病床数:60】福島県須賀川市南上町１２３－１" }, "geometry": { "type": "Point", "coordinates": [ 140.386444, 37.283442 ] } },
{ "type": "Feature", "properties": { "ID": 710710000037, "正式名称": "寿泉堂松南病院", "機関区分": 1, "都道府県コード": 7, "市区町村コード": 207, "所在地": "福島県須賀川市滑川池田１００", "緯度": 37.330892, "経度": 140.3649, "url": "https://www.iryou.teikyouseido.mhlw.go.jp/znk-web/juminkanja/S2430/initialize?prefCd=07&kikanCd=0710000037&kikanKbn=1", "url2": "http://www.jusendo.or.jp/shn", "内容": "寿泉堂松南病院【1:病院】【診療科目:精神科_神経科_心療内科】【一般病床数:0療養病床数:0精神病床数:204感染症病床数:0合計病床数:204】福島県須賀川市滑川池田１００" }, "geometry": { "type": "Point", "coordinates": [ 140.3649, 37.330892 ] } },
{ "type": "Feature", "properties": { "ID": 710710000038, "正式名称": "医療法人三愛会　池田記念病院", "機関区分": 1, "都道府県コード": 7, "市区町村コード": 207, "所在地": "福島県須賀川市森宿字狐石１２９－７", "緯度": 37.305228, "経度": 140.357983, "url": "https://www.iryou.teikyouseido.mhlw.go.jp/znk-web/juminkanja/S2430/initialize?prefCd=07&kikanCd=0710000038&kikanKbn=1", "url2": "http://www.ikedakinen-hp.or.jp/", "内容": "医療法人三愛会　池田記念病院【1:病院】【診療科目:内科_神経内科_外科_脳神経外科_整形外科_歯科_リハビリテーション科】【一般病床数:116療養病床数:26精神病床数:0感染症病床数:0合計病床数:142】福島県須賀川市森宿字狐石１２９－７" }, "geometry": { "type": "Point", "coordinates": [ 140.357983, 37.305228 ] } },
{ "type": "Feature", "properties": { "ID": 710710000040, "正式名称": "医療法人平心会須賀川病院", "機関区分": 1, "都道府県コード": 7, "市区町村コード": 207, "所在地": "福島県須賀川市丸田町１７", "緯度": 37.289644, "経度": 140.364861, "url": "https://www.iryou.teikyouseido.mhlw.go.jp/znk-web/juminkanja/S2430/initialize?prefCd=07&kikanCd=0710000040&kikanKbn=1", "url2": "http://sukagawahp.com/", "内容": "医療法人平心会須賀川病院【1:病院】【診療科目:内科_呼吸器内科_消化器内科_外科_心臓血管外科_整形外科_形成外科_麻酔科】【一般病床数:114療養病床数:0精神病床数:0感染症病床数:0合計病床数:114】福島県須賀川市丸田町１７" }, "geometry": { "type": "Point", "coordinates": [ 140.364861, 37.289644 ] } },
{ "type": "Feature", "properties": { "ID": 710710000041, "正式名称": "ひらた中央病院", "機関区分": 1, "都道府県コード": 7, "市区町村コード": 503, "所在地": "福島県石川郡平田村上蓬田清水内４", "緯度": 37.243939, "経度": 140.568147, "url": "https://www.iryou.teikyouseido.mhlw.go.jp/znk-web/juminkanja/S2430/initialize?prefCd=07&kikanCd=0710000041&kikanKbn=1", "url2": "http://www.seireikai.net", "内容": "ひらた中央病院【1:病院】【診療科目:内科_循環器内科_消化器内科_肝臓内科_神経内科_外科_整形外科_眼科_歯科_リハビリテーション科】【一般病床数:36療養病床数:106精神病床数:0感染症病床数:0合計病床数:142】福島県石川郡平田村上蓬田清水内４" }, "geometry": { "type": "Point", "coordinates": [ 140.568147, 37.243939 ] } },
{ "type": "Feature", "properties": { "ID": 710710000042, "正式名称": "三春町立三春病院", "機関区分": 1, "都道府県コード": 7, "市区町村コード": 521, "所在地": "福島県田村郡三春町六升蒔５０", "緯度": 37.447717, "経度": 140.495528, "url": "https://www.iryou.teikyouseido.mhlw.go.jp/znk-web/juminkanja/S2430/initialize?prefCd=07&kikanCd=0710000042&kikanKbn=1", "url2": "http://www.hoshipital.jp/main12.htm", "内容": "三春町立三春病院【1:病院】【診療科目:内科_外科_整形外科_小児科_産婦人科_眼科_耳鼻いんこう科_皮膚科_泌尿器科_精神科_心療内科_リハビリテーション科】【一般病床数:46療養病床数:40精神病床数:0感染症病床数:0合計病床数:86】福島県田村郡三春町六升蒔５０" }, "geometry": { "type": "Point", "coordinates": [ 140.495528, 37.447717 ] } },
{ "type": "Feature", "properties": { "ID": 710710000043, "正式名称": "公立小野町地方綜合病院", "機関区分": 1, "都道府県コード": 7, "市区町村コード": 522, "所在地": "福島県田村郡小野町小野新町槻木内６－２", "緯度": 37.28975, "経度": 140.626589, "url": "https://www.iryou.teikyouseido.mhlw.go.jp/znk-web/juminkanja/S2430/initialize?prefCd=07&kikanCd=0710000043&kikanKbn=1", "url2": "http://www.ono-hp.jp/", "内容": "公立小野町地方綜合病院【1:病院】【診療科目:内科_外科_整形外科_形成外科_小児科_婦人科_眼科_耳鼻いんこう科_皮膚科_泌尿器科_精神科_リウマチ科_麻酔科】【一般病床数:60療養病床数:59精神病床数:0感染症病床数:0合計病床数:119】福島県田村郡小野町小野新町槻木内６－２" }, "geometry": { "type": "Point", "coordinates": [ 140.626589, 37.28975 ] } },
{ "type": "Feature", "properties": { "ID": 710710000045, "正式名称": "福島県厚生農業協同組合連合会　白河厚生総合病院", "機関区分": 1, "都道府県コード": 7, "市区町村コード": 205, "所在地": "福島県白河市豊地上弥次郎２番地１", "緯度": 37.145667, "経度": 140.215169, "url": "https://www.iryou.teikyouseido.mhlw.go.jp/znk-web/juminkanja/S2430/initialize?prefCd=07&kikanCd=0710000045&kikanKbn=1", "url2": "http://www.shirakawa-kosei.jp", "内容": "福島県厚生農業協同組合連合会　白河厚生総合病院【1:病院】【診療科目:内科_血液内科_糖尿病内科_代謝・内分泌内科_循環器内科_消化器内科_腎臓内科_神経内科_外科_脳神経外科_呼吸器外科_心臓血管外科_消化器外科_乳腺外科_肛門外科_内視鏡外科_整形外科_形成外科_小児科_産婦人科_眼科_耳鼻いんこう科_皮膚科_泌尿器科_精神科_心療内科_リハビリテーション科_放射線科_病理診断科_麻酔科】【一般病床数:455療養病床数:0精神病床数:0感染症病床数:4合計病床数:459】福島県白河市豊地上弥次郎２番地１" }, "geometry": { "type": "Point", "coordinates": [ 140.215169, 37.145667 ] } },
{ "type": "Feature", "properties": { "ID": 710710000048, "正式名称": "医療法人社団恵周会白河病院", "機関区分": 1, "都道府県コード": 7, "市区町村コード": 205, "所在地": "福島県白河市六反山１０－１", "緯度": 37.141975, "経度": 140.215589, "url": "https://www.iryou.teikyouseido.mhlw.go.jp/znk-web/juminkanja/S2430/initialize?prefCd=07&kikanCd=0710000048&kikanKbn=1", "url2": "http://www.shirakawa-hp.jp", "内容": "医療法人社団恵周会白河病院【1:病院】【診療科目:内科_糖尿病内科_循環器内科_心臓内科_消化器内科_腎臓内科_人工透析内科_外科_脳神経外科_心臓外科_心臓血管外科_消化器外科_胸部外科_整形外科_リウマチ科_麻酔科】【一般病床数:150療養病床数:0精神病床数:0感染症病床数:0合計病床数:150】福島県白河市六反山１０－１" }, "geometry": { "type": "Point", "coordinates": [ 140.215589, 37.141975 ] } },
{ "type": "Feature", "properties": { "ID": 710710000051, "正式名称": "西白河病院", "機関区分": 1, "都道府県コード": 7, "市区町村コード": 466, "所在地": "福島県西白河郡矢吹町井戸尻４４５", "緯度": 37.205694, "経度": 140.309142, "url": "https://www.iryou.teikyouseido.mhlw.go.jp/znk-web/juminkanja/S2430/initialize?prefCd=07&kikanCd=0710000051&kikanKbn=1", "url2": "http://ns-hp.ecnet.jp", "内容": "西白河病院【1:病院】【診療科目:内科_精神科_心療内科】【一般病床数:0療養病床数:0精神病床数:150感染症病床数:0合計病床数:150】福島県西白河郡矢吹町井戸尻４４５" }, "geometry": { "type": "Point", "coordinates": [ 140.309142, 37.205694 ] } },
{ "type": "Feature", "properties": { "ID": 710710000052, "正式名称": "福島県立ふくしま医療センターこころの杜", "機関区分": 1, "都道府県コード": 7, "市区町村コード": 466, "所在地": "福島県西白河郡矢吹町滝八幡１００", "緯度": 37.215269, "経度": 140.320269, "url": "https://www.iryou.teikyouseido.mhlw.go.jp/znk-web/juminkanja/S2430/initialize?prefCd=07&kikanCd=0710000052&kikanKbn=1", "url2": "https://www.pref.fukushima.lg.jp/site/kokoronomori/", "内容": "福島県立ふくしま医療センターこころの杜【1:病院】【診療科目:内科_精神科】【一般病床数:0療養病床数:0精神病床数:148感染症病床数:0合計病床数:148】福島県西白河郡矢吹町滝八幡１００" }, "geometry": { "type": "Point", "coordinates": [ 140.320269, 37.215269 ] } },
{ "type": "Feature", "properties": { "ID": 710710000053, "正式名称": "公益財団法人　会田病院", "機関区分": 1, "都道府県コード": 7, "市区町村コード": 466, "所在地": "福島県西白河郡矢吹町本町２１６番地", "緯度": 37.208786, "経度": 140.325542, "url": "https://www.iryou.teikyouseido.mhlw.go.jp/znk-web/juminkanja/S2430/initialize?prefCd=07&kikanCd=0710000053&kikanKbn=1", "url2": "http://www.aida-hp.or.jp", "内容": "公益財団法人　会田病院【1:病院】【診療科目:内科_呼吸器内科_循環器内科_消化器内科_神経内科_外科_脳神経外科_呼吸器外科_消化器外科_整形外科_婦人科_眼科_耳鼻いんこう科_皮膚科_泌尿器科_精神科_リハビリテーション科_麻酔科】【一般病床数:102療養病床数:91精神病床数:0感染症病床数:0合計病床数:193】福島県西白河郡矢吹町本町２１６番地" }, "geometry": { "type": "Point", "coordinates": [ 140.325542, 37.208786 ] } },
{ "type": "Feature", "properties": { "ID": 710710000056, "正式名称": "福島県厚生農業協同組合連合会　塙厚生病院", "機関区分": 1, "都道府県コード": 7, "市区町村コード": 483, "所在地": "福島県東白川郡塙町大字塙字大町１丁目５番地", "緯度": 36.960144, "経度": 140.408358, "url": "https://www.iryou.teikyouseido.mhlw.go.jp/znk-web/juminkanja/S2430/initialize?prefCd=07&kikanCd=0710000056&kikanKbn=1", "url2": "http://www.hanawa-fkousei.jp/", "内容": "福島県厚生農業協同組合連合会　塙厚生病院【1:病院】【診療科目:内科_神経内科_外科_脳神経外科_肛門外科_整形外科_形成外科_小児科_産婦人科_眼科_耳鼻いんこう科_皮膚科_泌尿器科_精神科_心療内科_アレルギー科_リウマチ科_リハビリテーション科_放射線科_麻酔科】【一般病床数:122療養病床数:0精神病床数:56感染症病床数:0合計病床数:178】福島県東白川郡塙町大字塙字大町１丁目５番地" }, "geometry": { "type": "Point", "coordinates": [ 140.408358, 36.960144 ] } },
{ "type": "Feature", "properties": { "ID": 710710000057, "正式名称": "医療法人社団青秀会　車田病院", "機関区分": 1, "都道府県コード": 7, "市区町村コード": 483, "所在地": "福島県東白川郡塙町大字塙字大町３－３５", "緯度": 36.955617, "経度": 140.411317, "url": "https://www.iryou.teikyouseido.mhlw.go.jp/znk-web/juminkanja/S2430/initialize?prefCd=07&kikanCd=0710000057&kikanKbn=1", "url2": "https://www.kurumadahp.com/", "内容": "医療法人社団青秀会　車田病院【1:病院】【診療科目:内科_循環器内科_消化器内科_胃腸内科_リハビリテーション科_放射線科】【一般病床数:0療養病床数:34精神病床数:0感染症病床数:0合計病床数:34】福島県東白川郡塙町大字塙字大町３－３５" }, "geometry": { "type": "Point", "coordinates": [ 140.411317, 36.955617 ] } },
{ "type": "Feature", "properties": { "ID": 710710000058, "正式名称": "竹田綜合病院", "機関区分": 1, "都道府県コード": 7, "市区町村コード": 202, "所在地": "福島県会津若松市山鹿町３－２７", "緯度": 37.490083, "経度": 139.922422, "url": "https://www.iryou.teikyouseido.mhlw.go.jp/znk-web/juminkanja/S2430/initialize?prefCd=07&kikanCd=0710000058&kikanKbn=1", "url2": "http://www.takeda.or.jp/", "内容": "竹田綜合病院【1:病院】【診療科目:内科_呼吸器内科_循環器内科_消化器内科_神経内科_外科_脳神経外科_呼吸器外科_心臓血管外科_肛門外科_頭頸部外科_内視鏡外科_整形外科_形成外科_小児科_小児外科_産婦人科_眼科_耳鼻いんこう科_皮膚科_泌尿器科_精神科_歯科_リウマチ科_リハビリテーション科_放射線科_放射線治療科_病理診断科_麻酔科】【一般病床数:693療養病床数:0精神病床数:144感染症病床数:0合計病床数:837】福島県会津若松市山鹿町３－２７" }, "geometry": { "type": "Point", "coordinates": [ 139.922422, 37.490083 ] } },
{ "type": "Feature", "properties": { "ID": 710710000059, "正式名称": "公立大学法人福島県立医科大学会津医療センター附属病院", "機関区分": 1, "都道府県コード": 7, "市区町村コード": 202, "所在地": "福島県会津若松市河東町谷沢字前田２１番地２", "緯度": 37.552439, "経度": 139.907925, "url": "https://www.iryou.teikyouseido.mhlw.go.jp/znk-web/juminkanja/S2430/initialize?prefCd=07&kikanCd=0710000059&kikanKbn=1", "url2": "http://www.fmu.ac.jp/amc/", "内容": "公立大学法人福島県立医科大学会津医療センター附属病院【1:病院】【診療科目:内科_感染症内科_血液内科_糖尿病内科_代謝内科_内分泌内科_呼吸器内科_循環器内科_消化器内科_腎臓内科_神経内科_漢方内科_緩和ケア内科_外科_呼吸器外科_心臓血管外科_大腸・肛門外科_整形外科_眼科_耳鼻いんこう科_皮膚科_泌尿器科_精神科_歯科_リハビリテーション科_放射線科_病理診断科_麻酔科】【一般病床数:204療養病床数:0精神病床数:0感染症病床数:8合計病床数:226】福島県会津若松市河東町谷沢字前田２１番地２" }, "geometry": { "type": "Point", "coordinates": [ 139.907925, 37.552439 ] } },
{ "type": "Feature", "properties": { "ID": 710710000060, "正式名称": "公益財団法人　穴澤病院", "機関区分": 1, "都道府県コード": 7, "市区町村コード": 202, "所在地": "福島県会津若松市宮町１－１", "緯度": 37.494758, "経度": 139.933783, "url": "https://www.iryou.teikyouseido.mhlw.go.jp/znk-web/juminkanja/S2430/initialize?prefCd=07&kikanCd=0710000060&kikanKbn=1", "url2": "http://www.anazawa.or.jp/", "内容": "公益財団法人　穴澤病院【1:病院】【診療科目:内科_糖尿病内科_消化器内科_リハビリテーション科】【一般病床数:0療養病床数:73精神病床数:0感染症病床数:0合計病床数:73】福島県会津若松市宮町１－１" }, "geometry": { "type": "Point", "coordinates": [ 139.933783, 37.494758 ] } },
{ "type": "Feature", "properties": { "ID": 710710000061, "正式名称": "つるが松窪病院", "機関区分": 1, "都道府県コード": 7, "市区町村コード": 202, "所在地": "福島県会津若松市一箕町大字鶴賀字苅林３９番地１", "緯度": 37.523244, "経度": 139.952117, "url": "https://www.iryou.teikyouseido.mhlw.go.jp/znk-web/juminkanja/S2430/initialize?prefCd=07&kikanCd=0710000061&kikanKbn=1", "url2": "http://www.onchikai.jp", "内容": "つるが松窪病院【1:病院】【診療科目:内科_神経内科_精神科_リハビリテーション科】【一般病床数:0療養病床数:0精神病床数:70感染症病床数:0合計病床数:70】福島県会津若松市一箕町大字鶴賀字苅林３９番地１" }, "geometry": { "type": "Point", "coordinates": [ 139.952117, 37.523244 ] } },
{ "type": "Feature", "properties": { "ID": 710710000062, "正式名称": "会津中央病院", "機関区分": 1, "都道府県コード": 7, "市区町村コード": 202, "所在地": "福島県会津若松市鶴賀町１－１", "緯度": 37.521911, "経度": 139.945119, "url": "https://www.iryou.teikyouseido.mhlw.go.jp/znk-web/juminkanja/S2430/initialize?prefCd=07&kikanCd=0710000062&kikanKbn=1", "url2": "https://www.onchikai.jp/", "内容": "会津中央病院【1:病院】【診療科目:内科_呼吸器内科_循環器内科_消化器内科_神経内科_内視鏡内科_外科_脳神経外科_呼吸器外科_心臓血管外科_消化器外科_整形外科_形成外科_美容外科_小児科_小児外科_産婦人科_眼科_耳鼻いんこう科_皮膚科_泌尿器科_精神科_神経科_歯科_歯科口腔外科_リハビリテーション科_放射線科_病理診断科_救急科_麻酔科】【一般病床数:713療養病床数:0精神病床数:0感染症病床数:0合計病床数:713】福島県会津若松市鶴賀町１－１" }, "geometry": { "type": "Point", "coordinates": [ 139.945119, 37.521911 ] } },
{ "type": "Feature", "properties": { "ID": 710710000064, "正式名称": "芦ノ牧温泉病院", "機関区分": 1, "都道府県コード": 7, "市区町村コード": 202, "所在地": "福島県会津若松市大戸町大字芦牧字壇ノ下８１１－１", "緯度": 37.365044, "経度": 139.911997, "url": "https://www.iryou.teikyouseido.mhlw.go.jp/znk-web/juminkanja/S2430/initialize?prefCd=07&kikanCd=0710000064&kikanKbn=1", "url2": "www.takeda.or.jp/3_index/3_shisetu_ashinomaki.html", "内容": "芦ノ牧温泉病院【1:病院】【診療科目:内科_リハビリテーション科】【一般病床数:0療養病床数:120精神病床数:0感染症病床数:0合計病床数:120】福島県会津若松市大戸町大字芦牧字壇ノ下８１１－１" }, "geometry": { "type": "Point", "coordinates": [ 139.911997, 37.365044 ] } },
{ "type": "Feature", "properties": { "ID": 710710000066, "正式名称": "医療法人昨雲会飯塚病院", "機関区分": 1, "都道府県コード": 7, "市区町村コード": 208, "所在地": "福島県喜多方市松山町村松字北原３６３４－１", "緯度": 37.681458, "経度": 139.869597, "url": "https://www.iryou.teikyouseido.mhlw.go.jp/znk-web/juminkanja/S2430/initialize?prefCd=07&kikanCd=0710000066&kikanKbn=1", "url2": "http://www.sakuunkai.or.jp", "内容": "医療法人昨雲会飯塚病院【1:病院】【診療科目:内科_精神科_心療内科_歯科_リハビリテーション科】【一般病床数:0療養病床数:0精神病床数:410感染症病床数:0合計病床数:410】福島県喜多方市松山町村松字北原３６３４－１" }, "geometry": { "type": "Point", "coordinates": [ 139.869597, 37.681458 ] } },
{ "type": "Feature", "properties": { "ID": 710710000067, "正式名称": "鳴瀬病院", "機関区分": 1, "都道府県コード": 7, "市区町村コード": 208, "所在地": "福島県喜多方市稲荷宮７３０７番地の１", "緯度": 37.646828, "経度": 139.877036, "url": "https://www.iryou.teikyouseido.mhlw.go.jp/znk-web/juminkanja/S2430/initialize?prefCd=07&kikanCd=0710000067&kikanKbn=1", "url2": null, "内容": "鳴瀬病院【1:病院】【診療科目:内科_呼吸器内科_循環器内科_消化器内科_整形外科】【一般病床数:0療養病床数:90精神病床数:0感染症病床数:0合計病床数:90】福島県喜多方市稲荷宮７３０７番地の１" }, "geometry": { "type": "Point", "coordinates": [ 139.877036, 37.646828 ] } },
{ "type": "Feature", "properties": { "ID": 710710000068, "正式名称": "医療法人社団　日新会　入澤病院", "機関区分": 1, "都道府県コード": 7, "市区町村コード": 208, "所在地": "福島県喜多方市蒔田３１０６－２", "緯度": 37.655736, "経度": 139.882258, "url": "https://www.iryou.teikyouseido.mhlw.go.jp/znk-web/juminkanja/S2430/initialize?prefCd=07&kikanCd=0710000068&kikanKbn=1", "url2": "http://nisshinkai-i.jp/", "内容": "医療法人社団　日新会　入澤病院【1:病院】【診療科目:内科_循環器内科_消化器内科_外科_整形外科_泌尿器科_歯科_リウマチ科】【一般病床数:0療養病床数:20精神病床数:0感染症病床数:0合計病床数:20】福島県喜多方市蒔田３１０６－２" }, "geometry": { "type": "Point", "coordinates": [ 139.882258, 37.655736 ] } },
{ "type": "Feature", "properties": { "ID": 710710000069, "正式名称": "医療法人佐原病院", "機関区分": 1, "都道府県コード": 7, "市区町村コード": 208, "所在地": "福島県喜多方市永久７６８９－１", "緯度": 37.645619, "経度": 139.872325, "url": "https://www.iryou.teikyouseido.mhlw.go.jp/znk-web/juminkanja/S2430/initialize?prefCd=07&kikanCd=0710000069&kikanKbn=1", "url2": "http://www.sawara.or.jp", "内容": "医療法人佐原病院【1:病院】【診療科目:内科_リハビリテーション科】【一般病床数:35療養病床数:93精神病床数:0感染症病床数:0合計病床数:128】福島県喜多方市永久７６８９－１" }, "geometry": { "type": "Point", "coordinates": [ 139.872325, 37.645619 ] } },
{ "type": "Feature", "properties": { "ID": 710710000070, "正式名称": "医療法人昨雲会飯塚病院附属有隣病院", "機関区分": 1, "都道府県コード": 7, "市区町村コード": 208, "所在地": "福島県喜多方市松山町村松北原３６４３－１", "緯度": 37.682342, "経度": 139.870328, "url": "https://www.iryou.teikyouseido.mhlw.go.jp/znk-web/juminkanja/S2430/initialize?prefCd=07&kikanCd=0710000070&kikanKbn=1", "url2": "http://www.sakuunkai.or.jp", "内容": "医療法人昨雲会飯塚病院附属有隣病院【1:病院】【診療科目:内科_糖尿病内科_循環器内科_消化器内科_腎臓内科_神経内科_外科_消化器外科_乳腺外科_整形外科_眼科_泌尿器科】【一般病床数:160療養病床数:0精神病床数:0感染症病床数:0合計病床数:160】福島県喜多方市松山町村松北原３６４３－１" }, "geometry": { "type": "Point", "coordinates": [ 139.870328, 37.682342 ] } },
{ "type": "Feature", "properties": { "ID": 710710000072, "正式名称": "医療法人　明精会　会津西病院", "機関区分": 1, "都道府県コード": 7, "市区町村コード": 202, "所在地": "福島県会津若松市北会津町東小松２３３５番地", "緯度": 37.472911, "経度": 139.889706, "url": "https://www.iryou.teikyouseido.mhlw.go.jp/znk-web/juminkanja/S2430/initialize?prefCd=07&kikanCd=0710000072&kikanKbn=1", "url2": "http://www.meisei-kai.or.jp", "内容": "医療法人　明精会　会津西病院【1:病院】【診療科目:内科_呼吸器内科_循環器内科_消化器内科_脳神経外科_整形外科_小児科_眼科_皮膚科_精神科_歯科_リハビリテーション科】【一般病床数:60療養病床数:0精神病床数:310感染症病床数:0合計病床数:370】福島県会津若松市北会津町東小松２３３５番地" }, "geometry": { "type": "Point", "coordinates": [ 139.889706, 37.472911 ] } },
{ "type": "Feature", "properties": { "ID": 710710000073, "正式名称": "猪苗代町立猪苗代病院", "機関区分": 1, "都道府県コード": 7, "市区町村コード": 408, "所在地": "福島県耶麻郡猪苗代町梨木西６５番地", "緯度": 37.5554, "経度": 140.112133, "url": "https://www.iryou.teikyouseido.mhlw.go.jp/znk-web/juminkanja/S2430/initialize?prefCd=07&kikanCd=0710000073&kikanKbn=1", "url2": "https://www.onchikai.jp/inawashiro-hospital/", "内容": "猪苗代町立猪苗代病院【1:病院】【診療科目:内科_外科_整形外科_耳鼻いんこう科_皮膚科】【一般病床数:65療養病床数:0精神病床数:0感染症病床数:0合計病床数:65】福島県耶麻郡猪苗代町梨木西６５番地" }, "geometry": { "type": "Point", "coordinates": [ 140.112133, 37.5554 ] } },
{ "type": "Feature", "properties": { "ID": 710710000074, "正式名称": "福島県厚生農業協同組合連合会　坂下厚生総合病院", "機関区分": 1, "都道府県コード": 7, "市区町村コード": 421, "所在地": "福島県河沼郡会津坂下町上柳田２２１０－１", "緯度": 37.565892, "経度": 139.807856, "url": "https://www.iryou.teikyouseido.mhlw.go.jp/znk-web/juminkanja/S2430/initialize?prefCd=07&kikanCd=0710000074&kikanKbn=1", "url2": "https://www.bange-kosei.jp/", "内容": "福島県厚生農業協同組合連合会　坂下厚生総合病院【1:病院】【診療科目:内科_呼吸器内科_循環器内科_消化器内科_外科_整形外科_形成外科_小児科_婦人科_眼科_耳鼻いんこう科_皮膚科_泌尿器科_精神科_心療内科_リハビリテーション科_放射線科】【一般病床数:159療養病床数:0精神病床数:0感染症病床数:0合計病床数:159】福島県河沼郡会津坂下町上柳田２２１０－１" }, "geometry": { "type": "Point", "coordinates": [ 139.807856, 37.565892 ] } },
{ "type": "Feature", "properties": { "ID": 710710000075, "正式名称": "福島県厚生農業協同組合連合会　高田厚生病院", "機関区分": 1, "都道府県コード": 7, "市区町村コード": 447, "所在地": "福島県大沼郡会津美里町高田甲２９８１", "緯度": 37.464589, "経度": 139.841772, "url": "https://www.iryou.teikyouseido.mhlw.go.jp/znk-web/juminkanja/S2430/initialize?prefCd=07&kikanCd=0710000075&kikanKbn=1", "url2": "http://takada-kosei-hospital.com", "内容": "福島県厚生農業協同組合連合会　高田厚生病院【1:病院】【診療科目:内科_循環器内科_外科_整形外科_小児科_眼科_耳鼻いんこう科_皮膚科_泌尿器科_精神科_神経科_心療内科_リハビリテーション科_放射線科】【一般病床数:0療養病床数:53精神病床数:0感染症病床数:0合計病床数:53】福島県大沼郡会津美里町高田甲２９８１" }, "geometry": { "type": "Point", "coordinates": [ 139.841772, 37.464589 ] } },
{ "type": "Feature", "properties": { "ID": 710710000076, "正式名称": "福島県立宮下病院", "機関区分": 1, "都道府県コード": 7, "市区町村コード": 444, "所在地": "福島県大沼郡三島町大字宮下字水尻１１５０", "緯度": 37.473267, "経度": 139.647117, "url": "https://www.iryou.teikyouseido.mhlw.go.jp/znk-web/juminkanja/S2430/initialize?prefCd=07&kikanCd=0710000076&kikanKbn=1", "url2": "https://www.pref.fukushima.lg.jp/sec/25180a/", "内容": "福島県立宮下病院【1:病院】【診療科目:内科_外科_整形外科_耳鼻いんこう科_皮膚科_精神科】【一般病床数:32療養病床数:0精神病床数:0感染症病床数:0合計病床数:32】福島県大沼郡三島町大字宮下字水尻１１５０" }, "geometry": { "type": "Point", "coordinates": [ 139.647117, 37.473267 ] } },
{ "type": "Feature", "properties": { "ID": 710710000077, "正式名称": "福島県立南会津病院", "機関区分": 1, "都道府県コード": 7, "市区町村コード": 368, "所在地": "福島県南会津郡南会津町永田字風下１４－１", "緯度": 37.206358, "経度": 139.760278, "url": "https://www.iryou.teikyouseido.mhlw.go.jp/znk-web/juminkanja/S2430/initialize?prefCd=07&kikanCd=0710000077&kikanKbn=1", "url2": "http://www.pref.fukushima.lg.jp/sec/25190a/minamiaidubyouin.html", "内容": "福島県立南会津病院【1:病院】【診療科目:内科_腎臓内科_神経内科_漢方内科_外科_心臓血管外科_整形外科_小児科_産婦人科_眼科_耳鼻いんこう科_皮膚科_泌尿器科_精神科】【一般病床数:85療養病床数:0精神病床数:0感染症病床数:0合計病床数:85】福島県南会津郡南会津町永田字風下１４－１" }, "geometry": { "type": "Point", "coordinates": [ 139.760278, 37.206358 ] } },
{ "type": "Feature", "properties": { "ID": 710710000078, "正式名称": "公益財団法人　金森和心会　雲雀ヶ丘病院", "機関区分": 1, "都道府県コード": 7, "市区町村コード": 212, "所在地": "福島県南相馬市原町区上町１－３０", "緯度": 37.630844, "経度": 140.951303, "url": "https://www.iryou.teikyouseido.mhlw.go.jp/znk-web/juminkanja/S2430/initialize?prefCd=07&kikanCd=0710000078&kikanKbn=1", "url2": "http://www.k-washinkai.or.jp", "内容": "公益財団法人　金森和心会　雲雀ヶ丘病院【1:病院】【診療科目:内科_精神科_心療内科】【一般病床数:0療養病床数:0精神病床数:228感染症病床数:0合計病床数:228】福島県南相馬市原町区上町１－３０" }, "geometry": { "type": "Point", "coordinates": [ 140.951303, 37.630844 ] } },
{ "type": "Feature", "properties": { "ID": 710710000079, "正式名称": "医療法人相雲会小野田病院", "機関区分": 1, "都道府県コード": 7, "市区町村コード": 212, "所在地": "福島県南相馬市原町区旭町３丁目２１番地", "緯度": 37.635889, "経度": 140.969092, "url": "https://www.iryou.teikyouseido.mhlw.go.jp/znk-web/juminkanja/S2430/initialize?prefCd=07&kikanCd=0710000079&kikanKbn=1", "url2": "www.onodahp.or.jp", "内容": "医療法人相雲会小野田病院【1:病院】【診療科目:内科_呼吸器内科_循環器内科_消化器内科_腎臓内科_外科_肛門外科_整形外科_形成外科_美容外科_皮膚科_泌尿器科_リハビリテーション科_麻酔科】【一般病床数:89療養病床数:0精神病床数:0感染症病床数:0合計病床数:89】福島県南相馬市原町区旭町３丁目２１番地" }, "geometry": { "type": "Point", "coordinates": [ 140.969092, 37.635889 ] } },
{ "type": "Feature", "properties": { "ID": 710710000080, "正式名称": "公立相馬総合病院", "機関区分": 1, "都道府県コード": 7, "市区町村コード": 209, "所在地": "福島県相馬市新沼字坪ケ迫１４２", "緯度": 37.811214, "経度": 140.921692, "url": "https://www.iryou.teikyouseido.mhlw.go.jp/znk-web/juminkanja/S2430/initialize?prefCd=07&kikanCd=0710000080&kikanKbn=1", "url2": "https://www.soma-gh.jp/", "内容": "公立相馬総合病院【1:病院】【診療科目:内科_血液内科_糖尿病内科_呼吸器内科_循環器内科_消化器内科_腎臓内科_外科_脳神経外科_心臓血管外科_整形外科_形成外科_小児科_産婦人科_眼科_耳鼻いんこう科_皮膚科_泌尿器科_リハビリテーション科_放射線科_麻酔科】【一般病床数:198療養病床数:0精神病床数:0感染症病床数:0合計病床数:198】福島県相馬市新沼字坪ケ迫１４２" }, "geometry": { "type": "Point", "coordinates": [ 140.921692, 37.811214 ] } },
{ "type": "Feature", "properties": { "ID": 710710000081, "正式名称": "福島県厚生農業協同組合連合会　鹿島厚生病院", "機関区分": 1, "都道府県コード": 7, "市区町村コード": 212, "所在地": "福島県南相馬市鹿島区横手川原２", "緯度": 37.708639, "経度": 140.963392, "url": "https://www.iryou.teikyouseido.mhlw.go.jp/znk-web/juminkanja/S2430/initialize?prefCd=07&kikanCd=0710000081&kikanKbn=1", "url2": "https://kashima-kosei.jp/", "内容": "福島県厚生農業協同組合連合会　鹿島厚生病院【1:病院】【診療科目:内科_循環器内科_外科_整形外科_眼科_皮膚科_リハビリテーション科】【一般病床数:20療養病床数:60精神病床数:0感染症病床数:0合計病床数:80】福島県南相馬市鹿島区横手川原２" }, "geometry": { "type": "Point", "coordinates": [ 140.963392, 37.708639 ] } },
{ "type": "Feature", "properties": { "ID": 710710000084, "正式名称": "医療法人社団茶畑会相馬中央病院", "機関区分": 1, "都道府県コード": 7, "市区町村コード": 209, "所在地": "福島県相馬市沖ノ内三丁目５番地の１８", "緯度": 37.806703, "経度": 140.934331, "url": "https://www.iryou.teikyouseido.mhlw.go.jp/znk-web/juminkanja/S2430/initialize?prefCd=07&kikanCd=0710000084&kikanKbn=1", "url2": "https://soma-ch.com/", "内容": "医療法人社団茶畑会相馬中央病院【1:病院】【診療科目:内科_循環器内科_消化器内科_内視鏡内科_外科_整形外科_眼科_皮膚科_泌尿器科_心療内科_歯科口腔外科_リウマチ科】【一般病床数:49療養病床数:48精神病床数:0感染症病床数:0合計病床数:97】福島県相馬市沖ノ内三丁目５番地の１８" }, "geometry": { "type": "Point", "coordinates": [ 140.934331, 37.806703 ] } },
{ "type": "Feature", "properties": { "ID": 710710000085, "正式名称": "渡辺病院", "機関区分": 1, "都道府県コード": 7, "市区町村コード": 561, "所在地": "福島県相馬郡新地町駒ヶ嶺字原９２", "緯度": 37.856997, "経度": 140.914269, "url": "https://www.iryou.teikyouseido.mhlw.go.jp/znk-web/juminkanja/S2430/initialize?prefCd=07&kikanCd=0710000085&kikanKbn=1", "url2": "http://www.watanabe-hospital.or.jp/", "内容": "渡辺病院【1:病院】【診療科目:内科_循環器内科_消化器内科_外科_脳神経外科_心臓血管外科_整形外科_泌尿器科_歯科_矯正歯科_歯科口腔外科_小児歯科_リハビリテーション科_放射線科_麻酔科】【一般病床数:140療養病床数:0精神病床数:0感染症病床数:0合計病床数:140】福島県相馬郡新地町駒ヶ嶺字原９２" }, "geometry": { "type": "Point", "coordinates": [ 140.914269, 37.856997 ] } },
{ "type": "Feature", "properties": { "ID": 710710000086, "正式名称": "南相馬市立総合病院", "機関区分": 1, "都道府県コード": 7, "市区町村コード": 212, "所在地": "福島県南相馬市原町区高見町２－５４－６", "緯度": 37.637453, "経度": 140.985106, "url": "https://www.iryou.teikyouseido.mhlw.go.jp/znk-web/juminkanja/S2430/initialize?prefCd=07&kikanCd=0710000086&kikanKbn=1", "url2": "https://m-soma-hsp.com/", "内容": "南相馬市立総合病院【1:病院】【診療科目:内科_血液内科_糖尿病内科_代謝内科_内分泌内科_呼吸器内科_循環器内科_消化器内科_腎臓内科_神経内科_外科_脳神経外科_心臓血管外科_整形外科_形成外科_小児科_小児外科_産婦人科_眼科_耳鼻いんこう科_皮膚科_泌尿器科_精神科_心療内科_リウマチ科_リハビリテーション科_放射線科_麻酔科】【一般病床数:250療養病床数:50精神病床数:0感染症病床数:0合計病床数:300】福島県南相馬市原町区高見町２－５４－６" }, "geometry": { "type": "Point", "coordinates": [ 140.985106, 37.637453 ] } },
{ "type": "Feature", "properties": { "ID": 710710000087, "正式名称": "医療法人社団養高会　高野病院", "機関区分": 1, "都道府県コード": 7, "市区町村コード": 541, "所在地": "福島県双葉郡広野町大字下北迫字東町２１４", "緯度": 37.218856, "経度": 141.006603, "url": "https://www.iryou.teikyouseido.mhlw.go.jp/znk-web/juminkanja/S2430/initialize?prefCd=07&kikanCd=0710000087&kikanKbn=1", "url2": "http://takano-hosp.jp", "内容": "医療法人社団養高会　高野病院【1:病院】【診療科目:内科_循環器内科_消化器内科_神経内科_老年内科_精神科_リハビリテーション科】【一般病床数:0療養病床数:60精神病床数:49感染症病床数:0合計病床数:109】福島県双葉郡広野町大字下北迫字東町２１４" }, "geometry": { "type": "Point", "coordinates": [ 141.006603, 37.218856 ] } },
{ "type": "Feature", "properties": { "ID": 710710000093, "正式名称": "医療法人社団青空会大町病院", "機関区分": 1, "都道府県コード": 7, "市区町村コード": 212, "所在地": "福島県南相馬市原町区大町３－９７", "緯度": 37.639961, "経度": 140.967664, "url": "https://www.iryou.teikyouseido.mhlw.go.jp/znk-web/juminkanja/S2430/initialize?prefCd=07&kikanCd=0710000093&kikanKbn=1", "url2": "http://ohmachi.jp/", "内容": "医療法人社団青空会大町病院【1:病院】【診療科目:内科_呼吸器内科_循環器内科_消化器内科_腎臓内科_肝臓内科_神経内科_内視鏡内科_外科_呼吸器外科_心臓血管外科_消化器外科_肛門外科_内視鏡外科_整形外科_小児科_産婦人科_耳鼻いんこう科_皮膚科_泌尿器科_歯科_歯科口腔外科_リウマチ科_リハビリテーション科_放射線科_麻酔科】【一般病床数:104療養病床数:84精神病床数:0感染症病床数:0合計病床数:188】福島県南相馬市原町区大町３－９７" }, "geometry": { "type": "Point", "coordinates": [ 140.967664, 37.639961 ] } },
{ "type": "Feature", "properties": { "ID": 710710000094, "正式名称": "公益財団法人　金森和心会　針生ヶ丘病院", "機関区分": 1, "都道府県コード": 7, "市区町村コード": 203, "所在地": "福島県郡山市大槻町字天正坦１１", "緯度": 37.386778, "経度": 140.348889, "url": "https://www.iryou.teikyouseido.mhlw.go.jp/znk-web/juminkanja/S2430/initialize?prefCd=07&kikanCd=0710000094&kikanKbn=1", "url2": "http://www.k-washinkai.or.jp", "内容": "公益財団法人　金森和心会　針生ヶ丘病院【1:病院】【診療科目:内科_精神科_心療内科_歯科_歯科口腔外科】【一般病床数:0療養病床数:0精神病床数:407感染症病床数:0合計病床数:407】福島県郡山市大槻町字天正坦１１" }, "geometry": { "type": "Point", "coordinates": [ 140.348889, 37.386778 ] } },
{ "type": "Feature", "properties": { "ID": 710710000095, "正式名称": "社会医療法人あさかホスピタル", "機関区分": 1, "都道府県コード": 7, "市区町村コード": 203, "所在地": "福島県郡山市安積町笹川字経坦４５", "緯度": 37.347431, "経度": 140.363286, "url": "https://www.iryou.teikyouseido.mhlw.go.jp/znk-web/juminkanja/S2430/initialize?prefCd=07&kikanCd=0710000095&kikanKbn=1", "url2": "http://www.asaka.or.jp", "内容": "社会医療法人あさかホスピタル【1:病院】【診療科目:内科_神経内科_脳神経外科_児童精神科_精神科_心療内科_歯科_矯正歯科_小児歯科_放射線科】【一般病床数:0療養病床数:0精神病床数:454感染症病床数:0合計病床数:454】福島県郡山市安積町笹川字経坦４５" }, "geometry": { "type": "Point", "coordinates": [ 140.363286, 37.347431 ] } },
{ "type": "Feature", "properties": { "ID": 710710000096, "正式名称": "郡山市医療介護病院", "機関区分": 1, "都道府県コード": 7, "市区町村コード": 203, "所在地": "福島県郡山市字上亀田１－１", "緯度": 37.408575, "経度": 140.345642, "url": "https://www.iryou.teikyouseido.mhlw.go.jp/znk-web/juminkanja/S2430/initialize?prefCd=07&kikanCd=0710000096&kikanKbn=1", "url2": "http://bigheart-hp.net/", "内容": "郡山市医療介護病院【1:病院】【診療科目:内科_整形外科_婦人科_皮膚科_リハビリテーション科】【一般病床数:0療養病床数:40精神病床数:0感染症病床数:0合計病床数:40】福島県郡山市字上亀田１－１" }, "geometry": { "type": "Point", "coordinates": [ 140.345642, 37.408575 ] } },
{ "type": "Feature", "properties": { "ID": 710710000097, "正式名称": "福島県総合療育センター", "機関区分": 1, "都道府県コード": 7, "市区町村コード": 203, "所在地": "福島県郡山市富田町字上ノ台４番地の１", "緯度": 37.428936, "経度": 140.346158, "url": "https://www.iryou.teikyouseido.mhlw.go.jp/znk-web/juminkanja/S2430/initialize?prefCd=07&kikanCd=0710000097&kikanKbn=1", "url2": "http://www.pref.fukushima.lg.jp/sec/21810a/", "内容": "福島県総合療育センター【1:病院】【診療科目:整形外科_小児科_眼科_耳鼻いんこう科_泌尿器科_精神科_歯科_リハビリテーション科】【一般病床数:90療養病床数:0精神病床数:0感染症病床数:0合計病床数:90】福島県郡山市富田町字上ノ台４番地の１" }, "geometry": { "type": "Point", "coordinates": [ 140.346158, 37.428936 ] } },
{ "type": "Feature", "properties": { "ID": 710710000099, "正式名称": "一般財団法人太田綜合病院附属太田熱海病院", "機関区分": 1, "都道府県コード": 7, "市区町村コード": 203, "所在地": "福島県郡山市熱海町熱海五丁目２４０番地", "緯度": 37.486364, "経度": 140.263347, "url": "https://www.iryou.teikyouseido.mhlw.go.jp/znk-web/juminkanja/S2430/initialize?prefCd=07&kikanCd=0710000099&kikanKbn=1", "url2": "https://www.ohta-hp.or.jp/atami/", "内容": "一般財団法人太田綜合病院附属太田熱海病院【1:病院】【診療科目:内科_糖尿病内科_脳神経内科_呼吸器内科_循環器内科_消化器内科_外科_脳神経外科_呼吸器外科_心臓血管外科_肛門外科_整形外科_形成外科_美容外科_婦人科_眼科_耳鼻いんこう科_皮膚科_泌尿器科_精神科_歯科_アレルギー科_リウマチ科_リハビリテーション科_放射線科_麻酔科】【一般病床数:316療養病床数:48精神病床数:0感染症病床数:0合計病床数:364】福島県郡山市熱海町熱海五丁目２４０番地" }, "geometry": { "type": "Point", "coordinates": [ 140.263347, 37.486364 ] } },
{ "type": "Feature", "properties": { "ID": 710710000100, "正式名称": "公益財団法人　湯浅報恩会　寿泉堂綜合病院", "機関区分": 1, "都道府県コード": 7, "市区町村コード": 203, "所在地": "福島県郡山市駅前一丁目１番１７号", "緯度": 37.396431, "経度": 140.385153, "url": "https://www.iryou.teikyouseido.mhlw.go.jp/znk-web/juminkanja/S2430/initialize?prefCd=07&kikanCd=0710000100&kikanKbn=1", "url2": "http://www.jusendo.or.jp", "内容": "公益財団法人　湯浅報恩会　寿泉堂綜合病院【1:病院】【診療科目:内科_血液内科_糖尿病内科_脳神経内科_呼吸器内科_循環器内科_消化器内科_腎臓内科_外科_脳神経外科_呼吸器外科_心臓血管外科_肝臓・胆のう・膵臓外科_乳腺外科_大腸・肛門外科_内視鏡外科_整形外科_形成外科_食道・胃外科_小児科_産婦人科_臨床遺伝科_眼科_耳鼻いんこう科_皮膚科_泌尿器科_精神科_心療内科_歯科口腔外科_リウマチ科_リハビリテーション科_放射線科_病理診断科_麻酔科】【一般病床数:295療養病床数:0精神病床数:0感染症病床数:0合計病床数:295】福島県郡山市駅前一丁目１番１７号" }, "geometry": { "type": "Point", "coordinates": [ 140.385153, 37.396431 ] } },
{ "type": "Feature", "properties": { "ID": 710710000101, "正式名称": "公益財団法人湯浅報恩会　寿泉堂香久山病院", "機関区分": 1, "都道府県コード": 7, "市区町村コード": 203, "所在地": "福島県郡山市香久池１－１８－１１", "緯度": 37.381453, "経度": 140.369928, "url": "https://www.iryou.teikyouseido.mhlw.go.jp/znk-web/juminkanja/S2430/initialize?prefCd=07&kikanCd=0710000101&kikanKbn=1", "url2": "http://www.jusendo.or.jp/kgy", "内容": "公益財団法人湯浅報恩会　寿泉堂香久山病院【1:病院】【診療科目:内科_呼吸器内科_循環器内科_脳神経外科_整形外科_歯科口腔外科_リハビリテーション科】【一般病床数:51療養病床数:148精神病床数:0感染症病床数:0合計病床数:199】福島県郡山市香久池１－１８－１１" }, "geometry": { "type": "Point", "coordinates": [ 140.369928, 37.381453 ] } },
{ "type": "Feature", "properties": { "ID": 710710000102, "正式名称": "公益財団法人　星総合病院", "機関区分": 1, "都道府県コード": 7, "市区町村コード": 203, "所在地": "福島県郡山市向河原町１５９－１", "緯度": 37.4018, "経度": 140.393286, "url": "https://www.iryou.teikyouseido.mhlw.go.jp/znk-web/juminkanja/S2430/initialize?prefCd=07&kikanCd=0710000102&kikanKbn=1", "url2": "http://www.hoshipital.jp/", "内容": "公益財団法人　星総合病院【1:病院】【診療科目:内科_脳神経内科_呼吸器内科_循環器内科_消化器内科_緩和ケア内科_外科_脳神経外科_気管食道外科_心臓血管外科_消化器外科_乳腺外科_整形外科_形成外科_美容外科_小児科_産婦人科_眼科_耳鼻いんこう科_皮膚科_泌尿器科_精神科_心療内科_歯科_歯科口腔外科_リウマチ科_リハビリテーション科_放射線科_病理診断科_救急科_麻酔科】【一般病床数:415療養病床数:0精神病床数:15感染症病床数:0合計病床数:430】福島県郡山市向河原町１５９－１" }, "geometry": { "type": "Point", "coordinates": [ 140.393286, 37.4018 ] } },
{ "type": "Feature", "properties": { "ID": 710710000103, "正式名称": "医療法人　郡山病院", "機関区分": 1, "都道府県コード": 7, "市区町村コード": 203, "所在地": "福島県郡山市清水台二丁目７番４号", "緯度": 37.399753, "経度": 140.382, "url": "https://www.iryou.teikyouseido.mhlw.go.jp/znk-web/juminkanja/S2430/initialize?prefCd=07&kikanCd=0710000103&kikanKbn=1", "url2": "http://koriyamahospital.sakura.ne.jp/", "内容": "医療法人　郡山病院【1:病院】【診療科目:内科_呼吸器内科_循環器内科_消化器内科_眼科_皮膚科】【一般病床数:0療養病床数:41精神病床数:0感染症病床数:0合計病床数:41】福島県郡山市清水台二丁目７番４号" }, "geometry": { "type": "Point", "coordinates": [ 140.382, 37.399753 ] } },
{ "type": "Feature", "properties": { "ID": 710710000104, "正式名称": "医療法人慈繁会付属土屋病院", "機関区分": 1, "都道府県コード": 7, "市区町村コード": 203, "所在地": "福島県郡山市字山崎７６番１", "緯度": 37.377986, "経度": 140.367558, "url": "https://www.iryou.teikyouseido.mhlw.go.jp/znk-web/juminkanja/S2430/initialize?prefCd=07&kikanCd=0710000104&kikanKbn=1", "url2": "http://www.jihankai.jp", "内容": "医療法人慈繁会付属土屋病院【1:病院】【診療科目:内科_消化器内科_精神科_リハビリテーション科_麻酔科】【一般病床数:0療養病床数:80精神病床数:0感染症病床数:0合計病床数:80】福島県郡山市字山崎７６番１" }, "geometry": { "type": "Point", "coordinates": [ 140.367558, 37.377986 ] } },
{ "type": "Feature", "properties": { "ID": 710710000105, "正式名称": "奥羽大学歯学部附属病院", "機関区分": 1, "都道府県コード": 7, "市区町村コード": 203, "所在地": "福島県郡山市富田町三角堂３１番１号", "緯度": 37.418578, "経度": 140.374281, "url": "https://www.iryou.teikyouseido.mhlw.go.jp/znk-web/juminkanja/S2430/initialize?prefCd=07&kikanCd=0710000105&kikanKbn=1", "url2": "http://www.ohu-dent.jp", "内容": "奥羽大学歯学部附属病院【1:病院】【診療科目:内科_歯科_矯正歯科_歯科口腔外科_小児歯科】【一般病床数:22療養病床数:0精神病床数:0感染症病床数:0合計病床数:22】福島県郡山市富田町三角堂３１番１号" }, "geometry": { "type": "Point", "coordinates": [ 140.374281, 37.418578 ] } },
{ "type": "Feature", "properties": { "ID": 710710000107, "正式名称": "医療法人社団ときわ会日東病院", "機関区分": 1, "都道府県コード": 7, "市区町村コード": 203, "所在地": "福島県郡山市細沼町３番１１号", "緯度": 37.397467, "経度": 140.373461, "url": "https://www.iryou.teikyouseido.mhlw.go.jp/znk-web/juminkanja/S2430/initialize?prefCd=07&kikanCd=0710000107&kikanKbn=1", "url2": "http://www.tokiwa.or.jp/hospital/nitto/", "内容": "医療法人社団ときわ会日東病院【1:病院】【診療科目:内科_糖尿病内科_循環器内科_消化器内科_腎臓内科_人工透析内科_外科_血管外科_泌尿器科】【一般病床数:36療養病床数:0精神病床数:0感染症病床数:0合計病床数:36】福島県郡山市細沼町３番１１号" }, "geometry": { "type": "Point", "coordinates": [ 140.373461, 37.397467 ] } },
{ "type": "Feature", "properties": { "ID": 710710000108, "正式名称": "一般財団法人太田綜合病院附属太田西ノ内病院", "機関区分": 1, "都道府県コード": 7, "市区町村コード": 203, "所在地": "福島県郡山市西ノ内二丁目５番２０号", "緯度": 37.406567, "経度": 140.366042, "url": "https://www.iryou.teikyouseido.mhlw.go.jp/znk-web/juminkanja/S2430/initialize?prefCd=07&kikanCd=0710000108&kikanKbn=1", "url2": "http://www.ohta-hp.or.jp/", "内容": "一般財団法人太田綜合病院附属太田西ノ内病院【1:病院】【診療科目:内科_血液内科_糖尿病内科_脳神経内科_呼吸器内科_循環器内科_消化器内科_腎臓内科_人工透析内科_外科_脳神経外科_呼吸器外科_心臓血管外科_肛門外科_整形外科_形成外科_美容外科_小児科_小児外科_産婦人科_眼科_耳鼻いんこう科_気管食道・耳鼻いんこう科_皮膚科_泌尿器科_精神科_心療内科_歯科_矯正歯科_歯科口腔外科_小児歯科_アレルギー科_リウマチ科_リハビリテーション科_放射線診断科_放射線治療科_病理診断科_麻酔科】【一般病床数:1036療養病床数:0精神病床数:50感染症病床数:0合計病床数:1086】福島県郡山市西ノ内二丁目５番２０号" }, "geometry": { "type": "Point", "coordinates": [ 140.366042, 37.406567 ] } },
{ "type": "Feature", "properties": { "ID": 710710000109, "正式名称": "医療法人明信会　今泉眼科病院", "機関区分": 1, "都道府県コード": 7, "市区町村コード": 203, "所在地": "福島県郡山市堂前町２０－９", "緯度": 37.394803, "経度": 140.379108, "url": "https://www.iryou.teikyouseido.mhlw.go.jp/znk-web/juminkanja/S2430/initialize?prefCd=07&kikanCd=0710000109&kikanKbn=1", "url2": "http://www.imaizumi-eye.jp", "内容": "医療法人明信会　今泉眼科病院【1:病院】【診療科目:眼科】【一般病床数:39療養病床数:0精神病床数:0感染症病床数:0合計病床数:39】福島県郡山市堂前町２０－９" }, "geometry": { "type": "Point", "coordinates": [ 140.379108, 37.394803 ] } },
{ "type": "Feature", "properties": { "ID": 710710000110, "正式名称": "佐藤胃腸科外科病院", "機関区分": 1, "都道府県コード": 7, "市区町村コード": 203, "所在地": "福島県郡山市図景１－４－６", "緯度": 37.385208, "経度": 140.377911, "url": "https://www.iryou.teikyouseido.mhlw.go.jp/znk-web/juminkanja/S2430/initialize?prefCd=07&kikanCd=0710000110&kikanKbn=1", "url2": "http://www.satoh-gi-hosp.jp", "内容": "佐藤胃腸科外科病院【1:病院】【診療科目:内科_消化器内科_胃腸内科_外科_肛門外科】【一般病床数:110療養病床数:0精神病床数:0感染症病床数:0合計病床数:110】福島県郡山市図景１－４－６" }, "geometry": { "type": "Point", "coordinates": [ 140.377911, 37.385208 ] } },
{ "type": "Feature", "properties": { "ID": 710710000111, "正式名称": "一般社団法人慈山会医学研究所　付属坪井病院", "機関区分": 1, "都道府県コード": 7, "市区町村コード": 203, "所在地": "福島県郡山市安積町長久保一丁目１０番地１３", "緯度": 37.362803, "経度": 140.361331, "url": "https://www.iryou.teikyouseido.mhlw.go.jp/znk-web/juminkanja/S2430/initialize?prefCd=07&kikanCd=0710000111&kikanKbn=1", "url2": "https://www.tsuboi-hp.jp/", "内容": "一般社団法人慈山会医学研究所　付属坪井病院【1:病院】【診療科目:内科_呼吸器内科_循環器内科_消化器内科_緩和ケア内科_呼吸器外科_消化器外科_乳腺外科_整形外科_婦人科_腫瘍精神科_放射線科_病理診断科】【一般病床数:169療養病床数:0精神病床数:0感染症病床数:0合計病床数:169】福島県郡山市安積町長久保一丁目１０番地１３" }, "geometry": { "type": "Point", "coordinates": [ 140.361331, 37.362803 ] } },
{ "type": "Feature", "properties": { "ID": 710710000112, "正式名称": "医療法人　創流会　朝日病院", "機関区分": 1, "都道府県コード": 7, "市区町村コード": 203, "所在地": "福島県郡山市朝日３－８－２", "緯度": 37.405925, "経度": 140.357914, "url": "https://www.iryou.teikyouseido.mhlw.go.jp/znk-web/juminkanja/S2430/initialize?prefCd=07&kikanCd=0710000112&kikanKbn=1", "url2": "https://www.as-hp.or.jp/", "内容": "医療法人　創流会　朝日病院【1:病院】【診療科目:内科_消化器内科_腎臓内科_人工透析内科_内視鏡内科_肛門内科_外科_血管外科_肛門外科_泌尿器科】【一般病床数:30療養病床数:0精神病床数:0感染症病床数:0合計病床数:30】福島県郡山市朝日３－８－２" }, "geometry": { "type": "Point", "coordinates": [ 140.357914, 37.405925 ] } },
{ "type": "Feature", "properties": { "ID": 710710000113, "正式名称": "桑野協立病院", "機関区分": 1, "都道府県コード": 7, "市区町村コード": 203, "所在地": "福島県郡山市島二丁目９番１８号", "緯度": 37.396569, "経度": 140.346456, "url": "https://www.iryou.teikyouseido.mhlw.go.jp/znk-web/juminkanja/S2430/initialize?prefCd=07&kikanCd=0710000113&kikanKbn=1", "url2": "http://www.koriyama-h-coop.or.jp/", "内容": "桑野協立病院【1:病院】【診療科目:内科_糖尿病内科_呼吸器内科_循環器内科_消化器内科_ペインクリニック外科_整形外科_小児科_眼科_皮膚科_リウマチ科_リハビリテーション科_麻酔科】【一般病床数:64療養病床数:40精神病床数:0感染症病床数:0合計病床数:104】福島県郡山市島二丁目９番１８号" }, "geometry": { "type": "Point", "coordinates": [ 140.346456, 37.396569 ] } },
{ "type": "Feature", "properties": { "ID": 710710000114, "正式名称": "一般財団法人　脳神経疾患研究所　附属　総合南東北病院", "機関区分": 1, "都道府県コード": 7, "市区町村コード": 203, "所在地": "福島県郡山市八山田７－１１５", "緯度": 37.422692, "経度": 140.383483, "url": "https://www.iryou.teikyouseido.mhlw.go.jp/znk-web/juminkanja/S2430/initialize?prefCd=07&kikanCd=0710000114&kikanKbn=1", "url2": "http://www.minamitohoku.or.jp", "内容": "一般財団法人　脳神経疾患研究所　附属　総合南東北病院【1:病院】【診療科目:内科_血液内科_脳神経内科_呼吸器内科_循環器内科_消化器内科_腎臓内科_緩和ケア内科_外科_脳神経外科_呼吸器外科_心臓血管外科_消化器外科_乳腺外科_整形外科_形成外科_小児科_産婦人科_眼科_耳鼻いんこう科_皮膚科_泌尿器科_精神科_歯科_矯正歯科_歯科口腔外科_アレルギー科_リウマチ科_リハビリテーション科_放射線科_放射線診断科_放射線治療科_病理診断科_救急科_麻酔科】【一般病床数:458療養病床数:0精神病床数:0感染症病床数:3合計病床数:461】福島県郡山市八山田７－１１５" }, "geometry": { "type": "Point", "coordinates": [ 140.383483, 37.422692 ] } },
{ "type": "Feature", "properties": { "ID": 710710000115, "正式名称": "医療法人　明信会　今泉西病院", "機関区分": 1, "都道府県コード": 7, "市区町村コード": 203, "所在地": "福島県郡山市朝日２－１８－８", "緯度": 37.404431, "経度": 140.358392, "url": "https://www.iryou.teikyouseido.mhlw.go.jp/znk-web/juminkanja/S2430/initialize?prefCd=07&kikanCd=0710000115&kikanKbn=1", "url2": "http://www.imaizuminishi.or.jp/", "内容": "医療法人　明信会　今泉西病院【1:病院】【診療科目:内科_循環器内科_消化器内科_外科_肛門外科_整形外科_眼科_皮膚科_心療内科_リハビリテーション科_麻酔科】【一般病床数:60療養病床数:42精神病床数:0感染症病床数:0合計病床数:102】福島県郡山市朝日２－１８－８" }, "geometry": { "type": "Point", "coordinates": [ 140.358392, 37.404431 ] } },
{ "type": "Feature", "properties": { "ID": 710710000116, "正式名称": "公益財団法人　星総合病院　星ヶ丘病院", "機関区分": 1, "都道府県コード": 7, "市区町村コード": 203, "所在地": "福島県郡山市片平町字北三天７", "緯度": 37.43485, "経度": 140.319667, "url": "https://www.iryou.teikyouseido.mhlw.go.jp/znk-web/juminkanja/S2430/initialize?prefCd=07&kikanCd=0710000116&kikanKbn=1", "url2": "http://www.hoshipital.jp/hoshigaoka/index.html", "内容": "公益財団法人　星総合病院　星ヶ丘病院【1:病院】【診療科目:内科_精神科_神経科_心療内科_歯科_リハビリテーション科】【一般病床数:0療養病床数:0精神病床数:545感染症病床数:0合計病床数:545】福島県郡山市片平町字北三天７" }, "geometry": { "type": "Point", "coordinates": [ 140.319667, 37.43485 ] } },
{ "type": "Feature", "properties": { "ID": 710710000117, "正式名称": "長春館病院", "機関区分": 1, "都道府県コード": 7, "市区町村コード": 204, "所在地": "福島県いわき市平藤間字川前６３－２", "緯度": 37.035706, "経度": 140.970828, "url": "https://www.iryou.teikyouseido.mhlw.go.jp/znk-web/juminkanja/S2430/initialize?prefCd=07&kikanCd=0710000117&kikanKbn=1", "url2": "www.matsumura-ghp.or.jp", "内容": "長春館病院【1:病院】【診療科目:内科_脳神経内科_外科_脳神経外科_整形外科_泌尿器科】【一般病床数:0療養病床数:168精神病床数:0感染症病床数:0合計病床数:168】福島県いわき市平藤間字川前６３－２" }, "geometry": { "type": "Point", "coordinates": [ 140.970828, 37.035706 ] } },
{ "type": "Feature", "properties": { "ID": 710710000118, "正式名称": "小名浜生協病院", "機関区分": 1, "都道府県コード": 7, "市区町村コード": 204, "所在地": "福島県いわき市小名浜岡小名字山ノ神３２", "緯度": 36.970639, "経度": 140.909756, "url": "https://www.iryou.teikyouseido.mhlw.go.jp/znk-web/juminkanja/S2430/initialize?prefCd=07&kikanCd=0710000118&kikanKbn=1", "url2": "https://www.hamadori-coop.jp/", "内容": "小名浜生協病院【1:病院】【診療科目:内科_呼吸器内科_循環器内科_消化器内科】【一般病床数:49療養病床数:60精神病床数:0感染症病床数:0合計病床数:109】福島県いわき市小名浜岡小名字山ノ神３２" }, "geometry": { "type": "Point", "coordinates": [ 140.909756, 36.970639 ] } },
{ "type": "Feature", "properties": { "ID": 710710000119, "正式名称": "公益財団法人ときわ会　磐城中央病院", "機関区分": 1, "都道府県コード": 7, "市区町村コード": 204, "所在地": "福島県いわき市小名浜南富岡字富士前４１", "緯度": 36.958681, "経度": 140.8813, "url": "https://www.iryou.teikyouseido.mhlw.go.jp/znk-web/juminkanja/S2430/initialize?prefCd=07&kikanCd=0710000119&kikanKbn=1", "url2": null, "内容": "公益財団法人ときわ会　磐城中央病院【1:病院】【診療科目:内科_循環器内科_消化器内科_外科_整形外科_泌尿器科_リウマチ科_リハビリテーション科】【一般病床数:44療養病床数:50精神病床数:0感染症病床数:0合計病床数:94】福島県いわき市小名浜南富岡字富士前４１" }, "geometry": { "type": "Point", "coordinates": [ 140.8813, 36.958681 ] } },
{ "type": "Feature", "properties": { "ID": 710710000120, "正式名称": "一般財団法人　新田目病院", "機関区分": 1, "都道府県コード": 7, "市区町村コード": 204, "所在地": "福島県いわき市平上荒川字安草３", "緯度": 37.037631, "経度": 140.895678, "url": "https://www.iryou.teikyouseido.mhlw.go.jp/znk-web/juminkanja/S2430/initialize?prefCd=07&kikanCd=0710000120&kikanKbn=1", "url2": "https://aratame.or.jp", "内容": "一般財団法人　新田目病院【1:病院】【診療科目:精神科_心療内科】【一般病床数:0療養病床数:0精神病床数:210感染症病床数:0合計病床数:210】福島県いわき市平上荒川字安草３" }, "geometry": { "type": "Point", "coordinates": [ 140.895678, 37.037631 ] } },
{ "type": "Feature", "properties": { "ID": 710710000121, "正式名称": "長橋病院", "機関区分": 1, "都道府県コード": 7, "市区町村コード": 204, "所在地": "福島県いわき市内郷御厩町４－１００", "緯度": 37.051158, "経度": 140.874814, "url": "https://www.iryou.teikyouseido.mhlw.go.jp/znk-web/juminkanja/S2430/initialize?prefCd=07&kikanCd=0710000121&kikanKbn=1", "url2": "http://nagahashi-hp.com", "内容": "長橋病院【1:病院】【診療科目:精神科】【一般病床数:0療養病床数:0精神病床数:176感染症病床数:0合計病床数:176】福島県いわき市内郷御厩町４－１００" }, "geometry": { "type": "Point", "coordinates": [ 140.874814, 37.051158 ] } },
{ "type": "Feature", "properties": { "ID": 710710000122, "正式名称": "独立行政法人国立病院機構いわき病院", "機関区分": 1, "都道府県コード": 7, "市区町村コード": 204, "所在地": "福島県いわき市小名浜野田字八合８８－１", "緯度": 36.981561, "経度": 140.880425, "url": "https://www.iryou.teikyouseido.mhlw.go.jp/znk-web/juminkanja/S2430/initialize?prefCd=07&kikanCd=0710000122&kikanKbn=1", "url2": "https://iwaki.hosp.go.jp/index.html", "内容": "独立行政法人国立病院機構いわき病院【1:病院】【診療科目:内科_神経内科_外科_小児科_リハビリテーション科】【一般病床数:154療養病床数:0精神病床数:0感染症病床数:0合計病床数:154】福島県いわき市小名浜野田字八合８８－１" }, "geometry": { "type": "Point", "coordinates": [ 140.880425, 36.981561 ] } },
{ "type": "Feature", "properties": { "ID": 710710000123, "正式名称": "独立行政法人労働者健康安全機構　福島労災病院", "機関区分": 1, "都道府県コード": 7, "市区町村コード": 204, "所在地": "福島県いわき市内郷綴町沼尻３番地", "緯度": 37.040019, "経度": 140.865733, "url": "https://www.iryou.teikyouseido.mhlw.go.jp/znk-web/juminkanja/S2430/initialize?prefCd=07&kikanCd=0710000123&kikanKbn=1", "url2": "https://www.fukushimah.johas.go.jp/", "内容": "独立行政法人労働者健康安全機構　福島労災病院【1:病院】【診療科目:内科_呼吸器内科_循環器内科_消化器内科_神経内科_外科_脳神経外科_整形外科_産婦人科_眼科_耳鼻いんこう科_皮膚科_泌尿器科_神経科_心療内科_歯科_リウマチ科_リハビリテーション科_放射線診断科_放射線治療科_病理診断科_麻酔科】【一般病床数:389療養病床数:0精神病床数:0感染症病床数:0合計病床数:389】福島県いわき市内郷綴町沼尻３番地" }, "geometry": { "type": "Point", "coordinates": [ 140.865733, 37.040019 ] } },
{ "type": "Feature", "properties": { "ID": 710710000124, "正式名称": "いわき市医療センタ―", "機関区分": 1, "都道府県コード": 7, "市区町村コード": 204, "所在地": "福島県いわき市内郷御厩町久世原１６番地", "緯度": 37.040881, "経度": 140.867756, "url": "https://www.iryou.teikyouseido.mhlw.go.jp/znk-web/juminkanja/S2430/initialize?prefCd=07&kikanCd=0710000124&kikanKbn=1", "url2": "http://iwaki-city-medical-center.jp/", "内容": "いわき市医療センタ―【1:病院】【診療科目:内科_血液内科_糖尿病・内分泌内科_呼吸器内科_循環器内科_消化器内科_緩和ケア内科_脳神経内科_外科_脳神経外科_呼吸器外科_心臓血管外科_整形外科_形成外科_小児科_小児外科_未熟児・新生児科_産婦人科_眼科_耳鼻いんこう科_皮膚科_泌尿器科_精神科_心療内科_歯科口腔外科_リハビリテーション科_放射線診断科_放射線治療科_病理診断科_救急科_麻酔科_透析センター外科】【一般病床数:679療養病床数:0精神病床数:0感染症病床数:6合計病床数:700】福島県いわき市内郷御厩町久世原１６番地" }, "geometry": { "type": "Point", "coordinates": [ 140.867756, 37.040881 ] } },
{ "type": "Feature", "properties": { "ID": 710710000125, "正式名称": "公益財団法人ときわ会常磐病院", "機関区分": 1, "都道府県コード": 7, "市区町村コード": 204, "所在地": "福島県いわき市常磐上湯長谷町上ノ台５７", "緯度": 37.003714, "経度": 140.839319, "url": "https://www.iryou.teikyouseido.mhlw.go.jp/znk-web/juminkanja/S2430/initialize?prefCd=07&kikanCd=0710000125&kikanKbn=1", "url2": "http://www.tokiwa.or.jp/", "内容": "公益財団法人ときわ会常磐病院【1:病院】【診療科目:内科_血液内科_呼吸器内科_循環器内科_消化器内科_腎臓内科_人工透析内科_内視鏡内科_外科_消化器外科_乳腺外科_整形外科_小児科_婦人科_泌尿器科_リウマチ科_リハビリテーション科_放射線科_救急科_麻酔科】【一般病床数:180療養病床数:60精神病床数:0感染症病床数:0合計病床数:240】福島県いわき市常磐上湯長谷町上ノ台５７" }, "geometry": { "type": "Point", "coordinates": [ 140.839319, 37.003714 ] } },
{ "type": "Feature", "properties": { "ID": 710710000126, "正式名称": "松村総合病院", "機関区分": 1, "都道府県コード": 7, "市区町村コード": 204, "所在地": "福島県いわき市平字小太郎町１番地の１", "緯度": 37.052644, "経度": 140.891831, "url": "https://www.iryou.teikyouseido.mhlw.go.jp/znk-web/juminkanja/S2430/initialize?prefCd=07&kikanCd=0710000126&kikanKbn=1", "url2": "http://www.matsumura-ghp.or.jp", "内容": "松村総合病院【1:病院】【診療科目:内科_神経内科_外科_脳神経外科_整形外科_形成外科_小児科_産科_婦人科_眼科_耳鼻いんこう科_皮膚科_泌尿器科_精神科_リハビリテーション科_放射線科_麻酔科】【一般病床数:199療養病床数:0精神病床数:0感染症病床数:0合計病床数:199】福島県いわき市平字小太郎町１番地の１" }, "geometry": { "type": "Point", "coordinates": [ 140.891831, 37.052644 ] } },
{ "type": "Feature", "properties": { "ID": 710710000127, "正式名称": "公益財団法人　磐城済世会　舞子浜病院", "機関区分": 1, "都道府県コード": 7, "市区町村コード": 204, "所在地": "福島県いわき市平藤間字川前６３－１", "緯度": 37.035819, "経度": 140.970308, "url": "https://www.iryou.teikyouseido.mhlw.go.jp/znk-web/juminkanja/S2430/initialize?prefCd=07&kikanCd=0710000127&kikanKbn=1", "url2": "http://www.matsumura-ghp.or.jp/", "内容": "公益財団法人　磐城済世会　舞子浜病院【1:病院】【診療科目:内科_神経内科_精神科_心療内科】【一般病床数:0療養病床数:0精神病床数:203感染症病床数:0合計病床数:203】福島県いわき市平藤間字川前６３－１" }, "geometry": { "type": "Point", "coordinates": [ 140.970308, 37.035819 ] } },
{ "type": "Feature", "properties": { "ID": 710710000129, "正式名称": "医療法人　福島アフターケア協会　大河内記念病院", "機関区分": 1, "都道府県コード": 7, "市区町村コード": 204, "所在地": "福島県いわき市内郷御厩町３－９６", "緯度": 37.049147, "経度": 140.871708, "url": "https://www.iryou.teikyouseido.mhlw.go.jp/znk-web/juminkanja/S2430/initialize?prefCd=07&kikanCd=0710000129&kikanKbn=1", "url2": "http://www.f-sakurahosp.com/", "内容": "医療法人　福島アフターケア協会　大河内記念病院【1:病院】【診療科目:内科_糖尿病内科_老年内科_整形外科_精神科_リハビリテーション科_放射線科】【一般病床数:0療養病床数:95精神病床数:0感染症病床数:0合計病床数:95】福島県いわき市内郷御厩町３－９６" }, "geometry": { "type": "Point", "coordinates": [ 140.871708, 37.049147 ] } },
{ "type": "Feature", "properties": { "ID": 710710000130, "正式名称": "（医）常磐会いわき湯本病院", "機関区分": 1, "都道府県コード": 7, "市区町村コード": 204, "所在地": "福島県いわき市常磐湯本町台山６", "緯度": 37.010514, "経度": 140.849958, "url": "https://www.iryou.teikyouseido.mhlw.go.jp/znk-web/juminkanja/S2430/initialize?prefCd=07&kikanCd=0710000130&kikanKbn=1", "url2": "http://iwakiyumoto-hp.or.jp/", "内容": "（医）常磐会いわき湯本病院【1:病院】【診療科目:内科_外科_整形外科_形成外科_眼科_耳鼻いんこう科_皮膚科】【一般病床数:48療養病床数:106精神病床数:0感染症病床数:0合計病床数:154】福島県いわき市常磐湯本町台山６" }, "geometry": { "type": "Point", "coordinates": [ 140.849958, 37.010514 ] } },
{ "type": "Feature", "properties": { "ID": 710710000131, "正式名称": "福島整肢療護園", "機関区分": 1, "都道府県コード": 7, "市区町村コード": 204, "所在地": "福島県いわき市平上平窪字古館１－２", "緯度": 37.092889, "経度": 140.888572, "url": "https://www.iryou.teikyouseido.mhlw.go.jp/znk-web/juminkanja/S2430/initialize?prefCd=07&kikanCd=0710000131&kikanKbn=1", "url2": "http://www.ryogoen.jp/", "内容": "福島整肢療護園【1:病院】【診療科目:内科_整形外科_小児科_精神科_リハビリテーション科】【一般病床数:60療養病床数:0精神病床数:0感染症病床数:0合計病床数:60】福島県いわき市平上平窪字古館１－２" }, "geometry": { "type": "Point", "coordinates": [ 140.888572, 37.092889 ] } },
{ "type": "Feature", "properties": { "ID": 710710000132, "正式名称": "（医）社団石福会四倉病院", "機関区分": 1, "都道府県コード": 7, "市区町村コード": 204, "所在地": "福島県いわき市四倉町下仁井田字南追切２－２", "緯度": 37.089225, "経度": 140.973042, "url": "https://www.iryou.teikyouseido.mhlw.go.jp/znk-web/juminkanja/S2430/initialize?prefCd=07&kikanCd=0710000132&kikanKbn=1", "url2": "www.yotsukura.or.jp", "内容": "（医）社団石福会四倉病院【1:病院】【診療科目:内科_老年内科_精神科_心療内科_老年精神科】【一般病床数:0療養病床数:0精神病床数:214感染症病床数:0合計病床数:214】福島県いわき市四倉町下仁井田字南追切２－２" }, "geometry": { "type": "Point", "coordinates": [ 140.973042, 37.089225 ] } },
{ "type": "Feature", "properties": { "ID": 710710000133, "正式名称": "（医）松尾会松尾病院", "機関区分": 1, "都道府県コード": 7, "市区町村コード": 204, "所在地": "福島県いわき市平字新田前２番地の５", "緯度": 37.050447, "経度": 140.896972, "url": "https://www.iryou.teikyouseido.mhlw.go.jp/znk-web/juminkanja/S2430/initialize?prefCd=07&kikanCd=0710000133&kikanKbn=1", "url2": "http://www2.ocn.ne.jp/~matsuo-h/main.htm", "内容": "（医）松尾会松尾病院【1:病院】【診療科目:内科_神経内科_外科_脳神経外科_整形外科_歯科_リハビリテーション科_放射線科】【一般病床数:47療養病床数:98精神病床数:0感染症病床数:0合計病床数:145】福島県いわき市平字新田前２番地の５" }, "geometry": { "type": "Point", "coordinates": [ 140.896972, 37.050447 ] } },
{ "type": "Feature", "properties": { "ID": 710710000135, "正式名称": "（医）泉心会泉保養院", "機関区分": 1, "都道府県コード": 7, "市区町村コード": 204, "所在地": "福島県いわき市泉町玉露１－１８－１０", "緯度": 36.961267, "経度": 140.849647, "url": "https://www.iryou.teikyouseido.mhlw.go.jp/znk-web/juminkanja/S2430/initialize?prefCd=07&kikanCd=0710000135&kikanKbn=1", "url2": "http://www.izumi-h.or.jp", "内容": "（医）泉心会泉保養院【1:病院】【診療科目:精神科_神経科】【一般病床数:0療養病床数:0精神病床数:230感染症病床数:0合計病床数:230】福島県いわき市泉町玉露１－１８－１０" }, "geometry": { "type": "Point", "coordinates": [ 140.849647, 36.961267 ] } },
{ "type": "Feature", "properties": { "ID": 710710000136, "正式名称": "医療法人博文会　市里病院", "機関区分": 1, "都道府県コード": 7, "市区町村コード": 204, "所在地": "福島県いわき市鹿島町飯田字八合５", "緯度": 36.989528, "経度": 140.900481, "url": "https://www.iryou.teikyouseido.mhlw.go.jp/znk-web/juminkanja/S2430/initialize?prefCd=07&kikanCd=0710000136&kikanKbn=1", "url2": "https://ichiri.hakubunkai.or.jp/", "内容": "医療法人博文会　市里病院【1:病院】【診療科目:内科_精神科_心療内科】【一般病床数:0療養病床数:0精神病床数:98感染症病床数:0合計病床数:98】福島県いわき市鹿島町飯田字八合５" }, "geometry": { "type": "Point", "coordinates": [ 140.900481, 36.989528 ] } },
{ "type": "Feature", "properties": { "ID": 710710000138, "正式名称": "社団（医）養生会かしま病院", "機関区分": 1, "都道府県コード": 7, "市区町村コード": 204, "所在地": "福島県いわき市鹿島町下蔵持字中沢目２２－１", "緯度": 36.992964, "経度": 140.910544, "url": "https://www.iryou.teikyouseido.mhlw.go.jp/znk-web/juminkanja/S2430/initialize?prefCd=07&kikanCd=0710000138&kikanKbn=1", "url2": "http://www.kashima.jp/", "内容": "社団（医）養生会かしま病院【1:病院】【診療科目:内科_糖尿病内科_呼吸器内科_循環器内科_消化器内科_神経内科_外科_消化器外科_乳腺外科_整形外科_婦人科_皮膚科_泌尿器科_心療内科_リハビリテーション科_放射線科_麻酔科】【一般病床数:134療養病床数:59精神病床数:0感染症病床数:0合計病床数:193】福島県いわき市鹿島町下蔵持字中沢目２２－１" }, "geometry": { "type": "Point", "coordinates": [ 140.910544, 36.992964 ] } },
{ "type": "Feature", "properties": { "ID": 710710000139, "正式名称": "医療法人社団正風会　石井脳神経外科・眼科病院", "機関区分": 1, "都道府県コード": 7, "市区町村コード": 204, "所在地": "福島県いわき市小名浜林城字塚前３－１", "緯度": 36.984722, "経度": 140.894294, "url": "https://www.iryou.teikyouseido.mhlw.go.jp/znk-web/juminkanja/S2430/initialize?prefCd=07&kikanCd=0710000139&kikanKbn=1", "url2": "http://www.ishiihp.or.jp", "内容": "医療法人社団正風会　石井脳神経外科・眼科病院【1:病院】【診療科目:内科_神経内科_外科_脳神経外科_眼科_リハビリテーション科_放射線科_麻酔科】【一般病床数:40療養病床数:0精神病床数:0感染症病床数:0合計病床数:40】福島県いわき市小名浜林城字塚前３－１" }, "geometry": { "type": "Point", "coordinates": [ 140.894294, 36.984722 ] } },
{ "type": "Feature", "properties": { "ID": 710710000140, "正式名称": "医療法人　櫛田会　櫛田病院", "機関区分": 1, "都道府県コード": 7, "市区町村コード": 204, "所在地": "福島県いわき市植田町本町１－１１－１", "緯度": 36.915317, "経度": 140.796489, "url": "https://www.iryou.teikyouseido.mhlw.go.jp/znk-web/juminkanja/S2430/initialize?prefCd=07&kikanCd=0710000140&kikanKbn=1", "url2": "kushida-hosp.jp", "内容": "医療法人　櫛田会　櫛田病院【1:病院】【診療科目:内科_糖尿病内科_呼吸器内科_循環器内科_消化器内科_内視鏡内科_外科_整形外科_リウマチ科_リハビリテーション科】【一般病床数:49療養病床数:0精神病床数:0感染症病床数:0合計病床数:49】福島県いわき市植田町本町１－１１－１" }, "geometry": { "type": "Point", "coordinates": [ 140.796489, 36.915317 ] } },
{ "type": "Feature", "properties": { "ID": 710710000141, "正式名称": "呉羽総合病院", "機関区分": 1, "都道府県コード": 7, "市区町村コード": 204, "所在地": "福島県いわき市錦町落合１番地１", "緯度": 36.899906, "経度": 140.782592, "url": "https://www.iryou.teikyouseido.mhlw.go.jp/znk-web/juminkanja/S2430/initialize?prefCd=07&kikanCd=0710000141&kikanKbn=1", "url2": "https://www.kureha-hosp.jp/", "内容": "呉羽総合病院【1:病院】【診療科目:内科_糖尿病内科_呼吸器内科_循環器内科_消化器内科_外科_脳神経外科_血管外科_消化器外科_乳腺外科_整形外科_形成外科_婦人科_眼科_耳鼻いんこう科_皮膚科_泌尿器科_リハビリテーション科_放射線科_麻酔科】【一般病床数:163療養病床数:36精神病床数:0感染症病床数:0合計病床数:199】福島県いわき市錦町落合１番地１" }, "geometry": { "type": "Point", "coordinates": [ 140.782592, 36.899906 ] } },
{ "type": "Feature", "properties": { "ID": 710710000143, "正式名称": "社団（医）至誠会こうじま慈愛病院", "機関区分": 1, "都道府県コード": 7, "市区町村コード": 204, "所在地": "福島県いわき市錦町鈴鹿１０３－１", "緯度": 36.913783, "経度": 140.770375, "url": "https://www.iryou.teikyouseido.mhlw.go.jp/znk-web/juminkanja/S2430/initialize?prefCd=07&kikanCd=0710000143&kikanKbn=1", "url2": "http://shiseikai.org", "内容": "社団（医）至誠会こうじま慈愛病院【1:病院】【診療科目:内科_循環器内科_外科_リハビリテーション科】【一般病床数:30療養病床数:90精神病床数:0感染症病床数:0合計病床数:120】福島県いわき市錦町鈴鹿１０３－１" }, "geometry": { "type": "Point", "coordinates": [ 140.770375, 36.913783 ] } },
{ "type": "Feature", "properties": { "ID": 710710000144, "正式名称": "社団医療法人尚佑会　矢吹病院", "機関区分": 1, "都道府県コード": 7, "市区町村コード": 204, "所在地": "福島県いわき市佐糠町東１－１８－３", "緯度": 36.917831, "経度": 140.804822, "url": "https://www.iryou.teikyouseido.mhlw.go.jp/znk-web/juminkanja/S2430/initialize?prefCd=07&kikanCd=0710000144&kikanKbn=1", "url2": "https://yabukihp.jimdosite.com/", "内容": "社団医療法人尚佑会　矢吹病院【1:病院】【診療科目:内科_外科_肛門外科_整形外科_皮膚科_リハビリテーション科】【一般病床数:0療養病床数:36精神病床数:0感染症病床数:0合計病床数:36】福島県いわき市佐糠町東１－１８－３" }, "geometry": { "type": "Point", "coordinates": [ 140.804822, 36.917831 ] } },
{ "type": "Feature", "properties": { "ID": 710710000153, "正式名称": "医療法人社団　新生会　南東北第二病院", "機関区分": 1, "都道府県コード": 7, "市区町村コード": 203, "所在地": "福島県郡山市八山田六丁目９５", "緯度": 37.424953, "経度": 140.382744, "url": "https://www.iryou.teikyouseido.mhlw.go.jp/znk-web/juminkanja/S2430/initialize?prefCd=07&kikanCd=0710000153&kikanKbn=1", "url2": "http://shinsei.minamitohoku.or.jp", "内容": "医療法人社団　新生会　南東北第二病院【1:病院】【診療科目:内科_血液内科_脳神経内科_呼吸器内科_循環器内科_消化器内科_腎臓内科_外科_脳神経外科_整形外科_泌尿器科_リウマチ科_リハビリテーション科】【一般病床数:105療養病床数:51精神病床数:0感染症病床数:0合計病床数:156】福島県郡山市八山田六丁目９５" }, "geometry": { "type": "Point", "coordinates": [ 140.382744, 37.424953 ] } },
{ "type": "Feature", "properties": { "ID": 710710000156, "正式名称": "福島県ふたば医療センター附属病院", "機関区分": 1, "都道府県コード": 7, "市区町村コード": 543, "所在地": "福島県双葉郡富岡町大字本岡字王塚８１７－１", "緯度": 37.346633, "経度": 141.007453, "url": "https://www.iryou.teikyouseido.mhlw.go.jp/znk-web/juminkanja/S2430/initialize?prefCd=07&kikanCd=0710000156&kikanKbn=1", "url2": "http://www.pref.fukushima.lg.jp/site/futaba/", "内容": "福島県ふたば医療センター附属病院【1:病院】【診療科目:内科_救急科】【一般病床数:30療養病床数:0精神病床数:0感染症病床数:0合計病床数:30】福島県双葉郡富岡町大字本岡字王塚８１７－１" }, "geometry": { "type": "Point", "coordinates": [ 141.007453, 37.346633 ] } },
{ "type": "Feature", "properties": { "ID": 710710000157, "正式名称": "たむら市民病院", "機関区分": 1, "都道府県コード": 7, "市区町村コード": 211, "所在地": "福島県田村市船引町船引字南町通１１１番地", "緯度": 37.43775, "経度": 140.575808, "url": "https://www.iryou.teikyouseido.mhlw.go.jp/znk-web/juminkanja/S2430/initialize?prefCd=07&kikanCd=0710000157&kikanKbn=1", "url2": null, "内容": "たむら市民病院【1:病院】【診療科目:内科_循環器内科_消化器内科_腎臓内科_人工透析内科_外科_整形外科_形成外科_眼科_皮膚科_精神科_心療内科_リハビリテーション科】【一般病床数:32療養病床数:0精神病床数:0感染症病床数:0合計病床数:32】福島県田村市船引町船引字南町通１１１番地" }, "geometry": { "type": "Point", "coordinates": [ 140.575808, 37.43775 ] } }
]
}
