{
"type": "FeatureCollection",
"name": "geo_07_通所リハビリテーション",
"crs": { "type": "name", "properties": { "name": "urn:ogc:def:crs:OGC:1.3:CRS84" } },
"features": [
{ "type": "Feature", "properties": { "内容": "医療法人　生愛会　附属介護老人保健施設　生愛会ナーシングケアセンター【通所リハビリテーション】福島県福島市大笹生字向平１３－１", "url2": "https://www.kaigokensaku.mhlw.go.jp/07/index.php?action_kouhyou_detail_004_kani=true&JigyosyoCd=0750185035-00&ServiceCd=160&Type=search" }, "geometry": { "type": "Point", "coordinates": [ 140.39175130000001, 37.796467 ] } },
{ "type": "Feature", "properties": { "内容": "通所リハビリテーション「回生」【通所リハビリテーション】福島県福島市西中央一丁目１２－２", "url2": "https://www.kaigokensaku.mhlw.go.jp/07/index.php?action_kouhyou_detail_004_kani=true&JigyosyoCd=0710115213-00&ServiceCd=160&Type=search" }, "geometry": { "type": "Point", "coordinates": [ 140.433377900000039, 37.7586248 ] } },
{ "type": "Feature", "properties": { "内容": "医療法人　後藤整形外科　パワーリハビリセンターさくら【通所リハビリテーション】福島県福島市鎌田字門丈壇10-10", "url2": "https://www.kaigokensaku.mhlw.go.jp/07/index.php?action_kouhyou_detail_004_kani=true&JigyosyoCd=0770102416-00&ServiceCd=160&Type=search" }, "geometry": { "type": "Point", "coordinates": [ 140.4800846, 37.797101 ] } },
{ "type": "Feature", "properties": { "内容": "介護老人保健施設「聖・オリーブの郷」　通所リハビリテーション事業所【通所リハビリテーション】福島県福島市山口字梅本１１－１", "url2": "https://www.kaigokensaku.mhlw.go.jp/07/index.php?action_kouhyou_detail_004_kani=true&JigyosyoCd=0750185027-00&ServiceCd=160&Type=search" }, "geometry": { "type": "Point", "coordinates": [ 140.513666100000023, 37.7668537 ] } },
{ "type": "Feature", "properties": { "内容": "きらり健康生活協同組合　上松川診療所【通所リハビリテーション】福島県福島市北沢又字番匠田5番地", "url2": "https://www.kaigokensaku.mhlw.go.jp/07/index.php?action_kouhyou_detail_004_kani=true&JigyosyoCd=0710115916-00&ServiceCd=160&Type=search" }, "geometry": { "type": "Point", "coordinates": [ 140.4346031, 37.7854746 ] } },
{ "type": "Feature", "properties": { "内容": "デイケア松陵【通所リハビリテーション】福島県福島市松川町字桜内7-2", "url2": "https://www.kaigokensaku.mhlw.go.jp/07/index.php?action_kouhyou_detail_004_kani=true&JigyosyoCd=0770100832-00&ServiceCd=160&Type=search" }, "geometry": { "type": "Point", "coordinates": [ 140.460601600000018, 37.6560349 ] } },
{ "type": "Feature", "properties": { "内容": "きらり健康生活協同組合　須川診療所【通所リハビリテーション】福島県福島市野田町一丁目12-72", "url2": "https://www.kaigokensaku.mhlw.go.jp/07/index.php?action_kouhyou_detail_004_kani=true&JigyosyoCd=0710114182-00&ServiceCd=160&Type=search" }, "geometry": { "type": "Point", "coordinates": [ 140.449914299999989, 37.7544653 ] } },
{ "type": "Feature", "properties": { "内容": "医療法人創仁会　あらいクリニック【通所リハビリテーション】福島県福島市荒井字弁天前17-1", "url2": "https://www.kaigokensaku.mhlw.go.jp/07/index.php?action_kouhyou_detail_004_kani=true&JigyosyoCd=0710114299-00&ServiceCd=160&Type=search" }, "geometry": { "type": "Point", "coordinates": [ 140.384389700000014, 37.7239043 ] } },
{ "type": "Feature", "properties": { "内容": "介護老人保健施設　ケアフォーラムあづま【通所リハビリテーション】福島県福島市大森字柳下48番地の1", "url2": "https://www.kaigokensaku.mhlw.go.jp/07/index.php?action_kouhyou_detail_004_kani=true&JigyosyoCd=0750180036-00&ServiceCd=160&Type=search" }, "geometry": { "type": "Point", "coordinates": [ 140.444748299999986, 37.7388828 ] } },
{ "type": "Feature", "properties": { "内容": "ケアタウンひまわり　指定通所リハビリテーション事業所【通所リハビリテーション】福島県福島市伏拝字沼ノ上2-17", "url2": "https://www.kaigokensaku.mhlw.go.jp/07/index.php?action_kouhyou_detail_004_kani=true&JigyosyoCd=0750180051-00&ServiceCd=160&Type=search" }, "geometry": { "type": "Point", "coordinates": [ 140.4675532, 37.7113198 ] } },
{ "type": "Feature", "properties": { "内容": "あづま脳神経外科病院　短時間通所リハビリテーション【通所リハビリテーション】福島県福島市大森字柳下16－1", "url2": "https://www.kaigokensaku.mhlw.go.jp/07/index.php?action_kouhyou_detail_004_kani=true&JigyosyoCd=0710115577-00&ServiceCd=160&Type=search" }, "geometry": { "type": "Point", "coordinates": [ 140.445735, 37.739955 ] } },
{ "type": "Feature", "properties": { "内容": "介護老人保健施設はなひらの【通所リハビリテーション】福島県福島市飯坂町平野字小深田1-5", "url2": "https://www.kaigokensaku.mhlw.go.jp/07/index.php?action_kouhyou_detail_004_kani=true&JigyosyoCd=0750185043-00&ServiceCd=160&Type=search" }, "geometry": { "type": "Point", "coordinates": [ 140.44077429999993, 37.8015067 ] } },
{ "type": "Feature", "properties": { "内容": "介護老人保健施設「聖・オリーブの郷」東館　通所リハビリテーション【通所リハビリテーション】福島県福島市山口字四至田１－１", "url2": "https://www.kaigokensaku.mhlw.go.jp/07/index.php?action_kouhyou_detail_004_kani=true&JigyosyoCd=0750180028-00&ServiceCd=160&Type=search" }, "geometry": { "type": "Point", "coordinates": [ 140.514171799999986, 37.7641567 ] } },
{ "type": "Feature", "properties": { "内容": "老人保健施設にじのまち通所リハビリテーション【通所リハビリテーション】福島県福島市北沢又番匠田5", "url2": "https://www.kaigokensaku.mhlw.go.jp/07/index.php?action_kouhyou_detail_004_kani=true&JigyosyoCd=0750185050-00&ServiceCd=160&Type=search" }, "geometry": { "type": "Point", "coordinates": [ 140.4346031, 37.7854746 ] } },
{ "type": "Feature", "properties": { "内容": "介護老人保健施設　ホリスティカかまた【通所リハビリテーション】福島県福島市鎌田字門丈壇4番1", "url2": "https://www.kaigokensaku.mhlw.go.jp/07/index.php?action_kouhyou_detail_004_kani=true&JigyosyoCd=0750180069-00&ServiceCd=160&Type=search" }, "geometry": { "type": "Point", "coordinates": [ 140.480304199999978, 37.7962722 ] } },
{ "type": "Feature", "properties": { "内容": "とやのクリニック通所リハビリテーション【通所リハビリテーション】福島県福島市鳥谷野字64-1", "url2": "https://www.kaigokensaku.mhlw.go.jp/07/index.php?action_kouhyou_detail_004_kani=true&JigyosyoCd=0770101426-00&ServiceCd=160&Type=search" }, "geometry": { "type": "Point", "coordinates": [ 140.46556237228728, 37.733624042804195 ] } },
{ "type": "Feature", "properties": { "内容": "一般財団法人脳神経疾患研究　介護老人保健施設リハビリ南東北福島【通所リハビリテーション】福島県福島市荒井北3丁目1-18", "url2": "https://www.kaigokensaku.mhlw.go.jp/07/index.php?action_kouhyou_detail_004_kani=true&JigyosyoCd=0750180010-00&ServiceCd=160&Type=search" }, "geometry": { "type": "Point", "coordinates": [ 140.387082629360975, 37.725606461028633 ] } },
{ "type": "Feature", "properties": { "内容": "小野木クリニック指定通所リハビリテーション事業所【通所リハビリテーション】材木町二丁目5-20", "url2": "https://www.kaigokensaku.mhlw.go.jp/07/index.php?action_kouhyou_detail_004_kani=true&JigyosyoCd=0770200863-00&ServiceCd=160&Type=search" }, "geometry": { "type": "Point", "coordinates": [ 139.910800099999989, 37.483779 ] } },
{ "type": "Feature", "properties": { "内容": "介護老人保健施設　美野里　通所リハビリテーション事業所【通所リハビリテーション】福島県会津若松市北会津町東小松字南古川12番地", "url2": "https://www.kaigokensaku.mhlw.go.jp/07/index.php?action_kouhyou_detail_004_kani=true&JigyosyoCd=0752485011-00&ServiceCd=160&Type=search" }, "geometry": { "type": "Point", "coordinates": [ 139.891017873016409, 37.471926963928006 ] } },
{ "type": "Feature", "properties": { "内容": "一般財団法人　竹田健康財団　介護老人保健施設　エミネンス芦ノ牧【通所リハビリテーション】福島県会津若松市大戸町大字芦牧字湯平527番地1", "url2": "https://www.kaigokensaku.mhlw.go.jp/07/index.php?action_kouhyou_detail_004_kani=true&JigyosyoCd=0750285025-00&ServiceCd=160&Type=search" }, "geometry": { "type": "Point", "coordinates": [ 139.913792699999931, 37.3641367 ] } },
{ "type": "Feature", "properties": { "内容": "通所リハビリテーションTRY【通所リハビリテーション】会津若松市湯川町1番66号", "url2": "https://www.kaigokensaku.mhlw.go.jp/07/index.php?action_kouhyou_detail_004_kani=true&JigyosyoCd=0770201291-00&ServiceCd=160&Type=search" }, "geometry": { "type": "Point", "coordinates": [ 139.921044200000011, 37.490229 ] } },
{ "type": "Feature", "properties": { "内容": "介護医療院　さくら【通所リハビリテーション】福島県会津若松市宮町１-１", "url2": "https://www.kaigokensaku.mhlw.go.jp/07/index.php?action_kouhyou_detail_004_kani=true&JigyosyoCd=07B0200013-00&ServiceCd=160&Type=search" }, "geometry": { "type": "Point", "coordinates": [ 139.933561799999978, 37.4951779 ] } },
{ "type": "Feature", "properties": { "内容": "介護老人保健施設　ライフケア鶴賀【通所リハビリテーション】福島県会津若松市一箕町大字鶴賀字船ヶ森東535-1", "url2": "https://www.kaigokensaku.mhlw.go.jp/07/index.php?action_kouhyou_detail_004_kani=true&JigyosyoCd=0750280067-00&ServiceCd=160&Type=search" }, "geometry": { "type": "Point", "coordinates": [ 139.949244499999963, 37.5215305 ] } },
{ "type": "Feature", "properties": { "内容": "医療法人たるかわクリニック指定通所リハビリテーション【通所リハビリテーション】福島県郡山市御前南一丁目１３番地", "url2": "https://www.kaigokensaku.mhlw.go.jp/07/index.php?action_kouhyou_detail_004_kani=true&JigyosyoCd=0770300655-00&ServiceCd=160&Type=search" }, "geometry": { "type": "Point", "coordinates": [ 140.334286523460435, 37.385923036613399 ] } },
{ "type": "Feature", "properties": { "内容": "医療法人　慈繁会付属　トータルヘルスクリニック　通所リハビリテーション【通所リハビリテーション】福島県郡山市山崎171", "url2": "https://www.kaigokensaku.mhlw.go.jp/07/index.php?action_kouhyou_detail_004_kani=true&JigyosyoCd=0710315946-00&ServiceCd=160&Type=search" }, "geometry": { "type": "Point", "coordinates": [ 140.369589711778247, 37.377217866396606 ] } },
{ "type": "Feature", "properties": { "内容": "介護老人保健施設　啓寿園【通所リハビリテーション】福島県郡山市安積町笹川字経坦31番地", "url2": "https://www.kaigokensaku.mhlw.go.jp/07/index.php?action_kouhyou_detail_004_kani=true&JigyosyoCd=0750385015-00&ServiceCd=160&Type=search" }, "geometry": { "type": "Point", "coordinates": [ 140.363743900000031, 37.3487957 ] } },
{ "type": "Feature", "properties": { "内容": "介護老人保健施設コスモス通り　通所リハビリテーション【通所リハビリテーション】福島県郡山市鳴神三丁目1１０番地", "url2": "https://www.kaigokensaku.mhlw.go.jp/07/index.php?action_kouhyou_detail_004_kani=true&JigyosyoCd=0750385049-00&ServiceCd=160&Type=search" }, "geometry": { "type": "Point", "coordinates": [ 140.3350613, 37.3940124 ] } },
{ "type": "Feature", "properties": { "内容": "介護老人保健施設さかえハートみらい【通所リハビリテーション】郡山市東原3丁目112", "url2": "https://www.kaigokensaku.mhlw.go.jp/07/index.php?action_kouhyou_detail_004_kani=true&JigyosyoCd=0750380024-00&ServiceCd=160&Type=search" }, "geometry": { "type": "Point", "coordinates": [ 140.3547443, 37.4327259 ] } },
{ "type": "Feature", "properties": { "内容": "今泉西病院【通所リハビリテーション】福島県郡山市朝日二丁目18番8号", "url2": "https://www.kaigokensaku.mhlw.go.jp/07/index.php?action_kouhyou_detail_004_kani=true&JigyosyoCd=0710312943-00&ServiceCd=160&Type=search" }, "geometry": { "type": "Point", "coordinates": [ 140.3586489, 37.4043744 ] } },
{ "type": "Feature", "properties": { "内容": "介護医療院　紫泉の里【通所リハビリテーション】福島県郡山市田村町岩作字穂多礼218", "url2": "https://www.kaigokensaku.mhlw.go.jp/07/index.php?action_kouhyou_detail_004_kani=true&JigyosyoCd=07B0300045-00&ServiceCd=160&Type=search" }, "geometry": { "type": "Point", "coordinates": [ 140.4146025, 37.3219083 ] } },
{ "type": "Feature", "properties": { "内容": "桑野協立病院通所リハビリテーション【通所リハビリテーション】福島県郡山市島2丁目9番18号", "url2": "https://www.kaigokensaku.mhlw.go.jp/07/index.php?action_kouhyou_detail_004_kani=true&JigyosyoCd=0710312802-00&ServiceCd=160&Type=search" }, "geometry": { "type": "Point", "coordinates": [ 140.346816600000011, 37.3968883 ] } },
{ "type": "Feature", "properties": { "内容": "指定通所リハビリテーション事業所　一般財団法人脳神経疾患研究所　介護老人保健施設　ゴールドメディア【通所リハビリテーション】福島県郡山市八山田七丁目136", "url2": "https://www.kaigokensaku.mhlw.go.jp/07/index.php?action_kouhyou_detail_004_kani=true&JigyosyoCd=0750385031-00&ServiceCd=160&Type=search" }, "geometry": { "type": "Point", "coordinates": [ 140.3837476, 37.4216411 ] } },
{ "type": "Feature", "properties": { "内容": "デイケアセンター健脳【通所リハビリテーション】福島県郡山市富久山町久保田字伊賀河原16番地", "url2": "https://www.kaigokensaku.mhlw.go.jp/07/index.php?action_kouhyou_detail_004_kani=true&JigyosyoCd=0770302131-00&ServiceCd=160&Type=search" }, "geometry": { "type": "Point", "coordinates": [ 140.3736078, 37.4145903 ] } },
{ "type": "Feature", "properties": { "内容": "通所リハビリテーション健脚【通所リハビリテーション】田村町金屋マセ口5-1", "url2": "https://www.kaigokensaku.mhlw.go.jp/07/index.php?action_kouhyou_detail_004_kani=true&JigyosyoCd=0710317454-00&ServiceCd=160&Type=search" }, "geometry": { "type": "Point", "coordinates": [ 140.392549550926191, 37.366424036519376 ] } },
{ "type": "Feature", "properties": { "内容": "桔梗通所リハビリテーション【通所リハビリテーション】福島県郡山市熱海町玉川字万海田46番地7", "url2": "https://www.kaigokensaku.mhlw.go.jp/07/index.php?action_kouhyou_detail_004_kani=true&JigyosyoCd=0750385056-00&ServiceCd=160&Type=search" }, "geometry": { "type": "Point", "coordinates": [ 140.2877128, 37.4825152 ] } },
{ "type": "Feature", "properties": { "内容": "郡山市医療介護病院介護医療院【通所リハビリテーション】福島県郡山市字上亀田１番地の１", "url2": "https://www.kaigokensaku.mhlw.go.jp/07/index.php?action_kouhyou_detail_004_kani=true&JigyosyoCd=07B0300037-00&ServiceCd=160&Type=search" }, "geometry": { "type": "Point", "coordinates": [ 140.3458391, 37.4085252 ] } },
{ "type": "Feature", "properties": { "内容": "介護老人保健施設　光の森　指定通所リハビリテーション事業所【通所リハビリテーション】福島県郡山市横川町字遠後５０－１", "url2": "https://www.kaigokensaku.mhlw.go.jp/07/index.php?action_kouhyou_detail_004_kani=true&JigyosyoCd=0750385072-00&ServiceCd=160&Type=search" }, "geometry": { "type": "Point", "coordinates": [ 140.415273699999943, 37.3913759 ] } },
{ "type": "Feature", "properties": { "内容": "デイケアやすらぎ【通所リハビリテーション】福島県郡山市並木二丁目１２番地７", "url2": "https://www.kaigokensaku.mhlw.go.jp/07/index.php?action_kouhyou_detail_004_kani=true&JigyosyoCd=0770301000-00&ServiceCd=160&Type=search" }, "geometry": { "type": "Point", "coordinates": [ 140.3647053, 37.4131083 ] } },
{ "type": "Feature", "properties": { "内容": "寿泉堂香久山病院【通所リハビリテーション】福島県郡山市香久池一丁目18番11号", "url2": "https://www.kaigokensaku.mhlw.go.jp/07/index.php?action_kouhyou_detail_004_kani=true&JigyosyoCd=0710310640-00&ServiceCd=160&Type=search" }, "geometry": { "type": "Point", "coordinates": [ 140.36976056679535, 37.381493383066761 ] } },
{ "type": "Feature", "properties": { "内容": "太田熱海病院通所リハビリテーション【通所リハビリテーション】福島県郡山市熱海町熱海５丁目２４０番地一般財団法人太田綜合病院附属太田熱海病院", "url2": "https://www.kaigokensaku.mhlw.go.jp/07/index.php?action_kouhyou_detail_004_kani=true&JigyosyoCd=0770300838-00&ServiceCd=160&Type=search" }, "geometry": { "type": "Point", "coordinates": [ 140.2634876, 37.4862507 ] } },
{ "type": "Feature", "properties": { "内容": "洋向台クリニック通所リハビリテーション【通所リハビリテーション】福島県いわき市洋向台5丁目1-7", "url2": "https://www.kaigokensaku.mhlw.go.jp/07/index.php?action_kouhyou_detail_004_kani=true&JigyosyoCd=0710418062-00&ServiceCd=160&Type=search" }, "geometry": { "type": "Point", "coordinates": [ 140.9341135, 36.9649643 ] } },
{ "type": "Feature", "properties": { "内容": "社会福祉法人昌平黌　介護老人保健施設二ツ箭荘【通所リハビリテーション】福島県いわき市小川町上小川字大坂６８番地の１", "url2": "https://www.kaigokensaku.mhlw.go.jp/07/index.php?action_kouhyou_detail_004_kani=true&JigyosyoCd=0750485021-00&ServiceCd=160&Type=search" }, "geometry": { "type": "Point", "coordinates": [ 140.856860899999987, 37.1415997 ] } },
{ "type": "Feature", "properties": { "内容": "呉羽総合病院　通所リハビリテーション【通所リハビリテーション】福島県いわき市錦町落合1番地1", "url2": "https://www.kaigokensaku.mhlw.go.jp/07/index.php?action_kouhyou_detail_004_kani=true&JigyosyoCd=0710412545-00&ServiceCd=160&Type=search" }, "geometry": { "type": "Point", "coordinates": [ 140.7826258, 36.8999169 ] } },
{ "type": "Feature", "properties": { "内容": "医療法人社団正風会　石井正記念石井医院通所リハビリテーション【通所リハビリテーション】福島県いわき市小名浜字本町60", "url2": "https://www.kaigokensaku.mhlw.go.jp/07/index.php?action_kouhyou_detail_004_kani=true&JigyosyoCd=0710416850-00&ServiceCd=160&Type=search" }, "geometry": { "type": "Point", "coordinates": [ 140.9041595, 36.9495657 ] } },
{ "type": "Feature", "properties": { "内容": "小名浜生協病院　通所リハビリテーション【通所リハビリテーション】福島県いわき市小名浜岡小名字山ノ神32", "url2": "https://www.kaigokensaku.mhlw.go.jp/07/index.php?action_kouhyou_detail_004_kani=true&JigyosyoCd=0770401594-00&ServiceCd=160&Type=search" }, "geometry": { "type": "Point", "coordinates": [ 140.892470800000012, 36.9424912 ] } },
{ "type": "Feature", "properties": { "内容": "介護老人保健施設　ヒーリングホーム四倉【通所リハビリテーション】福島県いわき市四倉町下仁井田字南追切２３番地", "url2": "https://www.kaigokensaku.mhlw.go.jp/07/index.php?action_kouhyou_detail_004_kani=true&JigyosyoCd=0750485070-00&ServiceCd=160&Type=search" }, "geometry": { "type": "Point", "coordinates": [ 140.97247010000001, 37.0898531 ] } },
{ "type": "Feature", "properties": { "内容": "医療法人常磐会いわき湯本病院通所リハビリテーション【通所リハビリテーション】福島県いわき市常磐湯本町台山6", "url2": "https://www.kaigokensaku.mhlw.go.jp/07/index.php?action_kouhyou_detail_004_kani=true&JigyosyoCd=0710411737-00&ServiceCd=160&Type=search" }, "geometry": { "type": "Point", "coordinates": [ 140.849864116532899, 37.01081199525715 ] } },
{ "type": "Feature", "properties": { "内容": "佐藤クリニックメディカルフィットネスDC【通所リハビリテーション】福島県いわき市平字小太郎町3－8", "url2": "https://www.kaigokensaku.mhlw.go.jp/07/index.php?action_kouhyou_detail_004_kani=true&JigyosyoCd=0710414749-00&ServiceCd=160&Type=search" }, "geometry": { "type": "Point", "coordinates": [ 140.893553099336231, 37.051729403824304 ] } },
{ "type": "Feature", "properties": { "内容": "医療法人恒英会【通所リハビリテーション】小名浜西君ケ塚町１９－９", "url2": "https://www.kaigokensaku.mhlw.go.jp/07/index.php?action_kouhyou_detail_004_kani=true&JigyosyoCd=0710414566-00&ServiceCd=160&Type=search" }, "geometry": { "type": "Point", "coordinates": [ 140.8926588, 36.956877 ] } },
{ "type": "Feature", "properties": { "内容": "介護老人保健施設　佳勝園【通所リハビリテーション】福島県いわき市金山町月見台134-1", "url2": "https://www.kaigokensaku.mhlw.go.jp/07/index.php?action_kouhyou_detail_004_kani=true&JigyosyoCd=0750480030-00&ServiceCd=160&Type=search" }, "geometry": { "type": "Point", "coordinates": [ 140.83124620000001, 36.9249125 ] } },
{ "type": "Feature", "properties": { "内容": "こうじま慈愛病院通所リハビリテーション【通所リハビリテーション】福島県いわき市錦町鈴鹿103-1", "url2": "https://www.kaigokensaku.mhlw.go.jp/07/index.php?action_kouhyou_detail_004_kani=true&JigyosyoCd=0710415498-00&ServiceCd=160&Type=search" }, "geometry": { "type": "Point", "coordinates": [ 140.7704866, 36.913672 ] } },
{ "type": "Feature", "properties": { "内容": "介護老人保健施設　ガーデニア通所リハビリテーション【通所リハビリテーション】福島県いわき市錦町落合１番地１", "url2": "https://www.kaigokensaku.mhlw.go.jp/07/index.php?action_kouhyou_detail_004_kani=true&JigyosyoCd=0750480022-00&ServiceCd=160&Type=search" }, "geometry": { "type": "Point", "coordinates": [ 140.7825911, 36.8999052 ] } },
{ "type": "Feature", "properties": { "内容": "中山医院【通所リハビリテーション】福島県いわき市中之作字川岸３７", "url2": "https://www.kaigokensaku.mhlw.go.jp/07/index.php?action_kouhyou_detail_004_kani=true&JigyosyoCd=0770404986-00&ServiceCd=160&Type=search" }, "geometry": { "type": "Point", "coordinates": [ 140.9484248, 36.9606018 ] } },
{ "type": "Feature", "properties": { "内容": "医和生会通所リハビリテーション【通所リハビリテーション】福島県いわき市平谷川瀬一丁目16-5", "url2": "https://www.kaigokensaku.mhlw.go.jp/07/index.php?action_kouhyou_detail_004_kani=true&JigyosyoCd=0710415118-00&ServiceCd=160&Type=search" }, "geometry": { "type": "Point", "coordinates": [ 140.8920603, 37.0482137 ] } },
{ "type": "Feature", "properties": { "内容": "介護老人保健施設　小名浜ときわ苑【通所リハビリテーション】福島県いわき市小名浜金成字町田18-1", "url2": "https://www.kaigokensaku.mhlw.go.jp/07/index.php?action_kouhyou_detail_004_kani=true&JigyosyoCd=0750485088-00&ServiceCd=160&Type=search" }, "geometry": { "type": "Point", "coordinates": [ 140.897140400000012, 36.988131 ] } },
{ "type": "Feature", "properties": { "内容": "片寄診療所通所リハビリセンター【通所リハビリテーション】福島県いわき市平上片寄字上ノ内193番地", "url2": "https://www.kaigokensaku.mhlw.go.jp/07/index.php?action_kouhyou_detail_004_kani=true&JigyosyoCd=0770400661-00&ServiceCd=160&Type=search" }, "geometry": { "type": "Point", "coordinates": [ 140.9153385, 37.0806072 ] } },
{ "type": "Feature", "properties": { "内容": "介護老人保健施設サンライフゆもと　指定通所リハビリテーション事業所【通所リハビリテーション】福島県いわき市常磐藤原町大畑13-1", "url2": "https://www.kaigokensaku.mhlw.go.jp/07/index.php?action_kouhyou_detail_004_kani=true&JigyosyoCd=0750485013-00&ServiceCd=160&Type=search" }, "geometry": { "type": "Point", "coordinates": [ 140.813527799999946, 37.0011338 ] } },
{ "type": "Feature", "properties": { "内容": "医療法人　春陽会　うらら苑【通所リハビリテーション】いわき市常磐長孫町大平８０番地", "url2": "https://www.kaigokensaku.mhlw.go.jp/07/index.php?action_kouhyou_detail_004_kani=true&JigyosyoCd=0750485047-00&ServiceCd=160&Type=search" }, "geometry": { "type": "Point", "coordinates": [ 140.85331, 36.9718245 ] } },
{ "type": "Feature", "properties": { "内容": "医療法人桂生会介護老人保健施設四季庵【通所リハビリテーション】福島県いわき市好間町中好間字六反歩１－４６", "url2": "https://www.kaigokensaku.mhlw.go.jp/07/index.php?action_kouhyou_detail_004_kani=true&JigyosyoCd=0750485096-00&ServiceCd=160&Type=search" }, "geometry": { "type": "Point", "coordinates": [ 140.842824899999982, 37.0515256 ] } },
{ "type": "Feature", "properties": { "内容": "松尾病院デイケアセンター【通所リハビリテーション】福島県いわき市平字新田前2番地の5", "url2": "https://www.kaigokensaku.mhlw.go.jp/07/index.php?action_kouhyou_detail_004_kani=true&JigyosyoCd=0710418609-00&ServiceCd=160&Type=search" }, "geometry": { "type": "Point", "coordinates": [ 140.8969559, 37.0504209 ] } },
{ "type": "Feature", "properties": { "内容": "かしま病院【通所リハビリテーション】福島県いわき市鹿島町下蔵持字中沢目22番地の1", "url2": "https://www.kaigokensaku.mhlw.go.jp/07/index.php?action_kouhyou_detail_004_kani=true&JigyosyoCd=0710413584-00&ServiceCd=160&Type=search" }, "geometry": { "type": "Point", "coordinates": [ 140.9104659, 36.9929661 ] } },
{ "type": "Feature", "properties": { "内容": "いきがい村通所リハビリテーション【通所リハビリテーション】福島県いわき市小浜町東ノ作164-2", "url2": "https://www.kaigokensaku.mhlw.go.jp/07/index.php?action_kouhyou_detail_004_kani=true&JigyosyoCd=0750485104-00&ServiceCd=160&Type=search" }, "geometry": { "type": "Point", "coordinates": [ 140.843004899999983, 36.9170222 ] } },
{ "type": "Feature", "properties": { "内容": "介護老人保健施設　楢葉ときわ苑【通所リハビリテーション】福島県いわき市内郷高坂町四方木田155（仮設）", "url2": "https://www.kaigokensaku.mhlw.go.jp/07/index.php?action_kouhyou_detail_004_kani=true&JigyosyoCd=0753280023-00&ServiceCd=160&Type=search" }, "geometry": { "type": "Point", "coordinates": [ 140.865551500000038, 37.044739300000018 ] } },
{ "type": "Feature", "properties": { "内容": "介護老人保健施設「ひもろぎの園」【通所リハビリテーション】福島県白河市関辺川前88", "url2": "https://www.kaigokensaku.mhlw.go.jp/07/index.php?action_kouhyou_detail_004_kani=true&JigyosyoCd=0750585010-00&ServiceCd=160&Type=search" }, "geometry": { "type": "Point", "coordinates": [ 140.250843700000019, 37.0953891 ] } },
{ "type": "Feature", "properties": { "内容": "池田記念病院　通所リハビリテーション【通所リハビリテーション】福島県須賀川市森宿字狐石129番7池田記念病院　通所リハビリテーション", "url2": "https://www.kaigokensaku.mhlw.go.jp/07/index.php?action_kouhyou_detail_004_kani=true&JigyosyoCd=0770701381-00&ServiceCd=160&Type=search" }, "geometry": { "type": "Point", "coordinates": [ 140.35810319999996, 37.3051492 ] } },
{ "type": "Feature", "properties": { "内容": "かのめガーデンクリニック【通所リハビリテーション】福島県須賀川市和田字六軒１７３番", "url2": "https://www.kaigokensaku.mhlw.go.jp/07/index.php?action_kouhyou_detail_004_kani=true&JigyosyoCd=0710711318-00&ServiceCd=160&Type=search" }, "geometry": { "type": "Point", "coordinates": [ 140.3755904, 37.2693704 ] } },
{ "type": "Feature", "properties": { "内容": "南東北春日リハビリテーション・ケアセンター　通所リハビリテーション【通所リハビリテーション】福島県須賀川市南上町123番地の1", "url2": "https://www.kaigokensaku.mhlw.go.jp/07/index.php?action_kouhyou_detail_004_kani=true&JigyosyoCd=0750780017-00&ServiceCd=160&Type=search" }, "geometry": { "type": "Point", "coordinates": [ 140.386445699999967, 37.2834419 ] } },
{ "type": "Feature", "properties": { "内容": "介護老人保健施設アネシス　通所リハビリテーション【通所リハビリテーション】福島県須賀川市稲字古舘３９－２", "url2": "https://www.kaigokensaku.mhlw.go.jp/07/index.php?action_kouhyou_detail_004_kani=true&JigyosyoCd=0750785016-00&ServiceCd=160&Type=search" }, "geometry": { "type": "Point", "coordinates": [ 140.326414399999976, 37.2858264 ] } },
{ "type": "Feature", "properties": { "内容": "南東北春日通所リハビリテーション【通所リハビリテーション】福島県須賀川市南上町123-1", "url2": "https://www.kaigokensaku.mhlw.go.jp/07/index.php?action_kouhyou_detail_004_kani=true&JigyosyoCd=0770700607-00&ServiceCd=160&Type=search" }, "geometry": { "type": "Point", "coordinates": [ 140.3865002, 37.2835244 ] } },
{ "type": "Feature", "properties": { "内容": "医療法人　佐原病院【通所リハビリテーション】福島県喜多方市永久7689番地の1", "url2": "https://www.kaigokensaku.mhlw.go.jp/07/index.php?action_kouhyou_detail_004_kani=true&JigyosyoCd=0710810664-00&ServiceCd=160&Type=search" }, "geometry": { "type": "Point", "coordinates": [ 139.872487, 37.6453996 ] } },
{ "type": "Feature", "properties": { "内容": "介護老人保健施設　天心ケアハイツ【通所リハビリテーション】福島県喜多方市松山町村松字北原3656-3", "url2": "https://www.kaigokensaku.mhlw.go.jp/07/index.php?action_kouhyou_detail_004_kani=true&JigyosyoCd=0750885014-00&ServiceCd=160&Type=search" }, "geometry": { "type": "Point", "coordinates": [ 139.8699967, 37.6836482 ] } },
{ "type": "Feature", "properties": { "内容": "介護老人保健施設　パステルヴィレッジ小野【通所リハビリテーション】福島県喜多方市字加登２９７１－１", "url2": "https://www.kaigokensaku.mhlw.go.jp/07/index.php?action_kouhyou_detail_004_kani=true&JigyosyoCd=0750885022-00&ServiceCd=160&Type=search" }, "geometry": { "type": "Point", "coordinates": [ 139.8809635, 37.6583266 ] } },
{ "type": "Feature", "properties": { "内容": "医療機関併設型小規模介護老人保健施設ハートランドケア東町【通所リハビリテーション】福島県喜多方市字蒔田3106番地の4", "url2": "https://www.kaigokensaku.mhlw.go.jp/07/index.php?action_kouhyou_detail_004_kani=true&JigyosyoCd=0750880023-00&ServiceCd=160&Type=search" }, "geometry": { "type": "Point", "coordinates": [ 139.882938200000012, 37.6556451 ] } },
{ "type": "Feature", "properties": { "内容": "通所リハビリテーションうらら【通所リハビリテーション】福島県喜多方市字下川原8290-16", "url2": "https://www.kaigokensaku.mhlw.go.jp/07/index.php?action_kouhyou_detail_004_kani=true&JigyosyoCd=0770800373-00&ServiceCd=160&Type=search" }, "geometry": { "type": "Point", "coordinates": [ 139.864474117860425, 37.64471942856207 ] } },
{ "type": "Feature", "properties": { "内容": "介護老人保健施設　ケアホームやまと【通所リハビリテーション】福島県喜多方市山都町木幡字鼬塚丁１５７１", "url2": "https://www.kaigokensaku.mhlw.go.jp/07/index.php?action_kouhyou_detail_004_kani=true&JigyosyoCd=0752580019-00&ServiceCd=160&Type=search" }, "geometry": { "type": "Point", "coordinates": [ 139.775271, 37.6547738 ] } },
{ "type": "Feature", "properties": { "内容": "デイケアセンター　森の都【通所リハビリテーション】福島県相馬市柚木字大関70-1", "url2": "https://www.kaigokensaku.mhlw.go.jp/07/index.php?action_kouhyou_detail_004_kani=true&JigyosyoCd=0750980013-00&ServiceCd=160&Type=search" }, "geometry": { "type": "Point", "coordinates": [ 140.955335699999978, 37.7443884 ] } },
{ "type": "Feature", "properties": { "内容": "介護老人保健施設　ベテランズサークル【通所リハビリテーション】福島県相馬市小泉字高池319-1", "url2": "https://www.kaigokensaku.mhlw.go.jp/07/index.php?action_kouhyou_detail_004_kani=true&JigyosyoCd=0750985012-00&ServiceCd=160&Type=search" }, "geometry": { "type": "Point", "coordinates": [ 140.919208199999957, 37.8074731 ] } },
{ "type": "Feature", "properties": { "内容": "医療法人　菊慈会　きくち整形外科通所リハビリテーション【通所リハビリテーション】福島県二本松市油井字背戸谷地7-3", "url2": "https://www.kaigokensaku.mhlw.go.jp/07/index.php?action_kouhyou_detail_004_kani=true&JigyosyoCd=0772100376-00&ServiceCd=160&Type=search" }, "geometry": { "type": "Point", "coordinates": [ 140.462801399999989, 37.6118105 ] } },
{ "type": "Feature", "properties": { "内容": "二本松病院附属介護老人保健施設【通所リハビリテーション】福島県二本松市成田町１丁目８６７番地", "url2": "https://www.kaigokensaku.mhlw.go.jp/07/index.php?action_kouhyou_detail_004_kani=true&JigyosyoCd=0751085010-00&ServiceCd=160&Type=search" }, "geometry": { "type": "Point", "coordinates": [ 140.4215742, 37.5910489 ] } },
{ "type": "Feature", "properties": { "内容": "介護老人保健施設あだたら【通所リハビリテーション】福島県二本松市油井字戸ノ内21-1", "url2": "https://www.kaigokensaku.mhlw.go.jp/07/index.php?action_kouhyou_detail_004_kani=true&JigyosyoCd=0751080011-00&ServiceCd=160&Type=search" }, "geometry": { "type": "Point", "coordinates": [ 140.4639664, 37.6145274 ] } },
{ "type": "Feature", "properties": { "内容": "医療法人辰星会　枡病院【通所リハビリテーション】本町1-103", "url2": "https://www.kaigokensaku.mhlw.go.jp/07/index.php?action_kouhyou_detail_004_kani=true&JigyosyoCd=0771000163-00&ServiceCd=160&Type=search" }, "geometry": { "type": "Point", "coordinates": [ 135.4998578, 34.6841133 ] } },
{ "type": "Feature", "properties": { "内容": "デイケア　はなみずき【通所リハビリテーション】福島県二本松市根崎1丁目55番地", "url2": "https://www.kaigokensaku.mhlw.go.jp/07/index.php?action_kouhyou_detail_004_kani=true&JigyosyoCd=0771000528-00&ServiceCd=160&Type=search" }, "geometry": { "type": "Point", "coordinates": [ 140.448293799999988, 37.599023600000017 ] } },
{ "type": "Feature", "properties": { "内容": "やまびこ苑　通所リハビリテーション【通所リハビリテーション】福島県二本松市住吉100", "url2": "https://www.kaigokensaku.mhlw.go.jp/07/index.php?action_kouhyou_detail_004_kani=true&JigyosyoCd=0751085028-00&ServiceCd=160&Type=search" }, "geometry": { "type": "Point", "coordinates": [ 140.403902199999948, 37.5545189 ] } },
{ "type": "Feature", "properties": { "内容": "清水医院　リハビリテーションセンター【通所リハビリテーション】船引町船引字馬場60", "url2": "https://www.kaigokensaku.mhlw.go.jp/07/index.php?action_kouhyou_detail_004_kani=true&JigyosyoCd=0711110080-00&ServiceCd=160&Type=search" }, "geometry": { "type": "Point", "coordinates": [ 140.56901160000001, 37.4419132 ] } },
{ "type": "Feature", "properties": { "内容": "介護老人保健施設　滝根「聖・オリオンの郷」　通所リハビリテーション【通所リハビリテーション】福島県田村市滝根町神俣字大平266-3", "url2": "https://www.kaigokensaku.mhlw.go.jp/07/index.php?action_kouhyou_detail_004_kani=true&JigyosyoCd=0751180019-00&ServiceCd=160&Type=search" }, "geometry": { "type": "Point", "coordinates": [ 140.678557500000011, 37.3261503 ] } },
{ "type": "Feature", "properties": { "内容": "介護老人保健施設　桜美苑【通所リハビリテーション】福島県田村市船引町船引字馬場41-2", "url2": "https://www.kaigokensaku.mhlw.go.jp/07/index.php?action_kouhyou_detail_004_kani=true&JigyosyoCd=0753185016-00&ServiceCd=160&Type=search" }, "geometry": { "type": "Point", "coordinates": [ 140.569058899999959, 37.4424771 ] } },
{ "type": "Feature", "properties": { "内容": "リハビリセンター　歩【通所リハビリテーション】福島県田村市船引町船引字砂子田42番地", "url2": "https://www.kaigokensaku.mhlw.go.jp/07/index.php?action_kouhyou_detail_004_kani=true&JigyosyoCd=0751180027-00&ServiceCd=160&Type=search" }, "geometry": { "type": "Point", "coordinates": [ 140.5717218, 37.4457984 ] } },
{ "type": "Feature", "properties": { "内容": "船引クリニック　リハビリセンター【通所リハビリテーション】福島県田村市船引町船引字砂子田４２番地", "url2": "https://www.kaigokensaku.mhlw.go.jp/07/index.php?action_kouhyou_detail_004_kani=true&JigyosyoCd=0771100195-00&ServiceCd=160&Type=search" }, "geometry": { "type": "Point", "coordinates": [ 140.5717218, 37.4457984 ] } },
{ "type": "Feature", "properties": { "内容": "介護老人保健施設　長生院【通所リハビリテーション】福島県南相馬市原町区本町一丁目１４１番地", "url2": "https://www.kaigokensaku.mhlw.go.jp/07/index.php?action_kouhyou_detail_004_kani=true&JigyosyoCd=0750685018-00&ServiceCd=160&Type=search" }, "geometry": { "type": "Point", "coordinates": [ 140.95988669999997, 37.6392056 ] } },
{ "type": "Feature", "properties": { "内容": "福島県厚生農業協同組合連合会鹿島厚生病院併設介護老人保健施設厚寿苑【通所リハビリテーション】福島県南相馬市鹿島区横手字八郎内３番地", "url2": "https://www.kaigokensaku.mhlw.go.jp/07/index.php?action_kouhyou_detail_004_kani=true&JigyosyoCd=0753385012-00&ServiceCd=160&Type=search" }, "geometry": { "type": "Point", "coordinates": [ 140.96276476309049, 37.708886049217007 ] } },
{ "type": "Feature", "properties": { "内容": "介護老人保健施設ヨッシーランド　通所リハビリテーション【通所リハビリテーション】原町区石神字赤坂１１０番地１", "url2": "https://www.kaigokensaku.mhlw.go.jp/07/index.php?action_kouhyou_detail_004_kani=true&JigyosyoCd=0751280017-00&ServiceCd=160&Type=search" }, "geometry": { "type": "Point", "coordinates": [ 140.924366700000064, 37.6434999 ] } },
{ "type": "Feature", "properties": { "内容": "通所リハビリテーション　ろくまんぼう【通所リハビリテーション】福島県伊達市保原町大泉字小作逢15-1", "url2": "https://www.kaigokensaku.mhlw.go.jp/07/index.php?action_kouhyou_detail_004_kani=true&JigyosyoCd=0771300407-00&ServiceCd=160&Type=search" }, "geometry": { "type": "Point", "coordinates": [ 140.5688046, 37.8319588 ] } },
{ "type": "Feature", "properties": { "内容": "プライムケア桃花林【通所リハビリテーション】福島県伊達市保原町字岡代9番地1", "url2": "https://www.kaigokensaku.mhlw.go.jp/07/index.php?action_kouhyou_detail_004_kani=true&JigyosyoCd=0752085019-00&ServiceCd=160&Type=search" }, "geometry": { "type": "Point", "coordinates": [ 140.561789099999942, 37.810914 ] } },
{ "type": "Feature", "properties": { "内容": "指定通所リハビリテーション事業所「リハビリセンター掛田」【通所リハビリテーション】福島県伊達市霊山町掛田字西裏47-1", "url2": "https://www.kaigokensaku.mhlw.go.jp/07/index.php?action_kouhyou_detail_004_kani=true&JigyosyoCd=0772000196-00&ServiceCd=160&Type=search" }, "geometry": { "type": "Point", "coordinates": [ 140.593194546032748, 37.784446128546683 ] } },
{ "type": "Feature", "properties": { "内容": "医療法人慈久会　介護老人保健施設明生苑【通所リハビリテーション】福島県本宮市本宮字南町裡１４９番地", "url2": "https://www.kaigokensaku.mhlw.go.jp/07/index.php?action_kouhyou_detail_004_kani=true&JigyosyoCd=0752185017-00&ServiceCd=160&Type=search" }, "geometry": { "type": "Point", "coordinates": [ 140.401516695350551, 37.517108125451607 ] } },
{ "type": "Feature", "properties": { "内容": "介護老人保健施設　まゆみの里【通所リハビリテーション】福島県本宮市青田字花掛20番地", "url2": "https://www.kaigokensaku.mhlw.go.jp/07/index.php?action_kouhyou_detail_004_kani=true&JigyosyoCd=0752185025-00&ServiceCd=160&Type=search" }, "geometry": { "type": "Point", "coordinates": [ 140.392885100000058, 37.5021603 ] } },
{ "type": "Feature", "properties": { "内容": "介護老人保健施設　桑折「聖・オリーブの郷」　通所リハビリテーション【通所リハビリテーション】福島県伊達郡桑折町大字上郡字内記１－１", "url2": "https://www.kaigokensaku.mhlw.go.jp/07/index.php?action_kouhyou_detail_004_kani=true&JigyosyoCd=0752080010-00&ServiceCd=160&Type=search" }, "geometry": { "type": "Point", "coordinates": [ 140.523220056483524, 37.84896826766083 ] } },
{ "type": "Feature", "properties": { "内容": "通所リハビリテーションめがみ【通所リハビリテーション】福島県伊達郡川俣町字五百田20-1", "url2": "https://www.kaigokensaku.mhlw.go.jp/07/index.php?action_kouhyou_detail_004_kani=true&JigyosyoCd=0772001350-00&ServiceCd=160&Type=search" }, "geometry": { "type": "Point", "coordinates": [ 140.599116099999947, 37.6659941 ] } },
{ "type": "Feature", "properties": { "内容": "介護老人保健施設　リハビリ南東北川俣　通所リハビリテーション【通所リハビリテーション】福島県伊達郡川俣町大字鶴沢字池ノ上30-1", "url2": "https://www.kaigokensaku.mhlw.go.jp/07/index.php?action_kouhyou_detail_004_kani=true&JigyosyoCd=0752080036-00&ServiceCd=160&Type=search" }, "geometry": { "type": "Point", "coordinates": [ 140.575051700000017, 37.6636992 ] } },
{ "type": "Feature", "properties": { "内容": "医療法人　正生会　佐藤医院　通所リハビリテーション【通所リハビリテーション】福島県南会津郡下郷町大字塩生字下タ原1317番地", "url2": "https://www.kaigokensaku.mhlw.go.jp/07/index.php?action_kouhyou_detail_004_kani=true&JigyosyoCd=0772300299-00&ServiceCd=160&Type=search" }, "geometry": { "type": "Point", "coordinates": [ 139.870988006221012, 37.25121492942165 ] } },
{ "type": "Feature", "properties": { "内容": "只見町介護老人保健施設「こぶし苑」【通所リハビリテーション】福島県南会津郡只見町大字長浜字唱平３１番地", "url2": "https://www.kaigokensaku.mhlw.go.jp/07/index.php?action_kouhyou_detail_004_kani=true&JigyosyoCd=0752385013-00&ServiceCd=160&Type=search" }, "geometry": { "type": "Point", "coordinates": [ 139.374581300000045, 37.3040678 ] } },
{ "type": "Feature", "properties": { "内容": "只見町介護老人保健施設「こぶし苑」【通所リハビリテーション】福島県南会津郡只見町大字長浜字唱平　31番地", "url2": "https://www.kaigokensaku.mhlw.go.jp/07/index.php?action_kouhyou_detail_004_kani=true&JigyosyoCd=0772300786-00&ServiceCd=160&Type=search" }, "geometry": { "type": "Point", "coordinates": [ 139.374580303704846, 37.304127931488111 ] } },
{ "type": "Feature", "properties": { "内容": "南会津町介護老人保健施設湯花里苑【通所リハビリテーション】福島県南会津郡南会津町湯ノ花６４８番地", "url2": "https://www.kaigokensaku.mhlw.go.jp/07/index.php?action_kouhyou_detail_004_kani=true&JigyosyoCd=0772300604-00&ServiceCd=160&Type=search" }, "geometry": { "type": "Point", "coordinates": [ 139.522600099999977, 37.0675423 ] } },
{ "type": "Feature", "properties": { "内容": "西会津町介護老人保健施設「憩の森」【通所リハビリテーション】福島県耶麻郡西会津町登世島字田畑乙２０４２番地６５", "url2": "https://www.kaigokensaku.mhlw.go.jp/07/index.php?action_kouhyou_detail_004_kani=true&JigyosyoCd=0772500518-00&ServiceCd=160&Type=search" }, "geometry": { "type": "Point", "coordinates": [ 139.639561500000013, 37.5979247 ] } },
{ "type": "Feature", "properties": { "内容": "磐梯町介護老人保健施設「りんどう」【通所リハビリテーション】福島県耶麻郡磐梯町大字磐梯字諏訪山２９２６番地", "url2": "https://www.kaigokensaku.mhlw.go.jp/07/index.php?action_kouhyou_detail_004_kani=true&JigyosyoCd=0772500492-00&ServiceCd=160&Type=search" }, "geometry": { "type": "Point", "coordinates": [ 139.981228, 37.5571353 ] } },
{ "type": "Feature", "properties": { "内容": "介護老人保健施設多生苑猪苗代【通所リハビリテーション】福島県耶麻郡猪苗代町字梨木西101番地", "url2": "https://www.kaigokensaku.mhlw.go.jp/07/index.php?action_kouhyou_detail_004_kani=true&JigyosyoCd=0752580100-00&ServiceCd=160&Type=search" }, "geometry": { "type": "Point", "coordinates": [ 140.112595899999974, 37.5560438 ] } },
{ "type": "Feature", "properties": { "内容": "かいごろうじんほけんしせつけあてるいなわしろ【通所リハビリテーション】福島県耶麻郡猪苗代町大字川桁字元寺２４０３番地１", "url2": "https://www.kaigokensaku.mhlw.go.jp/07/index.php?action_kouhyou_detail_004_kani=true&JigyosyoCd=0752580068-00&ServiceCd=160&Type=search" }, "geometry": { "type": "Point", "coordinates": [ 140.1533904, 37.5421088 ] } },
{ "type": "Feature", "properties": { "内容": "坂下厚生総合病院併設　介護老人保健施設なごみ【通所リハビリテーション】福島県河沼郡会津坂下町字上柳田2210-1", "url2": "https://www.kaigokensaku.mhlw.go.jp/07/index.php?action_kouhyou_detail_004_kani=true&JigyosyoCd=0752685016-00&ServiceCd=160&Type=search" }, "geometry": { "type": "Point", "coordinates": [ 139.80795032432863, 37.565353701742623 ] } },
{ "type": "Feature", "properties": { "内容": "介護老人保健施設　グリーンケアハイツ【通所リハビリテーション】福島県大沼郡会津美里町荻窪字上野185番地", "url2": "https://www.kaigokensaku.mhlw.go.jp/07/index.php?action_kouhyou_detail_004_kani=true&JigyosyoCd=0752785014-00&ServiceCd=160&Type=search" }, "geometry": { "type": "Point", "coordinates": [ 139.809526339811669, 37.450818746329745 ] } },
{ "type": "Feature", "properties": { "内容": "介護老人保健施設ニコニコリハビリ【通所リハビリテーション】福島県西白河郡西郷村字下前田東４", "url2": "https://www.kaigokensaku.mhlw.go.jp/07/index.php?action_kouhyou_detail_004_kani=true&JigyosyoCd=0752880013-00&ServiceCd=160&Type=search" }, "geometry": { "type": "Point", "coordinates": [ 140.190683196958958, 37.122924522656767 ] } },
{ "type": "Feature", "properties": { "内容": "介護老人保健施設　泉崎南東北リハビリテーション・ケアセンター【通所リハビリテーション】福島県西白河郡泉崎村大字泉崎字山ヶ入56", "url2": "https://www.kaigokensaku.mhlw.go.jp/07/index.php?action_kouhyou_detail_004_kani=true&JigyosyoCd=0772800819-00&ServiceCd=160&Type=search" }, "geometry": { "type": "Point", "coordinates": [ 140.291996499999982, 37.1572856 ] } },
{ "type": "Feature", "properties": { "内容": "会田通所リハビリテーション【通所リハビリテーション】福島県西白河郡矢吹町本町260番地", "url2": "https://www.kaigokensaku.mhlw.go.jp/07/index.php?action_kouhyou_detail_004_kani=true&JigyosyoCd=0772800611-00&ServiceCd=160&Type=search" }, "geometry": { "type": "Point", "coordinates": [ 140.324990064942938, 37.208750720615342 ] } },
{ "type": "Feature", "properties": { "内容": "医療法人　あさひ会　介護老人保健施設南東北プロヴィデンス　通所リハビリテーション【通所リハビリテーション】福島県西白河郡矢吹町文京町226", "url2": "https://www.kaigokensaku.mhlw.go.jp/07/index.php?action_kouhyou_detail_004_kani=true&JigyosyoCd=0752880047-00&ServiceCd=160&Type=search" }, "geometry": { "type": "Point", "coordinates": [ 140.338734100000011, 37.1881902 ] } },
{ "type": "Feature", "properties": { "内容": "デイケア　きたむら【通所リハビリテーション】西白河郡矢吹町八幡町256-1", "url2": "https://www.kaigokensaku.mhlw.go.jp/07/index.php?action_kouhyou_detail_004_kani=true&JigyosyoCd=0772800603-00&ServiceCd=160&Type=search" }, "geometry": { "type": "Point", "coordinates": [ 140.331090499999988, 37.1980137 ] } },
{ "type": "Feature", "properties": { "内容": "塙厚生病院併設　介護老人保健施設久慈の郷【通所リハビリテーション】福島県東白川郡塙町大字塙字材木町14番地", "url2": "https://www.kaigokensaku.mhlw.go.jp/07/index.php?action_kouhyou_detail_004_kani=true&JigyosyoCd=0752985010-00&ServiceCd=160&Type=search" }, "geometry": { "type": "Point", "coordinates": [ 140.409109, 36.9605479 ] } },
{ "type": "Feature", "properties": { "内容": "介護老人保健施設オルキス　通所リハビリテーション【通所リハビリテーション】福島県石川郡石川町大字沢井字西ノ作89-40", "url2": "https://www.kaigokensaku.mhlw.go.jp/07/index.php?action_kouhyou_detail_004_kani=true&JigyosyoCd=0753080035-00&ServiceCd=160&Type=search" }, "geometry": { "type": "Point", "coordinates": [ 140.391789900000049, 37.1389778 ] } },
{ "type": "Feature", "properties": { "内容": "（医）誠励会介護老人保健施設ひらたリハビリテーション・ケアセンター【通所リハビリテーション】福島県石川郡平田村大字上蓬田字清水内18-2", "url2": "https://www.kaigokensaku.mhlw.go.jp/07/index.php?action_kouhyou_detail_004_kani=true&JigyosyoCd=0753080043-00&ServiceCd=160&Type=search" }, "geometry": { "type": "Point", "coordinates": [ 140.567756599999939, 37.2433604 ] } },
{ "type": "Feature", "properties": { "内容": "（医）誠励会介護老人保健施設サテライト大久田リハビリテーション・ケアセンター【通所リハビリテーション】福島県石川郡古殿町大字大久田字石神44-1", "url2": "https://www.kaigokensaku.mhlw.go.jp/07/index.php?action_kouhyou_detail_004_kani=true&JigyosyoCd=0753080050-00&ServiceCd=160&Type=search" }, "geometry": { "type": "Point", "coordinates": [ 140.596545099999958, 37.0919906 ] } },
{ "type": "Feature", "properties": { "内容": "指定通所リハビリテーション事業所　介護老人保健施設　三春南東北リハビリテーション・ケアセンター【通所リハビリテーション】福島県田村郡三春町大字山田字クルミヤツ3-3", "url2": "https://www.kaigokensaku.mhlw.go.jp/07/index.php?action_kouhyou_detail_004_kani=true&JigyosyoCd=0753180017-00&ServiceCd=160&Type=search" }, "geometry": { "type": "Point", "coordinates": [ 140.448194699999931, 37.4266348 ] } },
{ "type": "Feature", "properties": { "内容": "医療法人伸裕会渡辺病院【通所リハビリテーション】福島県相馬郡新地町駒ヶ嶺字原92番地医療法人伸裕会渡辺病院", "url2": "https://www.kaigokensaku.mhlw.go.jp/07/index.php?action_kouhyou_detail_004_kani=true&JigyosyoCd=0713310704-00&ServiceCd=160&Type=search" }, "geometry": { "type": "Point", "coordinates": [ 140.9136401, 37.8570185 ] } }
]
}
