{
"type": "FeatureCollection",
"name": "geo_07_介護医療院",
"crs": { "type": "name", "properties": { "name": "urn:ogc:def:crs:OGC:1.3:CRS84" } },
"features": [
{ "type": "Feature", "properties": { "内容": "介護医療院　さくら【介護医療院】福島県会津若松市宮町１-１", "url": "https://www.kaigokensaku.mhlw.go.jp/07/index.php?action_kouhyou_detail_004_kani=true&JigyosyoCd=07B0200013-00&ServiceCd=550&Type=search", "url2": "http://www.sakura-anazawa..jp" }, "geometry": { "type": "Point", "coordinates": [ 139.933561799999978, 37.4951779 ] } },
{ "type": "Feature", "properties": { "内容": "土屋病院介護医療院【介護医療院】福島県郡山市字山崎76番1", "url": "https://www.kaigokensaku.mhlw.go.jp/07/index.php?action_kouhyou_detail_004_kani=true&JigyosyoCd=07B0300011-00&ServiceCd=550&Type=search", "url2": "https://jihankai.jp/" }, "geometry": { "type": "Point", "coordinates": [ 140.367627399999947, 37.3780083 ] } },
{ "type": "Feature", "properties": { "内容": "介護医療院　紫泉の里【介護医療院】福島県郡山市田村町岩作字穂多礼218", "url": "https://www.kaigokensaku.mhlw.go.jp/07/index.php?action_kouhyou_detail_004_kani=true&JigyosyoCd=07B0300045-00&ServiceCd=550&Type=search", "url2": "https://jihankai.jp/shisen/" }, "geometry": { "type": "Point", "coordinates": [ 140.414602500000029, 37.321908299999976 ] } },
{ "type": "Feature", "properties": { "内容": "寿泉堂香久山病院　介護医療院【介護医療院】福島県郡山市香久池一丁目18番11号", "url": "https://www.kaigokensaku.mhlw.go.jp/07/index.php?action_kouhyou_detail_004_kani=true&JigyosyoCd=07B0300029-00&ServiceCd=550&Type=search", "url2": "http://www.jusendo.or.jp/kgy" }, "geometry": { "type": "Point", "coordinates": [ 140.369867855155888, 37.381706513978898 ] } },
{ "type": "Feature", "properties": { "内容": "郡山市医療介護病院介護医療院【介護医療院】福島県郡山市字上亀田１番地の１", "url": "https://www.kaigokensaku.mhlw.go.jp/07/index.php?action_kouhyou_detail_004_kani=true&JigyosyoCd=07B0300037-00&ServiceCd=550&Type=search", "url2": "http://bigheart-hp.net/" }, "geometry": { "type": "Point", "coordinates": [ 140.3458391, 37.4085252 ] } },
{ "type": "Feature", "properties": { "内容": "社団医療法人　容雅会　中村病院介護医療院【介護医療院】福島県いわき市小名浜大原字下小滝146-2", "url": "https://www.kaigokensaku.mhlw.go.jp/07/index.php?action_kouhyou_detail_004_kani=true&JigyosyoCd=07B0400043-00&ServiceCd=550&Type=search", "url2": null }, "geometry": { "type": "Point", "coordinates": [ 140.8972698, 36.9613052 ] } },
{ "type": "Feature", "properties": { "内容": "医療法人　双美会　クリニック田畑【介護医療院】福島県いわき市中岡町3丁目7-3", "url": "https://www.kaigokensaku.mhlw.go.jp/07/index.php?action_kouhyou_detail_004_kani=true&JigyosyoCd=07B0400050-00&ServiceCd=550&Type=search", "url2": null }, "geometry": { "type": "Point", "coordinates": [ 140.7826583, 36.9214302 ] } },
{ "type": "Feature", "properties": { "内容": "呉羽総合病院　介護医療院【介護医療院】福島県いわき市錦町落合1番地1", "url": "https://www.kaigokensaku.mhlw.go.jp/07/index.php?action_kouhyou_detail_004_kani=true&JigyosyoCd=07B0400035-00&ServiceCd=550&Type=search", "url2": null }, "geometry": { "type": "Point", "coordinates": [ 140.7825517, 36.8999142 ] } },
{ "type": "Feature", "properties": { "内容": "矢吹病院介護医療院【介護医療院】福島県いわき市佐糠町東1丁目18-3", "url": "https://www.kaigokensaku.mhlw.go.jp/07/index.php?action_kouhyou_detail_004_kani=true&JigyosyoCd=07B0400084-00&ServiceCd=550&Type=search", "url2": "https://yabuki-hp.skr.jp/" }, "geometry": { "type": "Point", "coordinates": [ 140.8047989, 36.9178781 ] } },
{ "type": "Feature", "properties": { "内容": "春山医院　介護医療院【介護医療院】福島県いわき市常磐下湯長谷町二丁目1番地", "url": "https://www.kaigokensaku.mhlw.go.jp/07/index.php?action_kouhyou_detail_004_kani=true&JigyosyoCd=07B0400068-00&ServiceCd=550&Type=search", "url2": "http://syunyoukai.sakura.ne.jp/" }, "geometry": { "type": "Point", "coordinates": [ 140.855846, 36.9908757 ] } },
{ "type": "Feature", "properties": { "内容": "小名浜生協病院　介護医療院【介護医療院】福島県いわき市小名浜岡小名字山ノ神３２番地", "url": "https://www.kaigokensaku.mhlw.go.jp/07/index.php?action_kouhyou_detail_004_kani=true&JigyosyoCd=07B0400019-00&ServiceCd=550&Type=search", "url2": "UＲＬ:http://www.hamadоri-cооp.jp/" }, "geometry": { "type": "Point", "coordinates": [ 140.90955329999997, 36.9705333 ] } },
{ "type": "Feature", "properties": { "内容": "医療法人松尾会松尾病院　介護医療院【介護医療院】福島県いわき市平字新田前2番地の５医療法人松尾会　松尾病院介護医療院", "url": "https://www.kaigokensaku.mhlw.go.jp/07/index.php?action_kouhyou_detail_004_kani=true&JigyosyoCd=07B0400076-00&ServiceCd=550&Type=search", "url2": "matsuo-iwaki.or.jp" }, "geometry": { "type": "Point", "coordinates": [ 140.8960501, 37.0503211 ] } },
{ "type": "Feature", "properties": { "内容": "かしま病院介護医療院【介護医療院】福島県いわき市鹿島町下蔵持字中沢目22-1", "url": "https://www.kaigokensaku.mhlw.go.jp/07/index.php?action_kouhyou_detail_004_kani=true&JigyosyoCd=07B0400027-00&ServiceCd=550&Type=search", "url2": "http://www.kashima.jp" }, "geometry": { "type": "Point", "coordinates": [ 140.91118240000003, 36.9929457 ] } },
{ "type": "Feature", "properties": { "内容": "介護医療院いりさわ【介護医療院】福島県喜多方市字蒔田3106番地の2", "url": "https://www.kaigokensaku.mhlw.go.jp/07/index.php?action_kouhyou_detail_004_kani=true&JigyosyoCd=07B0800028-00&ServiceCd=550&Type=search", "url2": "https://keiwakai.net/" }, "geometry": { "type": "Point", "coordinates": [ 139.882291900000013, 37.655779200000019 ] } },
{ "type": "Feature", "properties": { "内容": "介護医療院　鳴瀬病院【介護医療院】福島県喜多方市字稲荷宮7307番地の1", "url": "https://www.kaigokensaku.mhlw.go.jp/07/index.php?action_kouhyou_detail_004_kani=true&JigyosyoCd=07B0800036-00&ServiceCd=550&Type=search", "url2": null }, "geometry": { "type": "Point", "coordinates": [ 139.8770199, 37.6467867 ] } },
{ "type": "Feature", "properties": { "内容": "小野田病院介護医療院【介護医療院】福島県南相馬市原町区旭町3-21", "url": "https://www.kaigokensaku.mhlw.go.jp/07/index.php?action_kouhyou_detail_004_kani=true&JigyosyoCd=07B1200012-00&ServiceCd=550&Type=search", "url2": "www.onodahp.or.jp" }, "geometry": { "type": "Point", "coordinates": [ 140.968942, 37.6363967 ] } },
{ "type": "Feature", "properties": { "内容": "介護医療院　うぐいすの森【介護医療院】福島県本宮市青田字花掛20番地", "url": "https://www.kaigokensaku.mhlw.go.jp/07/index.php?action_kouhyou_detail_004_kani=true&JigyosyoCd=07B1400018-00&ServiceCd=550&Type=search", "url2": "https://www.ochiaikai.jp/" }, "geometry": { "type": "Point", "coordinates": [ 140.392996901188667, 37.502261070655912 ] } }
]
}
