{
"type": "FeatureCollection",
"name": "geo_07_認知症対応型通所介護",
"crs": { "type": "name", "properties": { "name": "urn:ogc:def:crs:OGC:1.3:CRS84" } },
"features": [
{ "type": "Feature", "properties": { "内容": "すこやか・ラコパ　別館あかり【認知症対応型通所介護】福島県福島市仲間町４－８", "url": "https://www.kaigokensaku.mhlw.go.jp/07/index.php?action_kouhyou_detail_004_kani=true&JigyosyoCd=0790100473-00&ServiceCd=720&Type=search", "url2": "http://www.sukoyakanosato.jp" }, "geometry": { "type": "Point", "coordinates": [ 140.470712, 37.7569701 ] } },
{ "type": "Feature", "properties": { "内容": "愛の家デイサービス福島桜木町【認知症対応型通所介護】福島県福島市桜木町13番30号", "url": "https://www.kaigokensaku.mhlw.go.jp/07/index.php?action_kouhyou_detail_004_kani=true&JigyosyoCd=0790100895-00&ServiceCd=720&Type=search", "url2": "http://www.mcsg.co.jp" }, "geometry": { "type": "Point", "coordinates": [ 140.482058100000017, 37.7605645 ] } },
{ "type": "Feature", "properties": { "内容": "愛の家グループホーム福島飯坂【認知症対応型通所介護】福島県福島市飯坂町平野字中ノ内7-1", "url": "https://www.kaigokensaku.mhlw.go.jp/07/index.php?action_kouhyou_detail_004_kani=true&JigyosyoCd=0790100184-00&ServiceCd=720&Type=search", "url2": "http://www.mcsg.co.jp/" }, "geometry": { "type": "Point", "coordinates": [ 140.4535388, 37.8059169 ] } },
{ "type": "Feature", "properties": { "内容": "共用型デイサービスリブレ松川【認知症対応型通所介護】福島県福島市松川町美郷4丁目13番8", "url": "https://www.kaigokensaku.mhlw.go.jp/07/index.php?action_kouhyou_detail_004_kani=true&JigyosyoCd=0790100622-00&ServiceCd=720&Type=search", "url2": "http://www.libre.life-support.jp/?page_id=11" }, "geometry": { "type": "Point", "coordinates": [ 140.472963095106508, 37.665570582467723 ] } },
{ "type": "Feature", "properties": { "内容": "ロング・ライフ　フクチャンち　デイサービスセンター【認知症対応型通所介護】福島県福島市伏拝字清水内25番地", "url": "https://www.kaigokensaku.mhlw.go.jp/07/index.php?action_kouhyou_detail_004_kani=true&JigyosyoCd=0790100044-00&ServiceCd=720&Type=search", "url2": "www.life-time-fukusima.jp" }, "geometry": { "type": "Point", "coordinates": [ 140.4609068, 37.7219329 ] } },
{ "type": "Feature", "properties": { "内容": "すこやかの里デイサービスセンター別館ひなた認知症対応型通所介護事業所【認知症対応型通所介護】福島県福島市沖高字中島14-1", "url": "https://www.kaigokensaku.mhlw.go.jp/07/index.php?action_kouhyou_detail_004_kani=true&JigyosyoCd=0770101772-00&ServiceCd=720&Type=search", "url2": "http://www.sukoyakanosato.jp" }, "geometry": { "type": "Point", "coordinates": [ 140.47133830000007, 37.7998744 ] } },
{ "type": "Feature", "properties": { "内容": "創世春日町デイサービスセンター【認知症対応型通所介護】福島県福島市春日町１４番１４号", "url": "https://www.kaigokensaku.mhlw.go.jp/07/index.php?action_kouhyou_detail_004_kani=true&JigyosyoCd=0790100176-00&ServiceCd=720&Type=search", "url2": null }, "geometry": { "type": "Point", "coordinates": [ 140.475027800000021, 37.7675108 ] } },
{ "type": "Feature", "properties": { "内容": "ふれあい・瀬上【認知症対応型通所介護】福島県福島市瀬上町字薬師前１－５８ふれあい・瀬上", "url": "https://www.kaigokensaku.mhlw.go.jp/07/index.php?action_kouhyou_detail_004_kani=true&JigyosyoCd=0790100267-00&ServiceCd=720&Type=search", "url2": "https://sukoyakanosato.jp/" }, "geometry": { "type": "Point", "coordinates": [ 140.495583099999976, 37.8053579 ] } },
{ "type": "Feature", "properties": { "内容": "認知症対応型通所介護事業所「ふるさと」いいざか【認知症対応型通所介護】福島県福島市飯坂町字八景3-7", "url": "https://www.kaigokensaku.mhlw.go.jp/07/index.php?action_kouhyou_detail_004_kani=true&JigyosyoCd=0790100465-00&ServiceCd=720&Type=search", "url2": "http://www.azumanh.or.jp/" }, "geometry": { "type": "Point", "coordinates": [ 140.444672500000024, 37.8256678 ] } },
{ "type": "Feature", "properties": { "内容": "有限会社夢と共生の21グループ　夢ひろばふくしま【認知症対応型通所介護】福島県福島市森合南戸ノ内８－１２", "url": "https://www.kaigokensaku.mhlw.go.jp/07/index.php?action_kouhyou_detail_004_kani=true&JigyosyoCd=0790100051-00&ServiceCd=720&Type=search", "url2": "http://yumeweb21.web.fc2.com" }, "geometry": { "type": "Point", "coordinates": [ 140.453840799999966, 37.766577 ] } },
{ "type": "Feature", "properties": { "内容": "福島市中央デイサービスセンター【認知症対応型通所介護】福島県福島市森合町10-1", "url": "https://www.kaigokensaku.mhlw.go.jp/07/index.php?action_kouhyou_detail_004_kani=true&JigyosyoCd=0770101020-00&ServiceCd=720&Type=search", "url2": "http://www.f-shishakyo.or.jp/" }, "geometry": { "type": "Point", "coordinates": [ 140.463273, 37.762892899999983 ] } },
{ "type": "Feature", "properties": { "内容": "デイサービスふらっと【認知症対応型通所介護】福島県福島市伏拝字樋水15-4", "url": "https://www.kaigokensaku.mhlw.go.jp/07/index.php?action_kouhyou_detail_004_kani=true&JigyosyoCd=0790101224-00&ServiceCd=720&Type=search", "url2": null }, "geometry": { "type": "Point", "coordinates": [ 140.4608215, 37.7229437 ] } },
{ "type": "Feature", "properties": { "内容": "デイサービスセンターグリーンライト【認知症対応型通所介護】福島県福島市飯坂町湯野字梁尻１番地の１", "url": "https://www.kaigokensaku.mhlw.go.jp/07/index.php?action_kouhyou_detail_004_kani=true&JigyosyoCd=0770100758-00&ServiceCd=720&Type=search", "url2": "http://care-net.biz/07/ryokukouen/" }, "geometry": { "type": "Point", "coordinates": [ 140.456274500000063, 37.8225325 ] } },
{ "type": "Feature", "properties": { "内容": "認知症専門デイサービスOASIS　1号館【認知症対応型通所介護】福島県会津若松市山鹿町4番3号", "url": "https://www.kaigokensaku.mhlw.go.jp/07/index.php?action_kouhyou_detail_004_kani=true&JigyosyoCd=0790200109-00&ServiceCd=720&Type=search", "url2": "http://www.takeda.or.jp" }, "geometry": { "type": "Point", "coordinates": [ 139.9232991, 37.4913642 ] } },
{ "type": "Feature", "properties": { "内容": "認知症専門デイサービスＯＡＳＩＳ　２号館【認知症対応型通所介護】福島県会津若松市山鹿町4－3", "url": "https://www.kaigokensaku.mhlw.go.jp/07/index.php?action_kouhyou_detail_004_kani=true&JigyosyoCd=0790200158-00&ServiceCd=720&Type=search", "url2": "http://www.takeda.or.jp/" }, "geometry": { "type": "Point", "coordinates": [ 139.9232991, 37.4913642 ] } },
{ "type": "Feature", "properties": { "内容": "株式会社ケアネット　会津サービスセンター　共用型デイサービスあいづ【認知症対応型通所介護】福島県会津若松市門田町工業団地37-1", "url": "https://www.kaigokensaku.mhlw.go.jp/07/index.php?action_kouhyou_detail_004_kani=true&JigyosyoCd=0790200265-00&ServiceCd=720&Type=search", "url2": "http://www.carenet.fujitsu.com/" }, "geometry": { "type": "Point", "coordinates": [ 139.912651200000028, 37.4644442 ] } },
{ "type": "Feature", "properties": { "内容": "会津長寿園デイサービスセンター　認知症対応型【認知症対応型通所介護】福島県会津若松市門田町大字黒岩字五百山丙459-3", "url": "https://www.kaigokensaku.mhlw.go.jp/07/index.php?action_kouhyou_detail_004_kani=true&JigyosyoCd=0770200277-00&ServiceCd=720&Type=search", "url2": "http://www.choujuen.or.jp/" }, "geometry": { "type": "Point", "coordinates": [ 139.94672259999993, 37.4833931 ] } },
{ "type": "Feature", "properties": { "内容": "医療生協デイサービスセンターあおぞら【認知症対応型通所介護】福島県会津若松市神指町黒川字湯川東２０５－１", "url": "https://www.kaigokensaku.mhlw.go.jp/07/index.php?action_kouhyou_detail_004_kani=true&JigyosyoCd=0790200281-00&ServiceCd=720&Type=search", "url2": "http://aizu-health.coop/" }, "geometry": { "type": "Point", "coordinates": [ 139.913552399999958, 37.508009500000014 ] } },
{ "type": "Feature", "properties": { "内容": "みなづるデイサービスセンター【認知症対応型通所介護】福島県会津若松市河東町郡山字中子山25-1", "url": "https://www.kaigokensaku.mhlw.go.jp/07/index.php?action_kouhyou_detail_004_kani=true&JigyosyoCd=0790200067-00&ServiceCd=720&Type=search", "url2": "http://www.awshakyo.or.jp/" }, "geometry": { "type": "Point", "coordinates": [ 139.926391200000012, 37.5494631 ] } },
{ "type": "Feature", "properties": { "内容": "認知症対応型デイサービスセンター「健康倶楽部家　鶴成館」【認知症対応型通所介護】福島県会津若松市飯寺南三丁目2番21号", "url": "https://www.kaigokensaku.mhlw.go.jp/07/index.php?action_kouhyou_detail_004_kani=true&JigyosyoCd=0790200034-00&ServiceCd=720&Type=search", "url2": "http://www.heiseikai-group.com/" }, "geometry": { "type": "Point", "coordinates": [ 139.908303526983673, 37.476212580813275 ] } },
{ "type": "Feature", "properties": { "内容": "太田玉川デイサービスセンター【認知症対応型通所介護】福島県郡山市熱海町玉川字阿曽沢11番地1", "url": "https://www.kaigokensaku.mhlw.go.jp/07/index.php?action_kouhyou_detail_004_kani=true&JigyosyoCd=0770301208-00&ServiceCd=720&Type=search", "url2": "http://www.ohta-fukushi.or.jp" }, "geometry": { "type": "Point", "coordinates": [ 140.286628126662208, 37.482491150507677 ] } },
{ "type": "Feature", "properties": { "内容": "医療生協桑の実デイサービスセンター【認知症対応型通所介護】福島県郡山市島２－23－１7", "url": "https://www.kaigokensaku.mhlw.go.jp/07/index.php?action_kouhyou_detail_004_kani=true&JigyosyoCd=0790300115-00&ServiceCd=720&Type=search", "url2": "http://www.koriyama-h-coop.or.jp/" }, "geometry": { "type": "Point", "coordinates": [ 140.346454499999936, 37.3965735 ] } },
{ "type": "Feature", "properties": { "内容": "デイサービスセンター光の森の丘【認知症対応型通所介護】福島県郡山市安原町字谷津１７１－１", "url": "https://www.kaigokensaku.mhlw.go.jp/07/index.php?action_kouhyou_detail_004_kani=true&JigyosyoCd=0770302461-00&ServiceCd=720&Type=search", "url2": "http://hikarino-morinooka.jp/" }, "geometry": { "type": "Point", "coordinates": [ 140.416240099999982, 37.3960671 ] } },
{ "type": "Feature", "properties": { "内容": "まるみつでいるーむ【認知症対応型通所介護】福島県郡山市田村町下行合字宮田130-85", "url": "https://www.kaigokensaku.mhlw.go.jp/07/index.php?action_kouhyou_detail_004_kani=true&JigyosyoCd=0770301919-00&ServiceCd=720&Type=search", "url2": "http://marumitsu-care.jp" }, "geometry": { "type": "Point", "coordinates": [ 140.410291799999982, 37.3707303 ] } },
{ "type": "Feature", "properties": { "内容": "あかつき【認知症対応型通所介護】福島県郡山市備前舘2-22-6", "url": "https://www.kaigokensaku.mhlw.go.jp/07/index.php?action_kouhyou_detail_004_kani=true&JigyosyoCd=0790301006-00&ServiceCd=720&Type=search", "url2": "https://www.y-jikka.com/" }, "geometry": { "type": "Point", "coordinates": [ 140.361148442991635, 37.415938227676783 ] } },
{ "type": "Feature", "properties": { "内容": "光の里みらい【認知症対応型通所介護】福島県郡山市小原田三丁目16番1号", "url": "https://www.kaigokensaku.mhlw.go.jp/07/index.php?action_kouhyou_detail_004_kani=true&JigyosyoCd=0790300420-00&ServiceCd=720&Type=search", "url2": "http/cosmo~m~s.co.jp/" }, "geometry": { "type": "Point", "coordinates": [ 140.386475893254101, 37.380716841438208 ] } },
{ "type": "Feature", "properties": { "内容": "大槻町　けやきの里【認知症対応型通所介護】福島県郡山市大槻町北ノ山22-3", "url": "https://www.kaigokensaku.mhlw.go.jp/07/index.php?action_kouhyou_detail_004_kani=true&JigyosyoCd=0790300685-00&ServiceCd=720&Type=search", "url2": "https://ai-nosato.jp" }, "geometry": { "type": "Point", "coordinates": [ 140.31515760000002, 37.3937746 ] } },
{ "type": "Feature", "properties": { "内容": "認知症対応型デイサービス桜【認知症対応型通所介護】福島県いわき市錦町前原76-4グループホーム桜", "url": "https://www.kaigokensaku.mhlw.go.jp/07/index.php?action_kouhyou_detail_004_kani=true&JigyosyoCd=0790401095-00&ServiceCd=720&Type=search", "url2": null }, "geometry": { "type": "Point", "coordinates": [ 140.794722111778242, 36.900415413313169 ] } },
{ "type": "Feature", "properties": { "内容": "デイサービスことぶき【認知症対応型通所介護】福島県いわき市錦町川窪101-3", "url": "https://www.kaigokensaku.mhlw.go.jp/07/index.php?action_kouhyou_detail_004_kani=true&JigyosyoCd=0790400949-00&ServiceCd=720&Type=search", "url2": "http://care-net.biz/07/kotobuki/company.php" }, "geometry": { "type": "Point", "coordinates": [ 140.7842499, 36.9172479 ] } },
{ "type": "Feature", "properties": { "内容": "認知症対応型グループホーム　高原の家　よつくら【認知症対応型通所介護】福島県いわき市四倉町上仁井田字夕円164", "url": "https://www.kaigokensaku.mhlw.go.jp/07/index.php?action_kouhyou_detail_004_kani=true&JigyosyoCd=0793230012-00&ServiceCd=720&Type=search", "url2": null }, "geometry": { "type": "Point", "coordinates": [ 140.979735729499794, 37.09843598767813 ] } },
{ "type": "Feature", "properties": { "内容": "グループホーム　郷ヶ丘シルバーハウス【認知症対応型通所介護】福島県いわき市郷ヶ丘二丁目３３番地の５", "url": "https://www.kaigokensaku.mhlw.go.jp/07/index.php?action_kouhyou_detail_004_kani=true&JigyosyoCd=0770403251-00&ServiceCd=720&Type=search", "url2": null }, "geometry": { "type": "Point", "coordinates": [ 140.9051215, 37.0248816 ] } },
{ "type": "Feature", "properties": { "内容": "ことほぎ庵　寿々の木【認知症対応型通所介護】福島県いわき市常磐西郷町岩崎２９番地の１０", "url": "https://www.kaigokensaku.mhlw.go.jp/07/index.php?action_kouhyou_detail_004_kani=true&JigyosyoCd=0790400469-00&ServiceCd=720&Type=search", "url2": null }, "geometry": { "type": "Point", "coordinates": [ 140.860642, 36.9857258 ] } },
{ "type": "Feature", "properties": { "内容": "デイサ－ビスセンタ－　郷ヶ丘シルバ－サロン【認知症対応型通所介護】福島県いわき市郷ヶ丘2丁目33番地の1", "url": "https://www.kaigokensaku.mhlw.go.jp/07/index.php?action_kouhyou_detail_004_kani=true&JigyosyoCd=0770402071-00&ServiceCd=720&Type=search", "url2": null }, "geometry": { "type": "Point", "coordinates": [ 140.903985799999987, 37.0244154 ] } },
{ "type": "Feature", "properties": { "内容": "デイサービス　OHANA【認知症対応型通所介護】常磐湯本町下浅貝94番地の2", "url": "https://www.kaigokensaku.mhlw.go.jp/07/index.php?action_kouhyou_detail_004_kani=true&JigyosyoCd=0790401459-00&ServiceCd=720&Type=search", "url2": null }, "geometry": { "type": "Point", "coordinates": [ 140.8550373, 37.0083017 ] } },
{ "type": "Feature", "properties": { "内容": "幸寿苑【認知症対応型通所介護】福島県いわき市平上平窪字原田13番地の１", "url": "https://www.kaigokensaku.mhlw.go.jp/07/index.php?action_kouhyou_detail_004_kani=true&JigyosyoCd=0770400414-00&ServiceCd=720&Type=search", "url2": "http://www.kojuen.com" }, "geometry": { "type": "Point", "coordinates": [ 140.8738727, 37.1005847 ] } },
{ "type": "Feature", "properties": { "内容": "ことほぎ庵森へゆこう　遊楽【認知症対応型通所介護】泉滝尻二丁目１６番地の１１", "url": "https://www.kaigokensaku.mhlw.go.jp/07/index.php?action_kouhyou_detail_004_kani=true&JigyosyoCd=0790400832-00&ServiceCd=720&Type=search", "url2": "https://iwaki-kotohogi.com" }, "geometry": { "type": "Point", "coordinates": [ 140.865763423031552, 36.954977739716647 ] } },
{ "type": "Feature", "properties": { "内容": "ことほぎ庵森へゆこう　茶楽【認知症対応型通所介護】泉滝尻二丁目１６番地の１１", "url": "https://www.kaigokensaku.mhlw.go.jp/07/index.php?action_kouhyou_detail_004_kani=true&JigyosyoCd=0790400824-00&ServiceCd=720&Type=search", "url2": "https://iwaki-kotohogi.com" }, "geometry": { "type": "Point", "coordinates": [ 140.866081693881227, 36.955357801993991 ] } },
{ "type": "Feature", "properties": { "内容": "デイサービスセンター聖徳荘【認知症対応型通所介護】福島県いわき市内郷宮町金坂１８４番地の３", "url": "https://www.kaigokensaku.mhlw.go.jp/07/index.php?action_kouhyou_detail_004_kani=true&JigyosyoCd=0770401529-00&ServiceCd=720&Type=search", "url2": "http://seitokuso.jp/" }, "geometry": { "type": "Point", "coordinates": [ 140.846247299999959, 37.0439655 ] } },
{ "type": "Feature", "properties": { "内容": "医療法人　医和生会　きらくデイサービス【認知症対応型通所介護】福島県いわき市平谷川瀬1-19-7いきいきはうす", "url": "https://www.kaigokensaku.mhlw.go.jp/07/index.php?action_kouhyou_detail_004_kani=true&JigyosyoCd=0790400691-00&ServiceCd=720&Type=search", "url2": null }, "geometry": { "type": "Point", "coordinates": [ 140.89277185581966, 37.046586823561327 ] } },
{ "type": "Feature", "properties": { "内容": "デイサービスセンター泉ヶ丘【認知症対応型通所介護】福島県いわき市泉ヶ丘2丁目５３－１", "url": "https://www.kaigokensaku.mhlw.go.jp/07/index.php?action_kouhyou_detail_004_kani=true&JigyosyoCd=0790400162-00&ServiceCd=720&Type=search", "url2": "http://members3.jcom.home.ne.jp/yuusinnkai" }, "geometry": { "type": "Point", "coordinates": [ 140.860882, 36.9627374 ] } },
{ "type": "Feature", "properties": { "内容": "デイサービスセンターいわき【認知症対応型通所介護】福島県いわき市平字南町48-1", "url": "https://www.kaigokensaku.mhlw.go.jp/07/index.php?action_kouhyou_detail_004_kani=true&JigyosyoCd=0790401202-00&ServiceCd=720&Type=search", "url2": null }, "geometry": { "type": "Point", "coordinates": [ 140.8945248, 37.055196 ] } },
{ "type": "Feature", "properties": { "内容": "通所介護あじさい【認知症対応型通所介護】福島県いわき市佐糠町東1丁目8-7", "url": "https://www.kaigokensaku.mhlw.go.jp/07/index.php?action_kouhyou_detail_004_kani=true&JigyosyoCd=0790401210-00&ServiceCd=720&Type=search", "url2": "https://ainetto-1.jimdosite.com/" }, "geometry": { "type": "Point", "coordinates": [ 140.806647, 36.9189407 ] } },
{ "type": "Feature", "properties": { "内容": "グループホームひもろぎの園【認知症対応型通所介護】福島県白河市関辺川前８８", "url": "https://www.kaigokensaku.mhlw.go.jp/07/index.php?action_kouhyou_detail_004_kani=true&JigyosyoCd=0770500361-00&ServiceCd=720&Type=search", "url2": "http//sono-himorogi.org" }, "geometry": { "type": "Point", "coordinates": [ 140.250843700000019, 37.0953891 ] } },
{ "type": "Feature", "properties": { "内容": "いこいの里　デイサービス【認知症対応型通所介護】福島県白河市外薄葉１７－４", "url": "https://www.kaigokensaku.mhlw.go.jp/07/index.php?action_kouhyou_detail_004_kani=true&JigyosyoCd=0790500029-00&ServiceCd=720&Type=search", "url2": null }, "geometry": { "type": "Point", "coordinates": [ 140.221427400000039, 37.1425659 ] } },
{ "type": "Feature", "properties": { "内容": "グループホームすずらんあかり【認知症対応型通所介護】福島県須賀川市森宿字横見根66-7", "url": "https://www.kaigokensaku.mhlw.go.jp/07/index.php?action_kouhyou_detail_004_kani=true&JigyosyoCd=0790700090-00&ServiceCd=720&Type=search", "url2": "http:houshinkai.jp/" }, "geometry": { "type": "Point", "coordinates": [ 140.3737118, 37.3166497 ] } },
{ "type": "Feature", "properties": { "内容": "グループホームすずらん日向【認知症対応型通所介護】福島県須賀川市日向町１７番地", "url": "https://www.kaigokensaku.mhlw.go.jp/07/index.php?action_kouhyou_detail_004_kani=true&JigyosyoCd=0770700581-00&ServiceCd=720&Type=search", "url2": "http://houshinkai.jp" }, "geometry": { "type": "Point", "coordinates": [ 140.3561272, 37.2944247 ] } },
{ "type": "Feature", "properties": { "内容": "グループホームすずらん紡【認知症対応型通所介護】福島県須賀川市小作田荒町台17", "url": "https://www.kaigokensaku.mhlw.go.jp/07/index.php?action_kouhyou_detail_004_kani=true&JigyosyoCd=0790700033-00&ServiceCd=720&Type=search", "url2": "http://houshinkai.jp" }, "geometry": { "type": "Point", "coordinates": [ 140.4099658, 37.2701839 ] } },
{ "type": "Feature", "properties": { "内容": "丸光産業株式会社　丸光ケアサービス　須賀川支店【認知症対応型通所介護】福島県須賀川市古屋敷１３５番地１", "url": "https://www.kaigokensaku.mhlw.go.jp/07/index.php?action_kouhyou_detail_004_kani=true&JigyosyoCd=0770700458-00&ServiceCd=720&Type=search", "url2": "http://marumitsu-care.jp/" }, "geometry": { "type": "Point", "coordinates": [ 140.37876510000001, 37.2966291 ] } },
{ "type": "Feature", "properties": { "内容": "つくしデイサービス歩【認知症対応型通所介護】福島県須賀川市東作17番地3", "url": "https://www.kaigokensaku.mhlw.go.jp/07/index.php?action_kouhyou_detail_004_kani=true&JigyosyoCd=0790700025-00&ServiceCd=720&Type=search", "url2": "http://houshinkai.jp/" }, "geometry": { "type": "Point", "coordinates": [ 140.382335300000022, 37.2773619 ] } },
{ "type": "Feature", "properties": { "内容": "株式会社ヴェルリンク　デイサービスべるはぁと【認知症対応型通所介護】福島県喜多方市字三丁目４８２１－２", "url": "https://www.kaigokensaku.mhlw.go.jp/07/index.php?action_kouhyou_detail_004_kani=true&JigyosyoCd=0790800098-00&ServiceCd=720&Type=search", "url2": "https://vellink.jp/velhart/" }, "geometry": { "type": "Point", "coordinates": [ 139.871250700000019, 37.6517576 ] } },
{ "type": "Feature", "properties": { "内容": "そうま・ほっとサロン【認知症対応型通所介護】福島県相馬市今田字大竹３４", "url": "https://www.kaigokensaku.mhlw.go.jp/07/index.php?action_kouhyou_detail_004_kani=true&JigyosyoCd=0790900021-00&ServiceCd=720&Type=search", "url2": "http://soma-kaigo.com/" }, "geometry": { "type": "Point", "coordinates": [ 140.902916499999947, 37.7811941 ] } },
{ "type": "Feature", "properties": { "内容": "福島県福島市桜木町13-30【認知症対応型通所介護】福島県二本松市油井字石倉75番地1愛の家グループホーム二本松油井", "url": "https://www.kaigokensaku.mhlw.go.jp/07/index.php?action_kouhyou_detail_004_kani=true&JigyosyoCd=0791000110-00&ServiceCd=720&Type=search", "url2": "https://mcs-ainoie.com/serch/fukushima/nihonmatsushi/gh260/" }, "geometry": { "type": "Point", "coordinates": [ 140.4593056, 37.6145042 ] } },
{ "type": "Feature", "properties": { "内容": "デイサービスセンター　オハナハウス【認知症対応型通所介護】福島県二本松市高田1－1", "url": "https://www.kaigokensaku.mhlw.go.jp/07/index.php?action_kouhyou_detail_004_kani=true&JigyosyoCd=0791000045-00&ServiceCd=720&Type=search", "url2": "https://koseikai-star.com/" }, "geometry": { "type": "Point", "coordinates": [ 140.4465722, 37.5844111 ] } },
{ "type": "Feature", "properties": { "内容": "福寿園デイサービスセンター【認知症対応型通所介護】福島県南相馬市原町区高見町2丁目70番地", "url": "https://www.kaigokensaku.mhlw.go.jp/07/index.php?action_kouhyou_detail_004_kani=true&JigyosyoCd=0770600112-00&ServiceCd=720&Type=search", "url2": "http://minamisomafukushikai.or.jp" }, "geometry": { "type": "Point", "coordinates": [ 140.984937299999956, 37.6358122 ] } },
{ "type": "Feature", "properties": { "内容": "指定認知症対応型通所介護事業所「かけだの家」【認知症対応型通所介護】福島県伊達市霊山町掛田字西裏20-1　2F", "url": "https://www.kaigokensaku.mhlw.go.jp/07/index.php?action_kouhyou_detail_004_kani=true&JigyosyoCd=0772001129-00&ServiceCd=720&Type=search", "url2": "http://kakeda.info" }, "geometry": { "type": "Point", "coordinates": [ 140.593364596295146, 37.784084588447762 ] } },
{ "type": "Feature", "properties": { "内容": "指定認知症対応型通所介護事業所　希望の杜【認知症対応型通所介護】福島県伊達市梁川町天神前3-1　1F", "url": "https://www.kaigokensaku.mhlw.go.jp/07/index.php?action_kouhyou_detail_004_kani=true&JigyosyoCd=0791300197-00&ServiceCd=720&Type=search", "url2": "https://kakeikai.or.jp/" }, "geometry": { "type": "Point", "coordinates": [ 140.611732062593319, 37.860489621842845 ] } },
{ "type": "Feature", "properties": { "内容": "指定認知症対応型通所介護事業所「さくらの家」【認知症対応型通所介護】福島県伊達市梁川町桜町117", "url": "https://www.kaigokensaku.mhlw.go.jp/07/index.php?action_kouhyou_detail_004_kani=true&JigyosyoCd=0791300130-00&ServiceCd=720&Type=search", "url2": "https://youi-kai.org" }, "geometry": { "type": "Point", "coordinates": [ 140.6054594552254, 37.849332315516442 ] } },
{ "type": "Feature", "properties": { "内容": "梁川ホームデイサービスセンター【認知症対応型通所介護】福島県伊達市梁川町字東土橋６５番地１", "url": "https://www.kaigokensaku.mhlw.go.jp/07/index.php?action_kouhyou_detail_004_kani=true&JigyosyoCd=0772000543-00&ServiceCd=720&Type=search", "url2": "https://www.shintatsu.jp" }, "geometry": { "type": "Point", "coordinates": [ 140.593143599999962, 37.8466254 ] } },
{ "type": "Feature", "properties": { "内容": "認知症対応型通所介護事業所　ふるさと【認知症対応型通所介護】福島県伊達市保原町大泉字小作逢１５－１", "url": "https://www.kaigokensaku.mhlw.go.jp/07/index.php?action_kouhyou_detail_004_kani=true&JigyosyoCd=0791300031-00&ServiceCd=720&Type=search", "url2": "http://www.azumanh.or.jp" }, "geometry": { "type": "Point", "coordinates": [ 140.568790600000057, 37.8320568 ] } },
{ "type": "Feature", "properties": { "内容": "認知症対応型通所介護　ももの里みらい【認知症対応型通所介護】福島県伊達市沓形18番地1", "url": "https://www.kaigokensaku.mhlw.go.jp/07/index.php?action_kouhyou_detail_004_kani=true&JigyosyoCd=0791300114-00&ServiceCd=720&Type=search", "url2": "http://cosmo-m-s.co.jp/" }, "geometry": { "type": "Point", "coordinates": [ 140.4966131, 37.822817 ] } },
{ "type": "Feature", "properties": { "内容": "通所介護　おてひめ【認知症対応型通所介護】福島県伊達市月舘町御代田字扶桑畑42番地1", "url": "https://www.kaigokensaku.mhlw.go.jp/07/index.php?action_kouhyou_detail_004_kani=true&JigyosyoCd=0791300189-00&ServiceCd=720&Type=search", "url2": "https://morieno.com" }, "geometry": { "type": "Point", "coordinates": [ 140.6084171, 37.7597766 ] } },
{ "type": "Feature", "properties": { "内容": "ぼたん荘デイサービスセンター【認知症対応型通所介護】福島県本宮市本宮字上千束3番地", "url": "https://www.kaigokensaku.mhlw.go.jp/07/index.php?action_kouhyou_detail_004_kani=true&JigyosyoCd=0772100426-00&ServiceCd=720&Type=search", "url2": "http://www.adachifukushi.jp/" }, "geometry": { "type": "Point", "coordinates": [ 140.392382199999929, 37.5181612 ] } },
{ "type": "Feature", "properties": { "内容": "燦燦デイ【認知症対応型通所介護】福島県伊達郡桑折町字上町47-1", "url": "https://www.kaigokensaku.mhlw.go.jp/07/index.php?action_kouhyou_detail_004_kani=true&JigyosyoCd=0792000085-00&ServiceCd=720&Type=search", "url2": "https://www.sankyo-hire.com/" }, "geometry": { "type": "Point", "coordinates": [ 140.518403299999989, 37.8503305 ] } },
{ "type": "Feature", "properties": { "内容": "川俣ホームデイサービスセンター【認知症対応型通所介護】福島県伊達郡川俣町大字鶴沢字川端２－１", "url": "https://www.kaigokensaku.mhlw.go.jp/07/index.php?action_kouhyou_detail_004_kani=true&JigyosyoCd=0772000790-00&ServiceCd=720&Type=search", "url2": "https://www.shintatsu.jp" }, "geometry": { "type": "Point", "coordinates": [ 140.595710899999972, 37.6637164 ] } },
{ "type": "Feature", "properties": { "内容": "田島デイサービスセンター愛宕【認知症対応型通所介護】福島県南会津郡南会津町永田字風下3-1", "url": "https://www.kaigokensaku.mhlw.go.jp/07/index.php?action_kouhyou_detail_004_kani=true&JigyosyoCd=0772300372-00&ServiceCd=720&Type=search", "url2": "http://minamiaidukai.or.jp/" }, "geometry": { "type": "Point", "coordinates": [ 139.759997399999946, 37.2046494 ] } },
{ "type": "Feature", "properties": { "内容": "認知症対応デイサービス　ほしのひろば【認知症対応型通所介護】福島県河沼郡会津坂下町大字羽林字西碇180番地", "url": "https://www.kaigokensaku.mhlw.go.jp/07/index.php?action_kouhyou_detail_004_kani=true&JigyosyoCd=0792600058-00&ServiceCd=720&Type=search", "url2": "https://www.npo-seifukai.com/" }, "geometry": { "type": "Point", "coordinates": [ 139.828005182803281, 37.556124430453195 ] } },
{ "type": "Feature", "properties": { "内容": "星の郷みらい【認知症対応型通所介護】福島県西白河郡西郷村大字米字中山前157番地", "url": "https://www.kaigokensaku.mhlw.go.jp/07/index.php?action_kouhyou_detail_004_kani=true&JigyosyoCd=0792800070-00&ServiceCd=720&Type=search", "url2": "http：//cosmo-m-s.co.jp/home/hosinosato-sm/" }, "geometry": { "type": "Point", "coordinates": [ 140.190610900000024, 37.1355093 ] } },
{ "type": "Feature", "properties": { "内容": "グループホームあゆりの里【認知症対応型通所介護】福島県西白河郡矢吹町井戸尻496番地１", "url": "https://www.kaigokensaku.mhlw.go.jp/07/index.php?action_kouhyou_detail_004_kani=true&JigyosyoCd=0792830028-00&ServiceCd=720&Type=search", "url2": "http：//ayurinosato.jp/about" }, "geometry": { "type": "Point", "coordinates": [ 140.307486700000027, 37.2020798 ] } },
{ "type": "Feature", "properties": { "内容": "寿恵園（認知症対応型通所介護事業所）【認知症対応型通所介護】福島県東白川郡棚倉町大字棚倉字舘ヶ丘７９番地", "url": "https://www.kaigokensaku.mhlw.go.jp/07/index.php?action_kouhyou_detail_004_kani=true&JigyosyoCd=0772900080-00&ServiceCd=720&Type=search", "url2": "http://www.jyukeien.ocm/" }, "geometry": { "type": "Point", "coordinates": [ 140.376423899999963, 37.0222757 ] } },
{ "type": "Feature", "properties": { "内容": "デイサービス　サミィ【認知症対応型通所介護】福島県東白川郡棚倉町関口一本松164-3", "url": "https://www.kaigokensaku.mhlw.go.jp/07/index.php?action_kouhyou_detail_004_kani=true&JigyosyoCd=0792900052-00&ServiceCd=720&Type=search", "url2": "https://kujikai.or.jp" }, "geometry": { "type": "Point", "coordinates": [ 140.389042, 37.0350656 ] } },
{ "type": "Feature", "properties": { "内容": "ユーアイホーム　おひさまデイサービスセンター【認知症対応型通所介護】福島県東白川郡矢祭町大字東舘字蔵屋敷122", "url": "https://www.kaigokensaku.mhlw.go.jp/07/index.php?action_kouhyou_detail_004_kani=true&JigyosyoCd=0792910028-00&ServiceCd=720&Type=search", "url2": "http://www.yu-ai.org" }, "geometry": { "type": "Point", "coordinates": [ 140.418126199999961, 36.8696805 ] } },
{ "type": "Feature", "properties": { "内容": "認知症対応型通所介護　結生【認知症対応型通所介護】福島県東白川郡塙町大字塙字大町4丁目27番地", "url": "https://www.kaigokensaku.mhlw.go.jp/07/index.php?action_kouhyou_detail_004_kani=true&JigyosyoCd=0792920035-00&ServiceCd=720&Type=search", "url2": null }, "geometry": { "type": "Point", "coordinates": [ 140.409470199999987, 36.9564123 ] } },
{ "type": "Feature", "properties": { "内容": "デイサービスセンター藤井ハイムはなわ【認知症対応型通所介護】福島県東白川郡塙町大字伊香字中妻241番地１", "url": "https://www.kaigokensaku.mhlw.go.jp/07/index.php?action_kouhyou_detail_004_kani=true&JigyosyoCd=0792920019-00&ServiceCd=720&Type=search", "url2": "https://fujii-heim.jp/hanawa2/h2_index.html" }, "geometry": { "type": "Point", "coordinates": [ 140.4012272, 36.9401307 ] } },
{ "type": "Feature", "properties": { "内容": "デイサービスすみれ【認知症対応型通所介護】福島県石川郡浅川町大字浅川字根宿３０番地１", "url": "https://www.kaigokensaku.mhlw.go.jp/07/index.php?action_kouhyou_detail_004_kani=true&JigyosyoCd=0793000050-00&ServiceCd=720&Type=search", "url2": "https://www.cococara.info/" }, "geometry": { "type": "Point", "coordinates": [ 140.4208037, 37.0837144 ] } },
{ "type": "Feature", "properties": { "内容": "グループホーム楓【認知症対応型通所介護】福島県田村郡三春町大字貝山字沼倉177", "url": "https://www.kaigokensaku.mhlw.go.jp/07/index.php?action_kouhyou_detail_004_kani=true&JigyosyoCd=0793100074-00&ServiceCd=720&Type=search", "url2": "http://eco-kaigo.co.jp" }, "geometry": { "type": "Point", "coordinates": [ 140.479627, 37.4321437 ] } },
{ "type": "Feature", "properties": { "内容": "社会福祉法人小野町社会福祉協議会　小野町デイサービスセンター【認知症対応型通所介護】福島県田村郡小野町大字小野新町字美売57番地1", "url": "https://www.kaigokensaku.mhlw.go.jp/07/index.php?action_kouhyou_detail_004_kani=true&JigyosyoCd=0773100565-00&ServiceCd=720&Type=search", "url2": "http://www.onomachi-shakyo.or.jp/" }, "geometry": { "type": "Point", "coordinates": [ 140.618991700000038, 37.2928107 ] } },
{ "type": "Feature", "properties": { "内容": "高原の家【認知症対応型通所介護】福島県双葉郡川内村大字下川内字田ノ入18-3", "url": "https://www.kaigokensaku.mhlw.go.jp/07/index.php?action_kouhyou_detail_004_kani=true&JigyosyoCd=0793230020-00&ServiceCd=720&Type=search", "url2": null }, "geometry": { "type": "Point", "coordinates": [ 140.84257070000001, 37.3340463 ] } },
{ "type": "Feature", "properties": { "内容": "グループホーム　せんだんの家【認知症対応型通所介護】福島県双葉郡双葉町大字長塚字矢沢町25-1（現在：福島県いわき市錦町江栗馬場9-1）", "url": "https://www.kaigokensaku.mhlw.go.jp/07/index.php?action_kouhyou_detail_004_kani=true&JigyosyoCd=0773200613-00&ServiceCd=720&Type=search", "url2": "https://futaba-fukushikai.or.jp/" }, "geometry": { "type": "Point", "coordinates": [ 141.0045024, 37.4577658 ] } },
{ "type": "Feature", "properties": { "内容": "グループホーム虹の家【認知症対応型通所介護】福島県双葉郡浪江町大字立野字根渡183番地（本宮市荒井字山神14-1）", "url": "https://www.kaigokensaku.mhlw.go.jp/07/index.php?action_kouhyou_detail_004_kani=true&JigyosyoCd=0773200563-00&ServiceCd=720&Type=search", "url2": "https://nijinoie2004.com" }, "geometry": { "type": "Point", "coordinates": [ 140.389713, 37.495989 ] } }
]
}
