{
"type": "FeatureCollection",
"name": "geo_07_介護老人福祉施設",
"crs": { "type": "name", "properties": { "name": "urn:ogc:def:crs:OGC:1.3:CRS84" } },
"features": [
{ "type": "Feature", "properties": { "内容": "特別養護老人ホーム　あお鳩の杜　福島北矢野目【介護老人福祉施設】福島県福島市北矢野目字西田7-1", "url": "https://www.kaigokensaku.mhlw.go.jp/07/index.php?action_kouhyou_detail_004_kani=true&JigyosyoCd=0770106193-00&ServiceCd=510&Type=search", "url2": "https://poppo-kai.or.jp" }, "geometry": { "type": "Point", "coordinates": [ 140.466411599999986, 37.7922589 ] } },
{ "type": "Feature", "properties": { "内容": "特別養護老人ホーム飯野ふるさと村【介護老人福祉施設】福島県福島市飯野町大久保字古枝41番1", "url": "https://www.kaigokensaku.mhlw.go.jp/07/index.php?action_kouhyou_detail_004_kani=true&JigyosyoCd=0770105039-00&ServiceCd=510&Type=search", "url2": null }, "geometry": { "type": "Point", "coordinates": [ 140.536821499999974, 37.6714667 ] } },
{ "type": "Feature", "properties": { "内容": "福島県飯坂ホーム【介護老人福祉施設】福島県福島市飯坂町字上原２６－１", "url": "https://www.kaigokensaku.mhlw.go.jp/07/index.php?action_kouhyou_detail_004_kani=true&JigyosyoCd=0770101046-00&ServiceCd=510&Type=search", "url2": "http://www.fukushima-sj.jp/iizaka_home/index.html" }, "geometry": { "type": "Point", "coordinates": [ 140.444808300545475, 37.837690567974718 ] } },
{ "type": "Feature", "properties": { "内容": "特別養護老人ホーム　ロング・ライフ【介護老人福祉施設】福島県福島市松川町字産子内１番地の１", "url": "https://www.kaigokensaku.mhlw.go.jp/07/index.php?action_kouhyou_detail_004_kani=true&JigyosyoCd=0770101087-00&ServiceCd=510&Type=search", "url2": "http://www.life-time-fukushima.jp/" }, "geometry": { "type": "Point", "coordinates": [ 140.478043399999933, 37.667299700000015 ] } },
{ "type": "Feature", "properties": { "内容": "特別養護老人ホーム　みず和の郷【介護老人福祉施設】福島県福島市松川町水原字神明山25－2", "url": "https://www.kaigokensaku.mhlw.go.jp/07/index.php?action_kouhyou_detail_004_kani=true&JigyosyoCd=0770102697-00&ServiceCd=510&Type=search", "url2": "http://www.ai-ai.or.jp/mizuwa/" }, "geometry": { "type": "Point", "coordinates": [ 140.4355746, 37.6620379 ] } },
{ "type": "Feature", "properties": { "内容": "特別養護老人ホーム　愛日荘園【介護老人福祉施設】福島県福島市大波字熊野山１番地", "url": "https://www.kaigokensaku.mhlw.go.jp/07/index.php?action_kouhyou_detail_004_kani=true&JigyosyoCd=0770101061-00&ServiceCd=510&Type=search", "url2": "http://www.ainichisouen.net/" }, "geometry": { "type": "Point", "coordinates": [ 140.531494932310665, 37.752095477981833 ] } },
{ "type": "Feature", "properties": { "内容": "特別養護老人ホーム「聖・輝きの郷」【介護老人福祉施設】福島県福島市山口字七口13-1", "url": "https://www.kaigokensaku.mhlw.go.jp/07/index.php?action_kouhyou_detail_004_kani=true&JigyosyoCd=0770101103-00&ServiceCd=510&Type=search", "url2": "http://www.sosei.org" }, "geometry": { "type": "Point", "coordinates": [ 140.512499599999956, 37.7648788 ] } },
{ "type": "Feature", "properties": { "内容": "特別養護老人ホーム「聖・星の郷」【介護老人福祉施設】福島県福島市字四至田15-1", "url": "https://www.kaigokensaku.mhlw.go.jp/07/index.php?action_kouhyou_detail_004_kani=true&JigyosyoCd=0770106078-00&ServiceCd=510&Type=search", "url2": "http://sosei.org" }, "geometry": { "type": "Point", "coordinates": [ 140.513664406745932, 37.764824500055802 ] } },
{ "type": "Feature", "properties": { "内容": "特別養護老人ホーム　陽光園【介護老人福祉施設】福島県福島市南沢又字水門下160-3", "url": "https://www.kaigokensaku.mhlw.go.jp/07/index.php?action_kouhyou_detail_004_kani=true&JigyosyoCd=0770101053-00&ServiceCd=510&Type=search", "url2": "http://youkoukai.jp/" }, "geometry": { "type": "Point", "coordinates": [ 140.411483874868765, 37.78262853460928 ] } },
{ "type": "Feature", "properties": { "内容": "まちなか宝生園【介護老人福祉施設】福島県福島市本町4番23号", "url": "https://www.kaigokensaku.mhlw.go.jp/07/index.php?action_kouhyou_detail_004_kani=true&JigyosyoCd=0770102747-00&ServiceCd=510&Type=search", "url2": "https://www.tahokai.jp" }, "geometry": { "type": "Point", "coordinates": [ 140.465096, 37.7523705 ] } },
{ "type": "Feature", "properties": { "内容": "特別養護老人ホームさわやかアイリス【介護老人福祉施設】福島県福島市在庭坂字志津山６番地の１", "url": "https://www.kaigokensaku.mhlw.go.jp/07/index.php?action_kouhyou_detail_004_kani=true&JigyosyoCd=0770101079-00&ServiceCd=510&Type=search", "url2": "https://sawayaka-iris.jp/" }, "geometry": { "type": "Point", "coordinates": [ 140.366511299999956, 37.75974 ] } },
{ "type": "Feature", "properties": { "内容": "特別養護老人ホーム　アリヴァーレ宝生園【介護老人福祉施設】福島県福島市上名倉玉ノ木１９－４", "url": "https://www.kaigokensaku.mhlw.go.jp/07/index.php?action_kouhyou_detail_004_kani=true&JigyosyoCd=0770101608-00&ServiceCd=510&Type=search", "url2": "http://www.tahokai.jp" }, "geometry": { "type": "Point", "coordinates": [ 140.372320899999977, 37.7248411 ] } },
{ "type": "Feature", "properties": { "内容": "特別養護老人ホームあづまの郷【介護老人福祉施設】福島県福島市上鳥渡字北河原2番地の1", "url": "https://www.kaigokensaku.mhlw.go.jp/07/index.php?action_kouhyou_detail_004_kani=true&JigyosyoCd=0770105245-00&ServiceCd=510&Type=search", "url2": "http://sakura-fukushikai.hp.peraichi.com" }, "geometry": { "type": "Point", "coordinates": [ 140.410791499999959, 37.7326214 ] } },
{ "type": "Feature", "properties": { "内容": "特別養護老人ホーム　なごみの郷【介護老人福祉施設】福島県福島市太平寺字町ノ内３０", "url": "https://www.kaigokensaku.mhlw.go.jp/07/index.php?action_kouhyou_detail_004_kani=true&JigyosyoCd=0770103687-00&ServiceCd=510&Type=search", "url2": "http://www.nagomi-w.or.jp" }, "geometry": { "type": "Point", "coordinates": [ 140.457994500000041, 37.7322811 ] } },
{ "type": "Feature", "properties": { "内容": "特別養護老人ホーム　信夫の里【介護老人福祉施設】福島県福島市仁井田字下川原17番地", "url": "https://www.kaigokensaku.mhlw.go.jp/07/index.php?action_kouhyou_detail_004_kani=true&JigyosyoCd=0770102861-00&ServiceCd=510&Type=search", "url2": "http://sinobunosato-welfare.jp/" }, "geometry": { "type": "Point", "coordinates": [ 140.438073499999973, 37.7533837 ] } },
{ "type": "Feature", "properties": { "内容": "特別養護老人ホーム　生愛ガーデン【介護老人福祉施設】福島県福島市大笹生字向平12番地", "url": "https://www.kaigokensaku.mhlw.go.jp/07/index.php?action_kouhyou_detail_004_kani=true&JigyosyoCd=0770101640-00&ServiceCd=510&Type=search", "url2": "http://www.seiaikai.jp" }, "geometry": { "type": "Point", "coordinates": [ 140.3923317, 37.7966947 ] } },
{ "type": "Feature", "properties": { "内容": "ハッピー愛ランド【介護老人福祉施設】福島県福島市南矢野目字才ノ後6－2", "url": "https://www.kaigokensaku.mhlw.go.jp/07/index.php?action_kouhyou_detail_004_kani=true&JigyosyoCd=0770100469-00&ServiceCd=510&Type=search", "url2": "http://www.happyisland.org" }, "geometry": { "type": "Point", "coordinates": [ 140.472330199999988, 37.788631 ] } },
{ "type": "Feature", "properties": { "内容": "すこやかの里特別養護老人ホーム【介護老人福祉施設】福島県福島市沖高字中島１４番地の１", "url": "https://www.kaigokensaku.mhlw.go.jp/07/index.php?action_kouhyou_detail_004_kani=true&JigyosyoCd=0770101756-00&ServiceCd=510&Type=search", "url2": "http:www.sukoyakanosato.jp/" }, "geometry": { "type": "Point", "coordinates": [ 140.471263198147653, 37.800467819676577 ] } },
{ "type": "Feature", "properties": { "内容": "特別養護老人ホーム　はなしのぶ【介護老人福祉施設】福島県福島市平石字堰ノ上３番地", "url": "https://www.kaigokensaku.mhlw.go.jp/07/index.php?action_kouhyou_detail_004_kani=true&JigyosyoCd=0770102069-00&ServiceCd=510&Type=search", "url2": "https://watari-fukushikai.jp/" }, "geometry": { "type": "Point", "coordinates": [ 140.446754899999974, 37.7140081 ] } },
{ "type": "Feature", "properties": { "内容": "特別養護老人ホーム　ひまわり苑【介護老人福祉施設】福島県福島市田沢字入２０番地", "url": "https://www.kaigokensaku.mhlw.go.jp/07/index.php?action_kouhyou_detail_004_kani=true&JigyosyoCd=0770101111-00&ServiceCd=510&Type=search", "url2": "http://www.seijukai.org/" }, "geometry": { "type": "Point", "coordinates": [ 140.491273800000045, 37.7014405 ] } },
{ "type": "Feature", "properties": { "内容": "特別養護老人ホーム　ハッピー愛ランドおおもり【介護老人福祉施設】福島県福島市大森字下原田45番1", "url": "https://www.kaigokensaku.mhlw.go.jp/07/index.php?action_kouhyou_detail_004_kani=true&JigyosyoCd=0770104917-00&ServiceCd=510&Type=search", "url2": "http://ｗｗｗ.happyisland.org" }, "geometry": { "type": "Point", "coordinates": [ 140.444540365081821, 37.72548860896751 ] } },
{ "type": "Feature", "properties": { "内容": "特別養護老人ホーム　いずみの郷【介護老人福祉施設】福島県福島市泉字弐斗蒔17-1特別養護老人ホームいずみの郷", "url": "https://www.kaigokensaku.mhlw.go.jp/07/index.php?action_kouhyou_detail_004_kani=true&JigyosyoCd=0770105609-00&ServiceCd=510&Type=search", "url2": "http://www.nagomi-w.or.jp" }, "geometry": { "type": "Point", "coordinates": [ 140.451830299999983, 37.774681 ] } },
{ "type": "Feature", "properties": { "内容": "特別養護老人ホーム会津敬愛苑【介護老人福祉施設】会津若松市北会津町東小松字南古川１番", "url": "https://www.kaigokensaku.mhlw.go.jp/07/index.php?action_kouhyou_detail_004_kani=true&JigyosyoCd=0770201333-00&ServiceCd=510&Type=search", "url2": "https://senoukai.or.jp" }, "geometry": { "type": "Point", "coordinates": [ 139.89197, 37.4725955 ] } },
{ "type": "Feature", "properties": { "内容": "芦ノ牧ホーム【介護老人福祉施設】福島県会津若松市大戸町大字芦牧字壇ノ下845番地", "url": "https://www.kaigokensaku.mhlw.go.jp/07/index.php?action_kouhyou_detail_004_kani=true&JigyosyoCd=0770200426-00&ServiceCd=510&Type=search", "url2": "http://ashinomaki-home.jp/" }, "geometry": { "type": "Point", "coordinates": [ 139.910823, 37.365281 ] } },
{ "type": "Feature", "properties": { "内容": "特別養護老人ホーム　枝雪零苑【介護老人福祉施設】福島県会津若松市一箕町松長字下長原１５２番地", "url": "https://www.kaigokensaku.mhlw.go.jp/07/index.php?action_kouhyou_detail_004_kani=true&JigyosyoCd=0770200350-00&ServiceCd=510&Type=search", "url2": "http://onchifukushikai.com/" }, "geometry": { "type": "Point", "coordinates": [ 139.95337870000003, 37.5237439 ] } },
{ "type": "Feature", "properties": { "内容": "特別養護老人ホーム絆【介護老人福祉施設】福島県会津若松市湊町大字共和字西田面180", "url": "https://www.kaigokensaku.mhlw.go.jp/07/index.php?action_kouhyou_detail_004_kani=true&JigyosyoCd=0770200830-00&ServiceCd=510&Type=search", "url2": "http://kizuna.aizu.or.jp/" }, "geometry": { "type": "Point", "coordinates": [ 140.0094014, 37.4682617 ] } },
{ "type": "Feature", "properties": { "内容": "特別養護老人ホーム　天生【介護老人福祉施設】福島県会津若松市一箕町松長６丁目１２番地の１", "url": "https://www.kaigokensaku.mhlw.go.jp/07/index.php?action_kouhyou_detail_004_kani=true&JigyosyoCd=0770202216-00&ServiceCd=510&Type=search", "url2": "https://onchifukushikai.jp" }, "geometry": { "type": "Point", "coordinates": [ 139.95968012831122, 37.524999206584674 ] } },
{ "type": "Feature", "properties": { "内容": "特別養護老人ホーム会津みどりホーム【介護老人福祉施設】福島県会津若松市神指町大字北四合字伊丹堂55番地1", "url": "https://www.kaigokensaku.mhlw.go.jp/07/index.php?action_kouhyou_detail_004_kani=true&JigyosyoCd=0770200202-00&ServiceCd=510&Type=search", "url2": "https://aizu-hakuaikai.jp/" }, "geometry": { "type": "Point", "coordinates": [ 139.885896300000013, 37.524315 ] } },
{ "type": "Feature", "properties": { "内容": "特別養護老人ホーム　気生苑【介護老人福祉施設】福島県会津若松市昭和町1番36号", "url": "https://www.kaigokensaku.mhlw.go.jp/07/index.php?action_kouhyou_detail_004_kani=true&JigyosyoCd=0770201952-00&ServiceCd=510&Type=search", "url2": "http://kishoen.com" }, "geometry": { "type": "Point", "coordinates": [ 139.933546950787331, 37.504003237532359 ] } },
{ "type": "Feature", "properties": { "内容": "特別養護老人ホーム　イル・ヴィラージュ【介護老人福祉施設】福島県郡山市島1丁目19-1", "url": "https://www.kaigokensaku.mhlw.go.jp/07/index.php?action_kouhyou_detail_004_kani=true&JigyosyoCd=0770305480-00&ServiceCd=510&Type=search", "url2": "http://www.ile-village.jp/" }, "geometry": { "type": "Point", "coordinates": [ 140.3462184, 37.3992815 ] } },
{ "type": "Feature", "properties": { "内容": "特別養護老人ホーム小春日和【介護老人福祉施設】福島県郡山市安積町荒井字柴宮山55番5", "url": "https://www.kaigokensaku.mhlw.go.jp/07/index.php?action_kouhyou_detail_004_kani=true&JigyosyoCd=0770305936-00&ServiceCd=510&Type=search", "url2": "URLhttp://mutsukifukushikai.com/" }, "geometry": { "type": "Point", "coordinates": [ 140.340506738098156, 37.37573243877145 ] } },
{ "type": "Feature", "properties": { "内容": "特別養護老人ホームさくら【介護老人福祉施設】福島県郡山市田村町岩作字梅木平１２番地", "url": "https://www.kaigokensaku.mhlw.go.jp/07/index.php?action_kouhyou_detail_004_kani=true&JigyosyoCd=0770303345-00&ServiceCd=510&Type=search", "url2": "http://fukushikai.sakura.ne.jp/" }, "geometry": { "type": "Point", "coordinates": [ 140.41070220000006, 37.3197609 ] } },
{ "type": "Feature", "properties": { "内容": "特別養護老人ホーム　ハーモニーみどりヶ丘【介護老人福祉施設】福島県郡山市緑ヶ丘東六丁目２６番地２", "url": "https://www.kaigokensaku.mhlw.go.jp/07/index.php?action_kouhyou_detail_004_kani=true&JigyosyoCd=0770302792-00&ServiceCd=510&Type=search", "url2": "http://sin-ai.com/" }, "geometry": { "type": "Point", "coordinates": [ 140.439352800000052, 37.3853049 ] } },
{ "type": "Feature", "properties": { "内容": "特別養護老人ホーム　光の森の丘【介護老人福祉施設】福島県郡山市安原町字谷津１７１－１", "url": "https://www.kaigokensaku.mhlw.go.jp/07/index.php?action_kouhyou_detail_004_kani=true&JigyosyoCd=0770302453-00&ServiceCd=510&Type=search", "url2": "https://hikarino-mori.jp" }, "geometry": { "type": "Point", "coordinates": [ 140.416240099999982, 37.3960671 ] } },
{ "type": "Feature", "properties": { "内容": "特別養護老人ホーム玉川ホーム【介護老人福祉施設】福島県郡山市熱海町玉川字阿曽沢11番地1", "url": "https://www.kaigokensaku.mhlw.go.jp/07/index.php?action_kouhyou_detail_004_kani=true&JigyosyoCd=0770300432-00&ServiceCd=510&Type=search", "url2": "http://www.ohta-fukushi.or.jp" }, "geometry": { "type": "Point", "coordinates": [ 140.286326700000018, 37.482779 ] } },
{ "type": "Feature", "properties": { "内容": "特別養護老人ホームあたみホーム【介護老人福祉施設】福島県郡山市熱海町玉川字阿曽沢1番地30", "url": "https://www.kaigokensaku.mhlw.go.jp/07/index.php?action_kouhyou_detail_004_kani=true&JigyosyoCd=0770300457-00&ServiceCd=510&Type=search", "url2": "http://www.ohta-fukushi.or.jp" }, "geometry": { "type": "Point", "coordinates": [ 140.285437900000034, 37.48349 ] } },
{ "type": "Feature", "properties": { "内容": "特別養護老人ホームみほた【介護老人福祉施設】福島県郡山市三穂田町鍋山字前原250番地の2", "url": "https://www.kaigokensaku.mhlw.go.jp/07/index.php?action_kouhyou_detail_004_kani=true&JigyosyoCd=0770302172-00&ServiceCd=510&Type=search", "url2": "https://tarukawa-f.jp" }, "geometry": { "type": "Point", "coordinates": [ 140.281026041664092, 37.338740338566687 ] } },
{ "type": "Feature", "properties": { "内容": "特別養護老人ホームカーサ・ミッレ【介護老人福祉施設】福島県郡山市安積町笹川字西宿77", "url": "https://www.kaigokensaku.mhlw.go.jp/07/index.php?action_kouhyou_detail_004_kani=true&JigyosyoCd=0770300721-00&ServiceCd=510&Type=search", "url2": "http://asaka.or.jp/mille/" }, "geometry": { "type": "Point", "coordinates": [ 140.363632523139898, 37.349712816251085 ] } },
{ "type": "Feature", "properties": { "内容": "特別養護老人ホーム　おおつき【介護老人福祉施設】福島県郡山市大槻町字西勝ノ木5番地の１", "url": "https://www.kaigokensaku.mhlw.go.jp/07/index.php?action_kouhyou_detail_004_kani=true&JigyosyoCd=0770300747-00&ServiceCd=510&Type=search", "url2": "http://kuwano-fukushikai.jp" }, "geometry": { "type": "Point", "coordinates": [ 140.306289399999969, 37.3934809 ] } },
{ "type": "Feature", "properties": { "内容": "特別養護老人ホーム　笑風苑【介護老人福祉施設】福島県郡山市喜久田町前田沢字小室山５－４５", "url": "https://www.kaigokensaku.mhlw.go.jp/07/index.php?action_kouhyou_detail_004_kani=true&JigyosyoCd=0770303063-00&ServiceCd=510&Type=search", "url2": "http://syoufuukai.or.jp/" }, "geometry": { "type": "Point", "coordinates": [ 140.342324500000018, 37.4754455 ] } },
{ "type": "Feature", "properties": { "内容": "特別養護老人ホーム　下亀田紀行【介護老人福祉施設】福島県郡山市字下亀田３番地の１", "url": "https://www.kaigokensaku.mhlw.go.jp/07/index.php?action_kouhyou_detail_004_kani=true&JigyosyoCd=0770303758-00&ServiceCd=510&Type=search", "url2": "http://www.aiai-fukushima.or.jp/" }, "geometry": { "type": "Point", "coordinates": [ 140.349367700000016, 37.4110443 ] } },
{ "type": "Feature", "properties": { "内容": "特別養護老人ホームうねめの里【介護老人福祉施設】福島県郡山市片平町字妙見舘１番地２", "url": "https://www.kaigokensaku.mhlw.go.jp/07/index.php?action_kouhyou_detail_004_kani=true&JigyosyoCd=0770301679-00&ServiceCd=510&Type=search", "url2": "http://www.koriyama-fukushikai.jp/" }, "geometry": { "type": "Point", "coordinates": [ 140.317506, 37.4345773 ] } },
{ "type": "Feature", "properties": { "内容": "特別養護老人ホーム　スプリングガーデンあさか【介護老人福祉施設】福島県郡山市安積町笹川字目光池西１０－１", "url": "https://www.kaigokensaku.mhlw.go.jp/07/index.php?action_kouhyou_detail_004_kani=true&JigyosyoCd=0770301059-00&ServiceCd=510&Type=search", "url2": "http://www.jusendo.or.jp" }, "geometry": { "type": "Point", "coordinates": [ 140.361721799999941, 37.3498872 ] } },
{ "type": "Feature", "properties": { "内容": "社会福祉法人愛星福祉会特別養護老人ホーム星ヶ丘ホーム【介護老人福祉施設】福島県郡山市片平町字妙見舘１－１", "url": "https://www.kaigokensaku.mhlw.go.jp/07/index.php?action_kouhyou_detail_004_kani=true&JigyosyoCd=0770300648-00&ServiceCd=510&Type=search", "url2": "http://www.isei.or.jp" }, "geometry": { "type": "Point", "coordinates": [ 140.318458599999985, 37.4355939 ] } },
{ "type": "Feature", "properties": { "内容": "特別養護老人ホーム　南東北グランプラス八山田【介護老人福祉施設】福島県郡山市富久山町八山田字土布池55-1", "url": "https://www.kaigokensaku.mhlw.go.jp/07/index.php?action_kouhyou_detail_004_kani=true&JigyosyoCd=0770304749-00&ServiceCd=510&Type=search", "url2": "http://www.fukushi-yatsuyamada.com/" }, "geometry": { "type": "Point", "coordinates": [ 140.384428198672481, 37.425938014801005 ] } },
{ "type": "Feature", "properties": { "内容": "特別養護老人ホーム　南東北ロイヤルライフ館【介護老人福祉施設】福島県郡山市日和田町梅沢字丹波山3-2", "url": "https://www.kaigokensaku.mhlw.go.jp/07/index.php?action_kouhyou_detail_004_kani=true&JigyosyoCd=0770300739-00&ServiceCd=510&Type=search", "url2": "http://www.kaigo-hiwada.com" }, "geometry": { "type": "Point", "coordinates": [ 140.414329899999984, 37.4575858 ] } },
{ "type": "Feature", "properties": { "内容": "特別養護老人ホーム　楽寿荘【介護老人福祉施設】福島県いわき市四倉町上仁井田字横川67", "url": "https://www.kaigokensaku.mhlw.go.jp/07/index.php?action_kouhyou_detail_004_kani=true&JigyosyoCd=0770400885-00&ServiceCd=510&Type=search", "url2": "http://www.rakujukai.com/" }, "geometry": { "type": "Point", "coordinates": [ 140.979061, 37.0908697 ] } },
{ "type": "Feature", "properties": { "内容": "介護老人福祉施設望洋荘【介護老人福祉施設】福島県いわき市平豊間字合磯３９番地", "url": "https://www.kaigokensaku.mhlw.go.jp/07/index.php?action_kouhyou_detail_004_kani=true&JigyosyoCd=0770402097-00&ServiceCd=510&Type=search", "url2": "http:/rinsaku-fukushikai.com/" }, "geometry": { "type": "Point", "coordinates": [ 140.9616188, 36.9786917 ] } },
{ "type": "Feature", "properties": { "内容": "幸寿苑【介護老人福祉施設】福島県いわき市平上平窪字原田１３番地の１", "url": "https://www.kaigokensaku.mhlw.go.jp/07/index.php?action_kouhyou_detail_004_kani=true&JigyosyoCd=0770400414-00&ServiceCd=510&Type=search", "url2": "http://www.kojuen.com" }, "geometry": { "type": "Point", "coordinates": [ 140.8738727, 37.1005847 ] } },
{ "type": "Feature", "properties": { "内容": "特別養護老人ホームせいざん荘【介護老人福祉施設】福島県いわき市植田町堂ノ作49番地の12", "url": "https://www.kaigokensaku.mhlw.go.jp/07/index.php?action_kouhyou_detail_004_kani=true&JigyosyoCd=0770400901-00&ServiceCd=510&Type=search", "url2": "http://www.iwaki-aiseikai.jp/" }, "geometry": { "type": "Point", "coordinates": [ 140.791641900000059, 36.9305692 ] } },
{ "type": "Feature", "properties": { "内容": "特別養護老人ホームせんだん【介護老人福祉施設】福島県いわき市錦町江栗馬場9番地1", "url": "https://www.kaigokensaku.mhlw.go.jp/07/index.php?action_kouhyou_detail_004_kani=true&JigyosyoCd=0773200621-00&ServiceCd=510&Type=search", "url2": "https://futaba-fukushikai.or.jp" }, "geometry": { "type": "Point", "coordinates": [ 140.7769939, 36.9100678 ] } },
{ "type": "Feature", "properties": { "内容": "特別養護老人ホーム　翠祥園【介護老人福祉施設】福島県いわき市久之浜町末続字深谷３３－１", "url": "https://www.kaigokensaku.mhlw.go.jp/07/index.php?action_kouhyou_detail_004_kani=true&JigyosyoCd=0770400927-00&ServiceCd=510&Type=search", "url2": "http://suisyoen.jp/" }, "geometry": { "type": "Point", "coordinates": [ 140.999514699999963, 37.1667593 ] } },
{ "type": "Feature", "properties": { "内容": "特別養護老人ホームハートフルなこそ【介護老人福祉施設】福島県いわき市勿来町白米長沢8番", "url": "https://www.kaigokensaku.mhlw.go.jp/07/index.php?action_kouhyou_detail_004_kani=true&JigyosyoCd=0770400943-00&ServiceCd=510&Type=search", "url2": "http://www.heartful-nakoso.or.jp/" }, "geometry": { "type": "Point", "coordinates": [ 140.741540031338445, 36.896162746335662 ] } },
{ "type": "Feature", "properties": { "内容": "特別養護老人ホーム　ひまわり荘【介護老人福祉施設】福島県いわき市平上片寄字上ノ内193", "url": "https://www.kaigokensaku.mhlw.go.jp/07/index.php?action_kouhyou_detail_004_kani=true&JigyosyoCd=0770400935-00&ServiceCd=510&Type=search", "url2": "https://fksyouhei.wixsite.com/syouheikou" }, "geometry": { "type": "Point", "coordinates": [ 140.915185299999962, 37.0804717 ] } },
{ "type": "Feature", "properties": { "内容": "特別養護老人ホーム　高砂荘【介護老人福祉施設】福島県いわき市遠野町上遠野字沢繋16番地の17", "url": "https://www.kaigokensaku.mhlw.go.jp/07/index.php?action_kouhyou_detail_004_kani=true&JigyosyoCd=0770400893-00&ServiceCd=510&Type=search", "url2": "http://jin-ai-kai.jp" }, "geometry": { "type": "Point", "coordinates": [ 140.783328200000028, 37.0058156 ] } },
{ "type": "Feature", "properties": { "内容": "特別養護老人ホーム　寿限無【介護老人福祉施設】いわき市泉町本谷字大田23-1", "url": "https://www.kaigokensaku.mhlw.go.jp/07/index.php?action_kouhyou_detail_004_kani=true&JigyosyoCd=0770405892-00&ServiceCd=510&Type=search", "url2": "http://aoikai-iwaki.com" }, "geometry": { "type": "Point", "coordinates": [ 140.872048009098194, 36.967423716327595 ] } },
{ "type": "Feature", "properties": { "内容": "特別養護老人ホーム　パライソごしき【介護老人福祉施設】福島県いわき市鹿島町久保字仲田10の1", "url": "https://www.kaigokensaku.mhlw.go.jp/07/index.php?action_kouhyou_detail_004_kani=true&JigyosyoCd=0770404200-00&ServiceCd=510&Type=search", "url2": "http://www.paraisogoshiki.com/" }, "geometry": { "type": "Point", "coordinates": [ 140.908095199999906, 36.9914587 ] } },
{ "type": "Feature", "properties": { "内容": "特別養護老人ホーム　聖徳荘【介護老人福祉施設】福島県いわき市内郷宮町金坂184番地の3", "url": "https://www.kaigokensaku.mhlw.go.jp/07/index.php?action_kouhyou_detail_004_kani=true&JigyosyoCd=0770401537-00&ServiceCd=510&Type=search", "url2": "http://seitokuso.jp/" }, "geometry": { "type": "Point", "coordinates": [ 140.846247299999959, 37.0439655 ] } },
{ "type": "Feature", "properties": { "内容": "特別養護老人ホーム亀齢荘【介護老人福祉施設】福島県いわき市平山崎字熊ノ宮３０番地", "url": "https://www.kaigokensaku.mhlw.go.jp/07/index.php?action_kouhyou_detail_004_kani=true&JigyosyoCd=0770400919-00&ServiceCd=510&Type=search", "url2": "http://www.kireisou.com" }, "geometry": { "type": "Point", "coordinates": [ 140.940052799999989, 37.056976 ] } },
{ "type": "Feature", "properties": { "内容": "特別養護老人ホーム　かしま荘【介護老人福祉施設】福島県いわき市鹿島町下蔵持字中沢目24", "url": "https://www.kaigokensaku.mhlw.go.jp/07/index.php?action_kouhyou_detail_004_kani=true&JigyosyoCd=0770400877-00&ServiceCd=510&Type=search", "url2": "kashimasou.jp" }, "geometry": { "type": "Point", "coordinates": [ 140.9106137, 36.992466 ] } },
{ "type": "Feature", "properties": { "内容": "特別養護老人ホーム　サニーポート小名浜【介護老人福祉施設】福島県いわき市小名浜字神成塚１３３番地の１", "url": "https://www.kaigokensaku.mhlw.go.jp/07/index.php?action_kouhyou_detail_004_kani=true&JigyosyoCd=0770407534-00&ServiceCd=510&Type=search", "url2": "http://sunny-port.net/" }, "geometry": { "type": "Point", "coordinates": [ 140.884052, 36.9515156 ] } },
{ "type": "Feature", "properties": { "内容": "特別養護老人ホームいわさき荘【介護老人福祉施設】福島県いわき市常磐上湯長谷町上ノ台８８－１", "url": "https://www.kaigokensaku.mhlw.go.jp/07/index.php?action_kouhyou_detail_004_kani=true&JigyosyoCd=0770400869-00&ServiceCd=510&Type=search", "url2": "http://iwasakisou.jp" }, "geometry": { "type": "Point", "coordinates": [ 140.8384886, 37.0035059 ] } },
{ "type": "Feature", "properties": { "内容": "特別養護老人ホーム　オンフール双葉【介護老人福祉施設】福島県いわき市平荒田目字中田40福島県いわき市平荒田目字中田40", "url": "https://www.kaigokensaku.mhlw.go.jp/07/index.php?action_kouhyou_detail_004_kani=true&JigyosyoCd=0773200175-00&ServiceCd=510&Type=search", "url2": "http://honfleur-futaba.or.jp/" }, "geometry": { "type": "Point", "coordinates": [ 140.949427572352533, 37.054261691574872 ] } },
{ "type": "Feature", "properties": { "内容": "特別養護老人ホーム　はなまる共和国【介護老人福祉施設】福島県いわき市平上荒川字林作207番5", "url": "https://www.kaigokensaku.mhlw.go.jp/07/index.php?action_kouhyou_detail_004_kani=true&JigyosyoCd=0770402758-00&ServiceCd=510&Type=search", "url2": "http://a-hanamaru.jp/" }, "geometry": { "type": "Point", "coordinates": [ 140.879049500000065, 37.0242338 ] } },
{ "type": "Feature", "properties": { "内容": "特別養護老人ホームリアンヴェール新白河【介護老人福祉施設】福島県白河市立石１８０番地１", "url": "https://www.kaigokensaku.mhlw.go.jp/07/index.php?action_kouhyou_detail_004_kani=true&JigyosyoCd=0770501484-00&ServiceCd=510&Type=search", "url2": "https://heiseikai.studio.site/" }, "geometry": { "type": "Point", "coordinates": [ 140.1973587, 37.1285254 ] } },
{ "type": "Feature", "properties": { "内容": "特別養護老人ホーム表郷「聖・オリーブの郷」【介護老人福祉施設】福島県白河市表郷堀之内字堀ノ内1-1", "url": "https://www.kaigokensaku.mhlw.go.jp/07/index.php?action_kouhyou_detail_004_kani=true&JigyosyoCd=0770501369-00&ServiceCd=510&Type=search", "url2": "https://sosei.org" }, "geometry": { "type": "Point", "coordinates": [ 140.3195399, 37.0688403 ] } },
{ "type": "Feature", "properties": { "内容": "特別養護老人ホーム　小峰苑【介護老人福祉施設】福島県白河市新夏梨1番地2", "url": "https://www.kaigokensaku.mhlw.go.jp/07/index.php?action_kouhyou_detail_004_kani=true&JigyosyoCd=0770500114-00&ServiceCd=510&Type=search", "url2": "http://care-net.biz/07/komineen/" }, "geometry": { "type": "Point", "coordinates": [ 140.227589699999953, 37.0897947 ] } },
{ "type": "Feature", "properties": { "内容": "特別養護老人ホーム　小峰苑　ユニット型【介護老人福祉施設】福島県白河市新夏梨1-2", "url": "https://www.kaigokensaku.mhlw.go.jp/07/index.php?action_kouhyou_detail_004_kani=true&JigyosyoCd=0770501013-00&ServiceCd=510&Type=search", "url2": "http://care-net.biz/07/komineen/" }, "geometry": { "type": "Point", "coordinates": [ 140.227589699999953, 37.0897947 ] } },
{ "type": "Feature", "properties": { "内容": "特別養護老人ホーム　大信「聖・虹の郷」【介護老人福祉施設】福島県白河市大信増見字八幡山55-3", "url": "https://www.kaigokensaku.mhlw.go.jp/07/index.php?action_kouhyou_detail_004_kani=true&JigyosyoCd=0770500866-00&ServiceCd=510&Type=search", "url2": "https://sosei.org/" }, "geometry": { "type": "Point", "coordinates": [ 140.240903, 37.2033519 ] } },
{ "type": "Feature", "properties": { "内容": "特別養護老人ホーム　大信「聖・虹の郷」【介護老人福祉施設】福島県白河市大信増見字八幡山55-3", "url": "https://www.kaigokensaku.mhlw.go.jp/07/index.php?action_kouhyou_detail_004_kani=true&JigyosyoCd=0772800561-00&ServiceCd=510&Type=search", "url2": "https://sosei.org/" }, "geometry": { "type": "Point", "coordinates": [ 140.240779400000065, 37.2033346 ] } },
{ "type": "Feature", "properties": { "内容": "特別養護老人ホームしらかわの里【介護老人福祉施設】福島県白河市萱根金ヶ入10番1", "url": "https://www.kaigokensaku.mhlw.go.jp/07/index.php?action_kouhyou_detail_004_kani=true&JigyosyoCd=0770500320-00&ServiceCd=510&Type=search", "url2": "http://care-net.biz/07/s-sato" }, "geometry": { "type": "Point", "coordinates": [ 140.242495, 37.1466883 ] } },
{ "type": "Feature", "properties": { "内容": "いわせ長寿苑【介護老人福祉施設】福島県須賀川市矢沢字明池158番地", "url": "https://www.kaigokensaku.mhlw.go.jp/07/index.php?action_kouhyou_detail_004_kani=true&JigyosyoCd=0770700920-00&ServiceCd=510&Type=search", "url2": "http://www.iwase.or.jp" }, "geometry": { "type": "Point", "coordinates": [ 140.2858728, 37.3146444 ] } },
{ "type": "Feature", "properties": { "内容": "特別養護老人ホーム　エルピス森宿【介護老人福祉施設】福島県須賀川市森宿字ウツロ田３８－１", "url": "https://www.kaigokensaku.mhlw.go.jp/07/index.php?action_kouhyou_detail_004_kani=true&JigyosyoCd=0770701506-00&ServiceCd=510&Type=search", "url2": "http://www.tokushinkai.care" }, "geometry": { "type": "Point", "coordinates": [ 140.35932470000003, 37.3092677 ] } },
{ "type": "Feature", "properties": { "内容": "シオンの園【介護老人福祉施設】福島県須賀川市下小山田字月夜田２０６", "url": "https://www.kaigokensaku.mhlw.go.jp/07/index.php?action_kouhyou_detail_004_kani=true&JigyosyoCd=0770700276-00&ServiceCd=510&Type=search", "url2": "www.fukuinkai.net/" }, "geometry": { "type": "Point", "coordinates": [ 140.4379801, 37.2789634 ] } },
{ "type": "Feature", "properties": { "内容": "特別養護老人ホーム　長沼ホーム【介護老人福祉施設】福島県須賀川市志茂字末津久保1-2", "url": "https://www.kaigokensaku.mhlw.go.jp/07/index.php?action_kouhyou_detail_004_kani=true&JigyosyoCd=0772200093-00&ServiceCd=510&Type=search", "url2": "/www.sw.iwasefukushi.jp/" }, "geometry": { "type": "Point", "coordinates": [ 140.247377699999987, 37.2933405 ] } },
{ "type": "Feature", "properties": { "内容": "特別養護老人ホーム　エルピス【介護老人福祉施設】福島県須賀川市和田字沓掛４８番１", "url": "https://www.kaigokensaku.mhlw.go.jp/07/index.php?action_kouhyou_detail_004_kani=true&JigyosyoCd=0770700383-00&ServiceCd=510&Type=search", "url2": "http://www.shahukutokushinkai.jp" }, "geometry": { "type": "Point", "coordinates": [ 140.379399799999987, 37.2673157 ] } },
{ "type": "Feature", "properties": { "内容": "特別養護老人ホーム　エルピスユニット型【介護老人福祉施設】福島県須賀川市和田字沓掛48番1", "url": "https://www.kaigokensaku.mhlw.go.jp/07/index.php?action_kouhyou_detail_004_kani=true&JigyosyoCd=0770701340-00&ServiceCd=510&Type=search", "url2": "tokushinkai.care" }, "geometry": { "type": "Point", "coordinates": [ 140.379399799999987, 37.2673157 ] } },
{ "type": "Feature", "properties": { "内容": "特別養護老人ホーム　ゆう遊館【介護老人福祉施設】福島県須賀川市滑川字関ノ上26番地１", "url": "https://www.kaigokensaku.mhlw.go.jp/07/index.php?action_kouhyou_detail_004_kani=true&JigyosyoCd=0770700987-00&ServiceCd=510&Type=search", "url2": "http://aishin-f.or.jp" }, "geometry": { "type": "Point", "coordinates": [ 140.3651609, 37.3251133 ] } },
{ "type": "Feature", "properties": { "内容": "特別養護老人ホーム愛寿園【介護老人福祉施設】福島県須賀川市吉美根字土橋１２１番地", "url": "https://www.kaigokensaku.mhlw.go.jp/07/index.php?action_kouhyou_detail_004_kani=true&JigyosyoCd=0770700227-00&ServiceCd=510&Type=search", "url2": "https://sanaifukushikai.com" }, "geometry": { "type": "Point", "coordinates": [ 140.343609499999957, 37.3033114 ] } },
{ "type": "Feature", "properties": { "内容": "特別養護老人ホームほほえみ【介護老人福祉施設】福島県喜多方市塩川町字藤の木１１番地１", "url": "https://www.kaigokensaku.mhlw.go.jp/07/index.php?action_kouhyou_detail_004_kani=true&JigyosyoCd=0770801009-00&ServiceCd=510&Type=search", "url2": "https://kosyokai.net/" }, "geometry": { "type": "Point", "coordinates": [ 139.892725400000018, 37.6009292 ] } },
{ "type": "Feature", "properties": { "内容": "特別養護老人ホーム　北原荘【介護老人福祉施設】喜多方市松山町村松字北原3656-11", "url": "https://www.kaigokensaku.mhlw.go.jp/07/index.php?action_kouhyou_detail_004_kani=true&JigyosyoCd=0770800282-00&ServiceCd=510&Type=search", "url2": "http://www.tenshinkai.or.jp" }, "geometry": { "type": "Point", "coordinates": [ 139.86910510000007, 37.6827927 ] } },
{ "type": "Feature", "properties": { "内容": "特別養護老人ホームしょうぶ苑【介護老人福祉施設】福島県喜多方市岩月町大都字菖蒲沢3610番地1", "url": "https://www.kaigokensaku.mhlw.go.jp/07/index.php?action_kouhyou_detail_004_kani=true&JigyosyoCd=0770800241-00&ServiceCd=510&Type=search", "url2": "https://keiwakai.net/" }, "geometry": { "type": "Point", "coordinates": [ 139.892113699999982, 37.6906258 ] } },
{ "type": "Feature", "properties": { "内容": "特別養護老人ホームしょうぶ苑【介護老人福祉施設】福島県喜多方市岩月町大都字菖蒲沢3610番地1", "url": "https://www.kaigokensaku.mhlw.go.jp/07/index.php?action_kouhyou_detail_004_kani=true&JigyosyoCd=0770800993-00&ServiceCd=510&Type=search", "url2": "https://keiwakai.net/" }, "geometry": { "type": "Point", "coordinates": [ 139.892116399999964, 37.6906203 ] } },
{ "type": "Feature", "properties": { "内容": "特別養護老人ホームけいわ苑【介護老人福祉施設】福島県喜多方市塩川町字下前田21番地", "url": "https://www.kaigokensaku.mhlw.go.jp/07/index.php?action_kouhyou_detail_004_kani=true&JigyosyoCd=0770801025-00&ServiceCd=510&Type=search", "url2": "https://keiwakai.net/" }, "geometry": { "type": "Point", "coordinates": [ 139.888378922476249, 37.599157235908358 ] } },
{ "type": "Feature", "properties": { "内容": "特別養護老人ホーム　ハッピーランドやまと【介護老人福祉施設】福島県喜多方市山都町木幡字下村道下丁1537-1特別養護老人ホームハッピーランドやまと", "url": "https://www.kaigokensaku.mhlw.go.jp/07/index.php?action_kouhyou_detail_004_kani=true&JigyosyoCd=0772500377-00&ServiceCd=510&Type=search", "url2": "http://www.tenshinkai.or.jp/yamato.htm" }, "geometry": { "type": "Point", "coordinates": [ 139.775440500000059, 37.6543683 ] } },
{ "type": "Feature", "properties": { "内容": "特別養護老人ホーム相馬ホーム【介護老人福祉施設】福島県相馬市小泉字高池７１８番地", "url": "https://www.kaigokensaku.mhlw.go.jp/07/index.php?action_kouhyou_detail_004_kani=true&JigyosyoCd=0770900108-00&ServiceCd=510&Type=search", "url2": "https://www.soumafukushikai.com/" }, "geometry": { "type": "Point", "coordinates": [ 140.917352599999958, 37.8106087 ] } },
{ "type": "Feature", "properties": { "内容": "特別養護老人ホーム相馬ホーム【介護老人福祉施設】福島県相馬市小泉字高池７１８番地", "url": "https://www.kaigokensaku.mhlw.go.jp/07/index.php?action_kouhyou_detail_004_kani=true&JigyosyoCd=0770900595-00&ServiceCd=510&Type=search", "url2": "https://www.soumafukushikai.com/" }, "geometry": { "type": "Point", "coordinates": [ 140.9174054, 37.8106115 ] } },
{ "type": "Feature", "properties": { "内容": "特別養護老人ホーム羽山荘【介護老人福祉施設】福島県二本松市太田字荻ノ田３５番地１", "url": "https://www.kaigokensaku.mhlw.go.jp/07/index.php?action_kouhyou_detail_004_kani=true&JigyosyoCd=0772100327-00&ServiceCd=510&Type=search", "url2": "https://www.adachifukushi.jp/" }, "geometry": { "type": "Point", "coordinates": [ 140.529452499999934, 37.5896285 ] } },
{ "type": "Feature", "properties": { "内容": "特別養護老人ホーム　みどりの郷【介護老人福祉施設】福島県二本松市木幡字東和代65番１", "url": "https://www.kaigokensaku.mhlw.go.jp/07/index.php?action_kouhyou_detail_004_kani=true&JigyosyoCd=0771000437-00&ServiceCd=510&Type=search", "url2": "koseikai-star.com" }, "geometry": { "type": "Point", "coordinates": [ 140.526748099999963, 37.6289464 ] } },
{ "type": "Feature", "properties": { "内容": "特別養護老人ホーム　うつくしの丘【介護老人福祉施設】福島県二本松市上葉木坂２番地3", "url": "https://www.kaigokensaku.mhlw.go.jp/07/index.php?action_kouhyou_detail_004_kani=true&JigyosyoCd=0771000213-00&ServiceCd=510&Type=search", "url2": "http://www.masu-med.or.jp/" }, "geometry": { "type": "Point", "coordinates": [ 140.373905299999933, 37.6172611 ] } },
{ "type": "Feature", "properties": { "内容": "特別養護老人ホーム安達ヶ原あだたら荘【介護老人福祉施設】福島県二本松市安達ヶ原一丁目２９１番地１", "url": "https://www.kaigokensaku.mhlw.go.jp/07/index.php?action_kouhyou_detail_004_kani=true&JigyosyoCd=0771000106-00&ServiceCd=510&Type=search", "url2": "http://www.adachifukushi.jp/" }, "geometry": { "type": "Point", "coordinates": [ 140.459370900000067, 37.5852918 ] } },
{ "type": "Feature", "properties": { "内容": "特別養護老人ホーム　二本松いわしろ紀行【介護老人福祉施設】福島県二本松市西勝田字杉内10番地特別養護老人ホーム　二本松いわしろ紀行", "url": "https://www.kaigokensaku.mhlw.go.jp/07/index.php?action_kouhyou_detail_004_kani=true&JigyosyoCd=0771000569-00&ServiceCd=510&Type=search", "url2": "https://aiai-fukushima.or.jp" }, "geometry": { "type": "Point", "coordinates": [ 140.501089800000045, 37.5598036 ] } },
{ "type": "Feature", "properties": { "内容": "特別養護老人ホーム　ときわ荘【介護老人福祉施設】福島県田村市常葉町常葉字長縄5番地1", "url": "https://www.kaigokensaku.mhlw.go.jp/07/index.php?action_kouhyou_detail_004_kani=true&JigyosyoCd=0771100237-00&ServiceCd=510&Type=search", "url2": null }, "geometry": { "type": "Point", "coordinates": [ 140.645019100000013, 37.4359983 ] } },
{ "type": "Feature", "properties": { "内容": "特別養護老人ホームさくらの里【介護老人福祉施設】福島県田村市滝根町菅谷字大子堂153-25", "url": "https://www.kaigokensaku.mhlw.go.jp/07/index.php?action_kouhyou_detail_004_kani=true&JigyosyoCd=0771100385-00&ServiceCd=510&Type=search", "url2": "https://www.keiseifukushikai.net/" }, "geometry": { "type": "Point", "coordinates": [ 140.647950300524883, 37.35373571050485 ] } },
{ "type": "Feature", "properties": { "内容": "特別養護老人ホーム　ハッピー愛ランドたむら【介護老人福祉施設】福島県田村市船引町椚山字池ノ辺1-1", "url": "https://www.kaigokensaku.mhlw.go.jp/07/index.php?action_kouhyou_detail_004_kani=true&JigyosyoCd=0771100401-00&ServiceCd=510&Type=search", "url2": "https://www.happyisland.org" }, "geometry": { "type": "Point", "coordinates": [ 140.5889553, 37.4091954 ] } },
{ "type": "Feature", "properties": { "内容": "特別養護老人ホーム都路まどか荘【介護老人福祉施設】福島県田村市都路町古道字寺下60番地都路まどか荘", "url": "https://www.kaigokensaku.mhlw.go.jp/07/index.php?action_kouhyou_detail_004_kani=true&JigyosyoCd=0773100144-00&ServiceCd=510&Type=search", "url2": "https://tamurafukushikai.com" }, "geometry": { "type": "Point", "coordinates": [ 140.791416300000037, 37.434145 ] } },
{ "type": "Feature", "properties": { "内容": "特別養護老人ホーム船引こぶし荘【介護老人福祉施設】福島県田村市船引町船引字源次郎131", "url": "https://www.kaigokensaku.mhlw.go.jp/07/index.php?action_kouhyou_detail_004_kani=true&JigyosyoCd=0773100284-00&ServiceCd=510&Type=search", "url2": null }, "geometry": { "type": "Point", "coordinates": [ 140.581932100000017, 37.4531484 ] } },
{ "type": "Feature", "properties": { "内容": "特別養護老人ホーム花音【介護老人福祉施設】福島県田村市船引町船引字下大平105番地1", "url": "https://www.kaigokensaku.mhlw.go.jp/07/index.php?action_kouhyou_detail_004_kani=true&JigyosyoCd=0771100302-00&ServiceCd=510&Type=search", "url2": "https://sumire-fukushikai.or.jp/" }, "geometry": { "type": "Point", "coordinates": [ 140.570750648687721, 37.446347695325677 ] } },
{ "type": "Feature", "properties": { "内容": "特別養護老人ホーム梅の香【介護老人福祉施設】福島県南相馬市小高区小高字金谷前81番地", "url": "https://www.kaigokensaku.mhlw.go.jp/07/index.php?action_kouhyou_detail_004_kani=true&JigyosyoCd=0771200607-00&ServiceCd=510&Type=search", "url2": "http://minamisomafukushikai.or.jp/" }, "geometry": { "type": "Point", "coordinates": [ 140.994661599999972, 37.56851 ] } },
{ "type": "Feature", "properties": { "内容": "特別養護老人ホーム　竹水園【介護老人福祉施設】福島県南相馬市原町区長野字南原４１番", "url": "https://www.kaigokensaku.mhlw.go.jp/07/index.php?action_kouhyou_detail_004_kani=true&JigyosyoCd=0771200227-00&ServiceCd=510&Type=search", "url2": "https://tokurou-tikusui.wixsite.com/tikusui" }, "geometry": { "type": "Point", "coordinates": [ 140.942582300000026, 37.6516871 ] } },
{ "type": "Feature", "properties": { "内容": "特別養護老人ホーム長寿荘【介護老人福祉施設】福島県南相馬市原町区小川町４０９番地", "url": "https://www.kaigokensaku.mhlw.go.jp/07/index.php?action_kouhyou_detail_004_kani=true&JigyosyoCd=0770600153-00&ServiceCd=510&Type=search", "url2": "http://tyoujusou.jp/" }, "geometry": { "type": "Point", "coordinates": [ 140.960275200000069, 37.6486325 ] } },
{ "type": "Feature", "properties": { "内容": "特別養護老人ホーム福寿園【介護老人福祉施設】福島県南相馬市原町区高見町２－７０", "url": "https://www.kaigokensaku.mhlw.go.jp/07/index.php?action_kouhyou_detail_004_kani=true&JigyosyoCd=0770600120-00&ServiceCd=510&Type=search", "url2": "http://minamisomafukushikai.or.jp" }, "geometry": { "type": "Point", "coordinates": [ 140.984937299999956, 37.6358122 ] } },
{ "type": "Feature", "properties": { "内容": "特別養護老人ホーム万葉園【介護老人福祉施設】福島県南相馬市鹿島区西町三丁目３番地", "url": "https://www.kaigokensaku.mhlw.go.jp/07/index.php?action_kouhyou_detail_004_kani=true&JigyosyoCd=0771200474-00&ServiceCd=510&Type=search", "url2": "https://minamisomafukushikai.or.jp/" }, "geometry": { "type": "Point", "coordinates": [ 140.960426, 37.7093064 ] } },
{ "type": "Feature", "properties": { "内容": "特別養護老人ホーム万葉園【介護老人福祉施設】福島県南相馬市鹿島区西町三丁目3番地", "url": "https://www.kaigokensaku.mhlw.go.jp/07/index.php?action_kouhyou_detail_004_kani=true&JigyosyoCd=0773300181-00&ServiceCd=510&Type=search", "url2": "https://minamisomafukushikai.or.jp/" }, "geometry": { "type": "Point", "coordinates": [ 140.960342699999956, 37.7093258 ] } },
{ "type": "Feature", "properties": { "内容": "特別養護老人ホームだて　緑風園【介護老人福祉施設】福島県伊達市馬場口36-1", "url": "https://www.kaigokensaku.mhlw.go.jp/07/index.php?action_kouhyou_detail_004_kani=true&JigyosyoCd=0771300886-00&ServiceCd=510&Type=search", "url2": "https://date.ryokuhuen.com/" }, "geometry": { "type": "Point", "coordinates": [ 140.501126131738317, 37.823266711306935 ] } },
{ "type": "Feature", "properties": { "内容": "特別養護老人ホーム　梁川ホーム【介護老人福祉施設】福島県伊達市梁川町字東土橋６５番地１", "url": "https://www.kaigokensaku.mhlw.go.jp/07/index.php?action_kouhyou_detail_004_kani=true&JigyosyoCd=0772000626-00&ServiceCd=510&Type=search", "url2": "https://www.shintatsu.jp" }, "geometry": { "type": "Point", "coordinates": [ 140.593143599999962, 37.8466254 ] } },
{ "type": "Feature", "properties": { "内容": "特別養護老人ホーム孝の郷【介護老人福祉施設】福島県伊達市霊山町掛田字明正寺２１－１", "url": "https://www.kaigokensaku.mhlw.go.jp/07/index.php?action_kouhyou_detail_004_kani=true&JigyosyoCd=0771300381-00&ServiceCd=510&Type=search", "url2": "http://www.tokushinkai.care/kounosato/index.php" }, "geometry": { "type": "Point", "coordinates": [ 140.591793, 37.777724200000016 ] } },
{ "type": "Feature", "properties": { "内容": "特別養護老人ホーム　ファミーユ【介護老人福祉施設】福島県伊達市保原町上保原字遍照原8-8", "url": "https://www.kaigokensaku.mhlw.go.jp/07/index.php?action_kouhyou_detail_004_kani=true&JigyosyoCd=0772000949-00&ServiceCd=510&Type=search", "url2": "http://www.tokushinkai.care/" }, "geometry": { "type": "Point", "coordinates": [ 140.533635600000025, 37.8050115 ] } },
{ "type": "Feature", "properties": { "内容": "ハッピー愛ランドほばら【介護老人福祉施設】伊達市保原町字泉町１－１", "url": "https://www.kaigokensaku.mhlw.go.jp/07/index.php?action_kouhyou_detail_004_kani=true&JigyosyoCd=0771300605-00&ServiceCd=510&Type=search", "url2": "https://www.happyisland.org/" }, "geometry": { "type": "Point", "coordinates": [ 140.546940035581969, 37.824994271207359 ] } },
{ "type": "Feature", "properties": { "内容": "特別養護老人ホーム伊達すりかみ荘【介護老人福祉施設】福島県伊達市一本松64番地", "url": "https://www.kaigokensaku.mhlw.go.jp/07/index.php?action_kouhyou_detail_004_kani=true&JigyosyoCd=0772000618-00&ServiceCd=510&Type=search", "url2": "http://surikamisou.jp/" }, "geometry": { "type": "Point", "coordinates": [ 140.491955400000052, 37.8135318 ] } },
{ "type": "Feature", "properties": { "内容": "社会福祉法人慈仁会　特別養護老人ホーム星風苑【介護老人福祉施設】福島県伊達市月舘町御代田字月崎山１番７", "url": "https://www.kaigokensaku.mhlw.go.jp/07/index.php?action_kouhyou_detail_004_kani=true&JigyosyoCd=0772001061-00&ServiceCd=510&Type=search", "url2": "https://jijinkai-seifuen.jp" }, "geometry": { "type": "Point", "coordinates": [ 140.6031041, 37.7523104 ] } },
{ "type": "Feature", "properties": { "内容": "特別養護老人ホームラスール伊達【介護老人福祉施設】福島県伊達市梁川町字東塩野川56-1", "url": "https://www.kaigokensaku.mhlw.go.jp/07/index.php?action_kouhyou_detail_004_kani=true&JigyosyoCd=0771300571-00&ServiceCd=510&Type=search", "url2": "https://koseikai-star.com/facility/detail?id=540" }, "geometry": { "type": "Point", "coordinates": [ 140.607916607934584, 37.864196563302734 ] } },
{ "type": "Feature", "properties": { "内容": "特別養護老人ホーム　カーサ・コリーナ【介護老人福祉施設】福島県本宮市和田字戸ノ内158番地3", "url": "https://www.kaigokensaku.mhlw.go.jp/07/index.php?action_kouhyou_detail_004_kani=true&JigyosyoCd=0771400181-00&ServiceCd=510&Type=search", "url2": "http://asaka.or.jp/fukusikai/" }, "geometry": { "type": "Point", "coordinates": [ 140.42710579206539, 37.518682950358375 ] } },
{ "type": "Feature", "properties": { "内容": "特別養護老人ホームしらさわ有寿園【介護老人福祉施設】福島県本宮市和田字戸ノ内158番地３", "url": "https://www.kaigokensaku.mhlw.go.jp/07/index.php?action_kouhyou_detail_004_kani=true&JigyosyoCd=0772100483-00&ServiceCd=510&Type=search", "url2": "http://asaka.or.jp/fukusikai/" }, "geometry": { "type": "Point", "coordinates": [ 140.426882648959321, 37.518303635314815 ] } },
{ "type": "Feature", "properties": { "内容": "特別養護老人ホーム　ぼたん荘【介護老人福祉施設】福島県本宮市本宮字上千束3番地", "url": "https://www.kaigokensaku.mhlw.go.jp/07/index.php?action_kouhyou_detail_004_kani=true&JigyosyoCd=0772100434-00&ServiceCd=510&Type=search", "url2": "http://www.adachifukushi.jp/" }, "geometry": { "type": "Point", "coordinates": [ 140.392382199999929, 37.5181612 ] } },
{ "type": "Feature", "properties": { "内容": "特別養護老人ホーム　あつかし荘【介護老人福祉施設】福島県伊達郡桑折町大字北半田字一本木前５－２", "url": "https://www.kaigokensaku.mhlw.go.jp/07/index.php?action_kouhyou_detail_004_kani=true&JigyosyoCd=0772000600-00&ServiceCd=510&Type=search", "url2": "https://www.shintatsu.jp" }, "geometry": { "type": "Point", "coordinates": [ 140.539141100000052, 37.8718068 ] } },
{ "type": "Feature", "properties": { "内容": "特別養護老人ホームコクーン【介護老人福祉施設】福島県伊達郡桑折町字桑島四　9-4", "url": "https://www.kaigokensaku.mhlw.go.jp/07/index.php?action_kouhyou_detail_004_kani=true&JigyosyoCd=0772001020-00&ServiceCd=510&Type=search", "url2": "http://www.cocoon.or.jp" }, "geometry": { "type": "Point", "coordinates": [ 140.514780200000018, 37.844987 ] } },
{ "type": "Feature", "properties": { "内容": "特別養護老人ホーム「国見の里」【介護老人福祉施設】福島県伊達郡国見町小坂南3番地", "url": "https://www.kaigokensaku.mhlw.go.jp/07/index.php?action_kouhyou_detail_004_kani=true&JigyosyoCd=0772001418-00&ServiceCd=510&Type=search", "url2": "kunimi-sato.or.jp" }, "geometry": { "type": "Point", "coordinates": [ 140.52816291268914, 37.887907177182683 ] } },
{ "type": "Feature", "properties": { "内容": "特別養護老人ホーム南東北シルクロード館【介護老人福祉施設】福島県伊達郡川俣町大字鶴沢字池ノ上30-1", "url": "https://www.kaigokensaku.mhlw.go.jp/07/index.php?action_kouhyou_detail_004_kani=true&JigyosyoCd=0772000998-00&ServiceCd=510&Type=search", "url2": "http://www.kaigo-kawamata.com" }, "geometry": { "type": "Point", "coordinates": [ 140.574677, 37.6644111 ] } },
{ "type": "Feature", "properties": { "内容": "特別養護老人ホーム　川俣ホーム【介護老人福祉施設】福島県伊達郡川俣町大字鶴沢字川端２－１", "url": "https://www.kaigokensaku.mhlw.go.jp/07/index.php?action_kouhyou_detail_004_kani=true&JigyosyoCd=0772000774-00&ServiceCd=510&Type=search", "url2": "https://www.shintatsu.jp" }, "geometry": { "type": "Point", "coordinates": [ 140.595710899999972, 37.6637164 ] } },
{ "type": "Feature", "properties": { "内容": "特別養護老人ホーム　陽だまりの里【介護老人福祉施設】福島県安達郡大玉村玉井字台9番地1", "url": "https://www.kaigokensaku.mhlw.go.jp/07/index.php?action_kouhyou_detail_004_kani=true&JigyosyoCd=0772100657-00&ServiceCd=510&Type=search", "url2": "http://www.f-hidamarinosato.jp" }, "geometry": { "type": "Point", "coordinates": [ 140.37052540000002, 37.5327644 ] } },
{ "type": "Feature", "properties": { "内容": "特別養護老人ホーム　牧場の朝【介護老人福祉施設】福島県岩瀬郡鏡石町桜町２２５番地１５", "url": "https://www.kaigokensaku.mhlw.go.jp/07/index.php?action_kouhyou_detail_004_kani=true&JigyosyoCd=0772200259-00&ServiceCd=510&Type=search", "url2": "http://www.seijukai.org/" }, "geometry": { "type": "Point", "coordinates": [ 140.365074008598299, 37.254418339358864 ] } },
{ "type": "Feature", "properties": { "内容": "特別養護老人ホーム　　　鏡石ホーム【介護老人福祉施設】福島県岩瀬郡鏡石町鏡田かげ沼町１３９番地の１", "url": "https://www.kaigokensaku.mhlw.go.jp/07/index.php?action_kouhyou_detail_004_kani=true&JigyosyoCd=0772200119-00&ServiceCd=510&Type=search", "url2": null }, "geometry": { "type": "Point", "coordinates": [ 140.346324200000026, 37.2684424 ] } },
{ "type": "Feature", "properties": { "内容": "特別養護老人ホーム　天栄ホーム【介護老人福祉施設】福島県岩瀬郡天栄村大字飯豊字新田前21-1", "url": "https://www.kaigokensaku.mhlw.go.jp/07/index.php?action_kouhyou_detail_004_kani=true&JigyosyoCd=0772200192-00&ServiceCd=510&Type=search", "url2": "http://www.sw.iwasefukushi.jp" }, "geometry": { "type": "Point", "coordinates": [ 140.284403800000064, 37.2458998 ] } },
{ "type": "Feature", "properties": { "内容": "特別養護老人ホームレジデンスふじの郷【介護老人福祉施設】福島県南会津郡下郷町大字塩生字前原５０２－１", "url": "https://www.kaigokensaku.mhlw.go.jp/07/index.php?action_kouhyou_detail_004_kani=true&JigyosyoCd=0772300695-00&ServiceCd=510&Type=search", "url2": "https://www.meichifukushikai.jp" }, "geometry": { "type": "Point", "coordinates": [ 139.867512300000044, 37.2526746 ] } },
{ "type": "Feature", "properties": { "内容": "社会福祉法人南会津会　特別養護老人ホーム下郷ホーム【介護老人福祉施設】福島県南会津郡下郷町大字沢田字若林甲1572番地", "url": "https://www.kaigokensaku.mhlw.go.jp/07/index.php?action_kouhyou_detail_004_kani=true&JigyosyoCd=0772300323-00&ServiceCd=510&Type=search", "url2": "http://minamiaidukai.or.jp/" }, "geometry": { "type": "Point", "coordinates": [ 139.865901399999984, 37.2487223 ] } },
{ "type": "Feature", "properties": { "内容": "特別養護老人ホーム只見ホーム【介護老人福祉施設】福島県南会津郡只見町大字長浜字久保田１番地", "url": "https://www.kaigokensaku.mhlw.go.jp/07/index.php?action_kouhyou_detail_004_kani=true&JigyosyoCd=0772300398-00&ServiceCd=510&Type=search", "url2": "http://minamiaidukai.or.jp/" }, "geometry": { "type": "Point", "coordinates": [ 139.376495, 37.3039067 ] } },
{ "type": "Feature", "properties": { "内容": "特別養護老人ホーム　優雅【介護老人福祉施設】福島県南会津郡南会津町田島字北下原１１１番特別養護老人ホーム優雅", "url": "https://www.kaigokensaku.mhlw.go.jp/07/index.php?action_kouhyou_detail_004_kani=true&JigyosyoCd=0772300653-00&ServiceCd=510&Type=search", "url2": "http://www.ouzyukai.info" }, "geometry": { "type": "Point", "coordinates": [ 139.7880801, 37.2078332 ] } },
{ "type": "Feature", "properties": { "内容": "特別養護老人ホーム田島ホーム【介護老人福祉施設】福島県南会津郡南会津町永田字風下３-１", "url": "https://www.kaigokensaku.mhlw.go.jp/07/index.php?action_kouhyou_detail_004_kani=true&JigyosyoCd=0772300315-00&ServiceCd=510&Type=search", "url2": "https://minamiaidukai.or.jp/publics/index/105/" }, "geometry": { "type": "Point", "coordinates": [ 139.759997399999946, 37.2046494 ] } },
{ "type": "Feature", "properties": { "内容": "特別養護老人ホーム　南郷ホーム【介護老人福祉施設】福島県南会津郡南会津町片貝字中田97", "url": "https://www.kaigokensaku.mhlw.go.jp/07/index.php?action_kouhyou_detail_004_kani=true&JigyosyoCd=0772300349-00&ServiceCd=510&Type=search", "url2": "nan-home@atlas.plala.or.jp" }, "geometry": { "type": "Point", "coordinates": [ 139.529593299999988, 37.2740165 ] } },
{ "type": "Feature", "properties": { "内容": "特別養護老人ホーム伊南ホーム【介護老人福祉施設】福島県南会津郡南会津町古町字太子堂１８６－１", "url": "https://www.kaigokensaku.mhlw.go.jp/07/index.php?action_kouhyou_detail_004_kani=true&JigyosyoCd=0772300331-00&ServiceCd=510&Type=search", "url2": "minamiaidukai.or.jp" }, "geometry": { "type": "Point", "coordinates": [ 139.5273929, 37.186105 ] } },
{ "type": "Feature", "properties": { "内容": "特別養護老人ホームさゆりの園【介護老人福祉施設】福島県耶麻郡西会津町登世島字田畑乙２０４２－７１", "url": "https://www.kaigokensaku.mhlw.go.jp/07/index.php?action_kouhyou_detail_004_kani=true&JigyosyoCd=0772500278-00&ServiceCd=510&Type=search", "url2": "https：//nishiaizu-fukushi.jp/" }, "geometry": { "type": "Point", "coordinates": [ 139.6391949, 37.5970886 ] } },
{ "type": "Feature", "properties": { "内容": "特別養護老人ホーム　いなわしろホーム【介護老人福祉施設】福島県耶麻郡猪苗代町大字三郷字寺南7962番地1", "url": "https://www.kaigokensaku.mhlw.go.jp/07/index.php?action_kouhyou_detail_004_kani=true&JigyosyoCd=0772500286-00&ServiceCd=510&Type=search", "url2": "http://www.inawashiro-home.org/" }, "geometry": { "type": "Point", "coordinates": [ 140.1386344, 37.5633738 ] } },
{ "type": "Feature", "properties": { "内容": "特別養護老人ホーム　咲楽の里【介護老人福祉施設】福島県耶麻郡猪苗代町字程塚2789番", "url": "https://www.kaigokensaku.mhlw.go.jp/07/index.php?action_kouhyou_detail_004_kani=true&JigyosyoCd=0772500435-00&ServiceCd=510&Type=search", "url2": "https://ranzankai.com/" }, "geometry": { "type": "Point", "coordinates": [ 140.116711154968442, 37.571542011244155 ] } },
{ "type": "Feature", "properties": { "内容": "特別養護老人ホーム会津寿楽荘【介護老人福祉施設】福島県河沼郡会津坂下町大字塔寺字北原６４５", "url": "https://www.kaigokensaku.mhlw.go.jp/07/index.php?action_kouhyou_detail_004_kani=true&JigyosyoCd=0772600193-00&ServiceCd=510&Type=search", "url2": "http://www.magokoro-egao-anshin.com" }, "geometry": { "type": "Point", "coordinates": [ 139.800163600000019, 37.57832 ] } },
{ "type": "Feature", "properties": { "内容": "特別養護老人ホームラスール坂下【介護老人福祉施設】福島県河沼郡会津坂下町上口488-1", "url": "https://www.kaigokensaku.mhlw.go.jp/07/index.php?action_kouhyou_detail_004_kani=true&JigyosyoCd=0772600557-00&ServiceCd=510&Type=search", "url2": "http://koseikai-star.com" }, "geometry": { "type": "Point", "coordinates": [ 139.827414099999942, 37.5648029 ] } },
{ "type": "Feature", "properties": { "内容": "特別養護老人ホーム　福柳苑【介護老人福祉施設】福島県河沼郡柳津町大字飯谷字前林甲370", "url": "https://www.kaigokensaku.mhlw.go.jp/07/index.php?action_kouhyou_detail_004_kani=true&JigyosyoCd=0772600326-00&ServiceCd=510&Type=search", "url2": "http://www.magokoro-egao-anshin.com/" }, "geometry": { "type": "Point", "coordinates": [ 139.710687257672106, 37.522633929139239 ] } },
{ "type": "Feature", "properties": { "内容": "特別養護老人ホーム桐寿苑【介護老人福祉施設】福島県大沼郡三島町大字宮下字坂ノ下６５９番地", "url": "https://www.kaigokensaku.mhlw.go.jp/07/index.php?action_kouhyou_detail_004_kani=true&JigyosyoCd=0772700332-00&ServiceCd=510&Type=search", "url2": "https;//www.mishima1.jp" }, "geometry": { "type": "Point", "coordinates": [ 139.64601289999996, 37.4736462 ] } },
{ "type": "Feature", "properties": { "内容": "特別養護老人ホーム　かねやまホーム【介護老人福祉施設】福島県大沼郡金山町大字中川字沖根原1324番地", "url": "https://www.kaigokensaku.mhlw.go.jp/07/index.php?action_kouhyou_detail_004_kani=true&JigyosyoCd=0772700092-00&ServiceCd=510&Type=search", "url2": "https://www.kaneyama-f.or.jp" }, "geometry": { "type": "Point", "coordinates": [ 139.529466, 37.4745462 ] } },
{ "type": "Feature", "properties": { "内容": "特別養護老人ホーム　昭和ホーム【介護老人福祉施設】福島県大沼郡昭和村大字小中津川字石仏1930番地", "url": "https://www.kaigokensaku.mhlw.go.jp/07/index.php?action_kouhyou_detail_004_kani=true&JigyosyoCd=0772700431-00&ServiceCd=510&Type=search", "url2": "http://www.showa-home-fukushima.jp/" }, "geometry": { "type": "Point", "coordinates": [ 139.6192982, 37.331417200000018 ] } },
{ "type": "Feature", "properties": { "内容": "特別養護老人ホーム昭和ホーム（ユニット館）【介護老人福祉施設】福島県大沼郡昭和村大字小中津川字石仏1930番地", "url": "https://www.kaigokensaku.mhlw.go.jp/07/index.php?action_kouhyou_detail_004_kani=true&JigyosyoCd=0772700506-00&ServiceCd=510&Type=search", "url2": "http:/www.showa-home-fukushima.jp/" }, "geometry": { "type": "Point", "coordinates": [ 139.6192982, 37.3314172 ] } },
{ "type": "Feature", "properties": { "内容": "特別養護老人ホーム　ハーモニーハウス【介護老人福祉施設】福島県大沼郡会津美里町大石字下川原１番地１", "url": "https://www.kaigokensaku.mhlw.go.jp/07/index.php?action_kouhyou_detail_004_kani=true&JigyosyoCd=0772700373-00&ServiceCd=510&Type=search", "url2": "http://www.sin-ai.com/" }, "geometry": { "type": "Point", "coordinates": [ 139.904747600000064, 37.4414412 ] } },
{ "type": "Feature", "properties": { "内容": "特別養護老人ホームリアンヴェール美里【介護老人福祉施設】福島県大沼郡会津美里町荻窪字上野１８６番１", "url": "https://www.kaigokensaku.mhlw.go.jp/07/index.php?action_kouhyou_detail_004_kani=true&JigyosyoCd=0772700555-00&ServiceCd=510&Type=search", "url2": "http://heiseikai.studio.site/" }, "geometry": { "type": "Point", "coordinates": [ 139.8098033, 37.4509733 ] } },
{ "type": "Feature", "properties": { "内容": "特別養護老人ホーム宮川荘【介護老人福祉施設】福島県大沼郡会津美里町字高田道上2969-1", "url": "https://www.kaigokensaku.mhlw.go.jp/07/index.php?action_kouhyou_detail_004_kani=true&JigyosyoCd=0772700241-00&ServiceCd=510&Type=search", "url2": "https://senoukai.or.jp/" }, "geometry": { "type": "Point", "coordinates": [ 139.8480548, 37.4675336 ] } },
{ "type": "Feature", "properties": { "内容": "福島県さつき荘【介護老人福祉施設】福島県西白河郡西郷村大字真船字芝原３４１－６", "url": "https://www.kaigokensaku.mhlw.go.jp/07/index.php?action_kouhyou_detail_004_kani=true&JigyosyoCd=0772800363-00&ServiceCd=510&Type=search", "url2": "http://www.fukushima-sj.jp/taiyo_satsuki/index.html" }, "geometry": { "type": "Point", "coordinates": [ 140.1216217, 37.1357397 ] } },
{ "type": "Feature", "properties": { "内容": "特別養護老人ホーム　リアンヴェール西郷【介護老人福祉施設】福島県西白河郡西郷村大字小田倉字小田倉原1-134", "url": "https://www.kaigokensaku.mhlw.go.jp/07/index.php?action_kouhyou_detail_004_kani=true&JigyosyoCd=0772801122-00&ServiceCd=510&Type=search", "url2": "https://heiseikai.studio.site/" }, "geometry": { "type": "Point", "coordinates": [ 140.165263949598682, 37.124480300525157 ] } },
{ "type": "Feature", "properties": { "内容": "福島県やまぶき荘【介護老人福祉施設】福島県西白河郡西郷村大字小田倉字上上野原２－２", "url": "https://www.kaigokensaku.mhlw.go.jp/07/index.php?action_kouhyou_detail_004_kani=true&JigyosyoCd=0772800355-00&ServiceCd=510&Type=search", "url2": "http//www.fukushima-sj.jp/yamabuki" }, "geometry": { "type": "Point", "coordinates": [ 140.121373600000027, 37.1318669 ] } },
{ "type": "Feature", "properties": { "内容": "特別養護老人ホーム　ケアハウス泉崎【介護老人福祉施設】福島県西白河郡泉崎村大字太田川字金山34番地", "url": "https://www.kaigokensaku.mhlw.go.jp/07/index.php?action_kouhyou_detail_004_kani=true&JigyosyoCd=0772800165-00&ServiceCd=510&Type=search", "url2": "https://www.carehouse-izumizaki.com" }, "geometry": { "type": "Point", "coordinates": [ 140.2656217, 37.1788672 ] } },
{ "type": "Feature", "properties": { "内容": "特別養護老人ホームひかりの里【介護老人福祉施設】福島県西白河郡中島村大字滑津字宿裏１０番地１", "url": "https://www.kaigokensaku.mhlw.go.jp/07/index.php?action_kouhyou_detail_004_kani=true&JigyosyoCd=0772800918-00&ServiceCd=510&Type=search", "url2": "fttp://www.so-we-cosmo.or.jp" }, "geometry": { "type": "Point", "coordinates": [ 140.361430599999949, 37.1533367 ] } },
{ "type": "Feature", "properties": { "内容": "特別養護老人ホーム寿光園【介護老人福祉施設】福島県西白河郡矢吹町滝八幡159番地2", "url": "https://www.kaigokensaku.mhlw.go.jp/07/index.php?action_kouhyou_detail_004_kani=true&JigyosyoCd=0772800058-00&ServiceCd=510&Type=search", "url2": "http://care-net.biz/07/jukouen/" }, "geometry": { "type": "Point", "coordinates": [ 140.31903740000007, 37.2143592 ] } },
{ "type": "Feature", "properties": { "内容": "特別養護老人ホーム　エルピスやぶき【介護老人福祉施設】福島県西白河郡矢吹町一本木１４０番地１", "url": "https://www.kaigokensaku.mhlw.go.jp/07/index.php?action_kouhyou_detail_004_kani=true&JigyosyoCd=0772801072-00&ServiceCd=510&Type=search", "url2": "http://tokushinkai.care/yabuki/" }, "geometry": { "type": "Point", "coordinates": [ 140.3417325, 37.201611 ] } },
{ "type": "Feature", "properties": { "内容": "特別養護老人ホームほたるの里【介護老人福祉施設】福島県東白川郡棚倉町大字関口字豊郷103", "url": "https://www.kaigokensaku.mhlw.go.jp/07/index.php?action_kouhyou_detail_004_kani=true&JigyosyoCd=0772900429-00&ServiceCd=510&Type=search", "url2": "http://www.utsumine.jp/" }, "geometry": { "type": "Point", "coordinates": [ 140.393786200000022, 37.023937 ] } },
{ "type": "Feature", "properties": { "内容": "特別養護老人ホーム寿恵園【介護老人福祉施設】福島県東白川郡棚倉町大字棚倉字舘ヶ丘７９番地", "url": "https://www.kaigokensaku.mhlw.go.jp/07/index.php?action_kouhyou_detail_004_kani=true&JigyosyoCd=0772900080-00&ServiceCd=510&Type=search", "url2": "http://www.jyukeien.com/" }, "geometry": { "type": "Point", "coordinates": [ 140.376423899999963, 37.0222757 ] } },
{ "type": "Feature", "properties": { "内容": "特別養護老人ホーム　藤井ハイム矢祭【介護老人福祉施設】福島県東白川郡矢祭町大字東舘字柳町５２", "url": "https://www.kaigokensaku.mhlw.go.jp/07/index.php?action_kouhyou_detail_004_kani=true&JigyosyoCd=0772900312-00&ServiceCd=510&Type=search", "url2": null }, "geometry": { "type": "Point", "coordinates": [ 140.420486, 36.8746661 ] } },
{ "type": "Feature", "properties": { "内容": "特別養護老人ホーム　ユーアイホーム【介護老人福祉施設】福島県東白川郡矢祭町大字東舘字蔵屋敷122", "url": "https://www.kaigokensaku.mhlw.go.jp/07/index.php?action_kouhyou_detail_004_kani=true&JigyosyoCd=0772900213-00&ServiceCd=510&Type=search", "url2": "http://www.yu-ai.org/" }, "geometry": { "type": "Point", "coordinates": [ 140.41887250000002, 36.8704804 ] } },
{ "type": "Feature", "properties": { "内容": "特別養護老人ホーム藤井ハイムはなわ【介護老人福祉施設】福島県東白川郡塙町大字伊香字中妻２４１番地１", "url": "https://www.kaigokensaku.mhlw.go.jp/07/index.php?action_kouhyou_detail_004_kani=true&JigyosyoCd=0772900320-00&ServiceCd=510&Type=search", "url2": "https://fujii-heim.jp/hanawa2/h2_index.html" }, "geometry": { "type": "Point", "coordinates": [ 140.4012272, 36.9401307 ] } },
{ "type": "Feature", "properties": { "内容": "特別養護老人ホーム「さくら荘」【介護老人福祉施設】福島県石川郡石川町大字南山形字中野沢５４", "url": "https://www.kaigokensaku.mhlw.go.jp/07/index.php?action_kouhyou_detail_004_kani=true&JigyosyoCd=0773000237-00&ServiceCd=510&Type=search", "url2": null }, "geometry": { "type": "Point", "coordinates": [ 140.4689674, 37.1157561 ] } },
{ "type": "Feature", "properties": { "内容": "特別養護老人ホームたまかわ荘【介護老人福祉施設】福島県石川郡玉川村大字中字入山59", "url": "https://www.kaigokensaku.mhlw.go.jp/07/index.php?action_kouhyou_detail_004_kani=true&JigyosyoCd=0773000310-00&ServiceCd=510&Type=search", "url2": null }, "geometry": { "type": "Point", "coordinates": [ 140.410838099999978, 37.2160052 ] } },
{ "type": "Feature", "properties": { "内容": "特別養護老人ホームよもぎ荘【介護老人福祉施設】福島県石川郡平田村大字永田字広町３１番地", "url": "https://www.kaigokensaku.mhlw.go.jp/07/index.php?action_kouhyou_detail_004_kani=true&JigyosyoCd=0773000286-00&ServiceCd=510&Type=search", "url2": "http://ishikawafukushikai.jp/service/yomogiso/" }, "geometry": { "type": "Point", "coordinates": [ 140.569965799999977, 37.2170275 ] } },
{ "type": "Feature", "properties": { "内容": "特別養護老人ホームさぎそう【介護老人福祉施設】福島県石川郡浅川町大字浅川字背戸谷地１７７－６", "url": "https://www.kaigokensaku.mhlw.go.jp/07/index.php?action_kouhyou_detail_004_kani=true&JigyosyoCd=0773000187-00&ServiceCd=510&Type=search", "url2": "ishikawafukushikai.jp" }, "geometry": { "type": "Point", "coordinates": [ 140.405357500000036, 37.0797502 ] } },
{ "type": "Feature", "properties": { "内容": "特別養護老人ホームふるどの荘【介護老人福祉施設】福島県石川郡古殿町大字松川字林４－１", "url": "https://www.kaigokensaku.mhlw.go.jp/07/index.php?action_kouhyou_detail_004_kani=true&JigyosyoCd=0773000393-00&ServiceCd=510&Type=search", "url2": "http://ishikawafukushikai.jp/about" }, "geometry": { "type": "Point", "coordinates": [ 140.551321499999972, 37.0902089 ] } },
{ "type": "Feature", "properties": { "内容": "特別養護老人ホームあぶくま荘【介護老人福祉施設】福島県田村郡三春町字六升蒔６８番地", "url": "https://www.kaigokensaku.mhlw.go.jp/07/index.php?action_kouhyou_detail_004_kani=true&JigyosyoCd=0773100128-00&ServiceCd=510&Type=search", "url2": "ss68@chive.ocn.ne.jp" }, "geometry": { "type": "Point", "coordinates": [ 140.494495799999982, 37.4468802 ] } },
{ "type": "Feature", "properties": { "内容": "特別養護老人ホームこまち荘【介護老人福祉施設】福島県田村郡小野町大字小野新町字美売57番地", "url": "https://www.kaigokensaku.mhlw.go.jp/07/index.php?action_kouhyou_detail_004_kani=true&JigyosyoCd=0773100086-00&ServiceCd=510&Type=search", "url2": "https://tamurafukushikai.com/" }, "geometry": { "type": "Point", "coordinates": [ 140.618383399999971, 37.2924857 ] } },
{ "type": "Feature", "properties": { "内容": "広野町特別養護老人ホーム花ぶさ苑【介護老人福祉施設】福島県双葉郡広野町下北迫字東町211-1", "url": "https://www.kaigokensaku.mhlw.go.jp/07/index.php?action_kouhyou_detail_004_kani=true&JigyosyoCd=0773200894-00&ServiceCd=510&Type=search", "url2": "https://koubikai.jp" }, "geometry": { "type": "Point", "coordinates": [ 141.006592310450742, 37.21964386620396 ] } },
{ "type": "Feature", "properties": { "内容": "リリー園【介護老人福祉施設】福島県双葉郡楢葉町大字井出字上ノ原２８番地", "url": "https://www.kaigokensaku.mhlw.go.jp/07/index.php?action_kouhyou_detail_004_kani=true&JigyosyoCd=0773200522-00&ServiceCd=510&Type=search", "url2": "http://lily-en.com" }, "geometry": { "type": "Point", "coordinates": [ 141.013210100000038, 37.2717729 ] } },
{ "type": "Feature", "properties": { "内容": "特別養護老人ホーム桜の園【介護老人福祉施設】福島県双葉郡富岡町大字本岡字王塚36", "url": "https://www.kaigokensaku.mhlw.go.jp/07/index.php?action_kouhyou_detail_004_kani=true&JigyosyoCd=0773200902-00&ServiceCd=510&Type=search", "url2": "https://www.koubikai.jp/introduction.html" }, "geometry": { "type": "Point", "coordinates": [ 140.99582430000001, 37.3542677 ] } },
{ "type": "Feature", "properties": { "内容": "特別養護老人ホームかわうち【介護老人福祉施設】福島県双葉郡川内村上川内字迎原78番地", "url": "https://www.kaigokensaku.mhlw.go.jp/07/index.php?action_kouhyou_detail_004_kani=true&JigyosyoCd=0773200845-00&ServiceCd=510&Type=search", "url2": "www.sennoufukushikai.net" }, "geometry": { "type": "Point", "coordinates": [ 140.7926546, 37.3542408 ] } },
{ "type": "Feature", "properties": { "内容": "特別養護老人ホーム新地ホーム【介護老人福祉施設】福島県相馬郡新地町小川字川向１８", "url": "https://www.kaigokensaku.mhlw.go.jp/07/index.php?action_kouhyou_detail_004_kani=true&JigyosyoCd=0773300066-00&ServiceCd=510&Type=search", "url2": "http://shinchifukushikai.jp/main/" }, "geometry": { "type": "Point", "coordinates": [ 140.9177502, 37.8637108 ] } },
{ "type": "Feature", "properties": { "内容": "特別養護老人ホーム　なごみの里福田【介護老人福祉施設】福島県相馬郡新地町大字福田字清水175番地", "url": "https://www.kaigokensaku.mhlw.go.jp/07/index.php?action_kouhyou_detail_004_kani=true&JigyosyoCd=0773300322-00&ServiceCd=510&Type=search", "url2": "http://shinchifukushikai.jp/" }, "geometry": { "type": "Point", "coordinates": [ 140.898358899999948, 37.8898438 ] } },
{ "type": "Feature", "properties": { "内容": "特別養護老人ホームいいたてホーム【介護老人福祉施設】福島県相馬郡飯舘村伊丹沢字伊丹沢571", "url": "https://www.kaigokensaku.mhlw.go.jp/07/index.php?action_kouhyou_detail_004_kani=true&JigyosyoCd=0773300124-00&ServiceCd=510&Type=search", "url2": "https://iitate-home.jp" }, "geometry": { "type": "Point", "coordinates": [ 140.734714199999985, 37.678121 ] } }
]
}
