{
"type": "FeatureCollection",
"name": "geo_07_地域密着型通所介護",
"crs": { "type": "name", "properties": { "name": "urn:ogc:def:crs:OGC:1.3:CRS84" } },
"features": [
{ "type": "Feature", "properties": { "内容": "デイサービス　悠久の郷【地域密着型通所介護】福島県福島市土船字谷地頭３３番地１", "url2": "https://www.kaigokensaku.mhlw.go.jp/07/index.php?action_kouhyou_detail_004_kani=true&JigyosyoCd=0770103596-00&ServiceCd=780&Type=search" }, "geometry": { "type": "Point", "coordinates": [ 140.373560057722216, 37.742746811478625 ] } },
{ "type": "Feature", "properties": { "内容": "デイサービスすみれ【地域密着型通所介護】福島県福島市南沢又字柳清水５－８", "url2": "https://www.kaigokensaku.mhlw.go.jp/07/index.php?action_kouhyou_detail_004_kani=true&JigyosyoCd=0770104594-00&ServiceCd=780&Type=search" }, "geometry": { "type": "Point", "coordinates": [ 140.442241500000023, 37.7782061 ] } },
{ "type": "Feature", "properties": { "内容": "よりそうデイサービス春日の家【地域密着型通所介護】福島県福島市春日町１３－１１", "url2": "https://www.kaigokensaku.mhlw.go.jp/07/index.php?action_kouhyou_detail_004_kani=true&JigyosyoCd=0770103950-00&ServiceCd=780&Type=search" }, "geometry": { "type": "Point", "coordinates": [ 140.476230500000042, 37.766963700000034 ] } },
{ "type": "Feature", "properties": { "内容": "デイサービスセンター　シニアガーデン【地域密着型通所介護】福島県福島市伏拝字田中21-1", "url2": "https://www.kaigokensaku.mhlw.go.jp/07/index.php?action_kouhyou_detail_004_kani=true&JigyosyoCd=0770104339-00&ServiceCd=780&Type=search" }, "geometry": { "type": "Point", "coordinates": [ 140.457266153967367, 37.725613938687104 ] } },
{ "type": "Feature", "properties": { "内容": "デイサービスセンター　シニアハウス【地域密着型通所介護】福島県福島市伏拝字田中16-8", "url2": "https://www.kaigokensaku.mhlw.go.jp/07/index.php?action_kouhyou_detail_004_kani=true&JigyosyoCd=0770104669-00&ServiceCd=780&Type=search" }, "geometry": { "type": "Point", "coordinates": [ 140.4583657, 37.7252888 ] } },
{ "type": "Feature", "properties": { "内容": "デイサービスセンター　シニアパーク【地域密着型通所介護】福島県福島市伏拝字田中19-7", "url2": "https://www.kaigokensaku.mhlw.go.jp/07/index.php?action_kouhyou_detail_004_kani=true&JigyosyoCd=0790100796-00&ServiceCd=780&Type=search" }, "geometry": { "type": "Point", "coordinates": [ 140.457733800000028, 37.725220899999982 ] } },
{ "type": "Feature", "properties": { "内容": "NPO法人まごころケアホーム高湯の里【地域密着型通所介護】福島県福島市在庭坂字南林60-2", "url2": "https://www.kaigokensaku.mhlw.go.jp/07/index.php?action_kouhyou_detail_004_kani=true&JigyosyoCd=0770102168-00&ServiceCd=780&Type=search" }, "geometry": { "type": "Point", "coordinates": [ 140.359753899999987, 37.7550348 ] } },
{ "type": "Feature", "properties": { "内容": "デイサービスセンタ―桜【地域密着型通所介護】福島県福島市飯坂町湯野字湯ノ上18-1", "url2": "https://www.kaigokensaku.mhlw.go.jp/07/index.php?action_kouhyou_detail_004_kani=true&JigyosyoCd=0790101042-00&ServiceCd=780&Type=search" }, "geometry": { "type": "Point", "coordinates": [ 140.455711800000017, 37.8309862 ] } },
{ "type": "Feature", "properties": { "内容": "むつみクリニック附属デイサービス　ケアカフェ　鈴と小鳥【地域密着型通所介護】福島県福島市渡利字鳥谷下町２１-２", "url2": "https://www.kaigokensaku.mhlw.go.jp/07/index.php?action_kouhyou_detail_004_kani=true&JigyosyoCd=0790100721-00&ServiceCd=780&Type=search" }, "geometry": { "type": "Point", "coordinates": [ 140.482848, 37.7428217 ] } },
{ "type": "Feature", "properties": { "内容": "ミック健康の森　福島駅前【地域密着型通所介護】福島県福島市陣場町６－１４陣場河内ビル１階陣場河内ビル", "url2": "https://www.kaigokensaku.mhlw.go.jp/07/index.php?action_kouhyou_detail_004_kani=true&JigyosyoCd=0790101232-00&ServiceCd=780&Type=search" }, "geometry": { "type": "Point", "coordinates": [ 140.462903399999988, 37.7575037 ] } },
{ "type": "Feature", "properties": { "内容": "フクチャンち　通所介護事業所【地域密着型通所介護】福島県福島市伏拝字清水内２５番地", "url2": "https://www.kaigokensaku.mhlw.go.jp/07/index.php?action_kouhyou_detail_004_kani=true&JigyosyoCd=0770103745-00&ServiceCd=780&Type=search" }, "geometry": { "type": "Point", "coordinates": [ 140.460847599999965, 37.7218907 ] } },
{ "type": "Feature", "properties": { "内容": "せいふうケア　リハビリ・ホーム飯坂【地域密着型通所介護】福島県福島市飯坂町中野字御荷越37-1", "url2": "https://www.kaigokensaku.mhlw.go.jp/07/index.php?action_kouhyou_detail_004_kani=true&JigyosyoCd=0770104057-00&ServiceCd=780&Type=search" }, "geometry": { "type": "Point", "coordinates": [ 140.444469600000048, 37.8286036 ] } },
{ "type": "Feature", "properties": { "内容": "デイサービスセンターあずま【地域密着型通所介護】福島県福島市栄町1-28松ヶ丘ビル　2F", "url2": "https://www.kaigokensaku.mhlw.go.jp/07/index.php?action_kouhyou_detail_004_kani=true&JigyosyoCd=0770104412-00&ServiceCd=780&Type=search" }, "geometry": { "type": "Point", "coordinates": [ 140.460227258203076, 37.75667712169281 ] } },
{ "type": "Feature", "properties": { "内容": "デイサービスセンターやすらぎのとき【地域密着型通所介護】福島県福島市瀬上町字荒町74番地", "url2": "https://www.kaigokensaku.mhlw.go.jp/07/index.php?action_kouhyou_detail_004_kani=true&JigyosyoCd=0770104503-00&ServiceCd=780&Type=search" }, "geometry": { "type": "Point", "coordinates": [ 140.492314, 37.8064049 ] } },
{ "type": "Feature", "properties": { "内容": "デイサービスセンターエルタの庭【地域密着型通所介護】福島県福島市八島田字樋ノ口８０", "url2": "https://www.kaigokensaku.mhlw.go.jp/07/index.php?action_kouhyou_detail_004_kani=true&JigyosyoCd=0770105930-00&ServiceCd=780&Type=search" }, "geometry": { "type": "Point", "coordinates": [ 140.433970958860755, 37.769006018250025 ] } },
{ "type": "Feature", "properties": { "内容": "地域密着型通所介護よらんしょ【地域密着型通所介護】福島県福島市清明町１番１０号", "url2": "https://www.kaigokensaku.mhlw.go.jp/07/index.php?action_kouhyou_detail_004_kani=true&JigyosyoCd=0770103547-00&ServiceCd=780&Type=search" }, "geometry": { "type": "Point", "coordinates": [ 140.4612492, 37.7470183 ] } },
{ "type": "Feature", "properties": { "内容": "デイサービスセンターまちなか宝生園【地域密着型通所介護】福島県福島市本町4番23号", "url2": "https://www.kaigokensaku.mhlw.go.jp/07/index.php?action_kouhyou_detail_004_kani=true&JigyosyoCd=0770102721-00&ServiceCd=780&Type=search" }, "geometry": { "type": "Point", "coordinates": [ 140.4652355, 37.7523114 ] } },
{ "type": "Feature", "properties": { "内容": "デイサービスかえで【地域密着型通所介護】福島県福島市野田町4丁目2-15", "url2": "https://www.kaigokensaku.mhlw.go.jp/07/index.php?action_kouhyou_detail_004_kani=true&JigyosyoCd=0770103851-00&ServiceCd=780&Type=search" }, "geometry": { "type": "Point", "coordinates": [ 140.4516494, 37.7607126 ] } },
{ "type": "Feature", "properties": { "内容": "デイサービスおともだち【地域密着型通所介護】福島県福島市森合字台ノ前7-1いにしえの郷", "url2": "https://www.kaigokensaku.mhlw.go.jp/07/index.php?action_kouhyou_detail_004_kani=true&JigyosyoCd=0770104198-00&ServiceCd=780&Type=search" }, "geometry": { "type": "Point", "coordinates": [ 140.455251800000042, 37.765891 ] } },
{ "type": "Feature", "properties": { "内容": "リハビリデイサービスnagomi福島大森店【地域密着型通所介護】福島市大森字本町17", "url2": "https://www.kaigokensaku.mhlw.go.jp/07/index.php?action_kouhyou_detail_004_kani=true&JigyosyoCd=0770104206-00&ServiceCd=780&Type=search" }, "geometry": { "type": "Point", "coordinates": [ 140.438127300000019, 37.7286366 ] } },
{ "type": "Feature", "properties": { "内容": "福島恵風園デイサービスセンター【地域密着型通所介護】福島県福島市仁井田字龍神前２番地１", "url2": "https://www.kaigokensaku.mhlw.go.jp/07/index.php?action_kouhyou_detail_004_kani=true&JigyosyoCd=0770100808-00&ServiceCd=780&Type=search" }, "geometry": { "type": "Point", "coordinates": [ 140.427352400000018, 37.7522001 ] } },
{ "type": "Feature", "properties": { "内容": "せいふうケア　リハビリ・ホーム方木田【地域密着型通所介護】福島県福島市方木田字本方木田４８－１サザンピアⅢ", "url2": "https://www.kaigokensaku.mhlw.go.jp/07/index.php?action_kouhyou_detail_004_kani=true&JigyosyoCd=0770103653-00&ServiceCd=780&Type=search" }, "geometry": { "type": "Point", "coordinates": [ 140.454513799999972, 37.7398247 ] } },
{ "type": "Feature", "properties": { "内容": "デイサービス　リブレ松川【地域密着型通所介護】福島県福島市松川町美郷4丁目13-8", "url2": "https://www.kaigokensaku.mhlw.go.jp/07/index.php?action_kouhyou_detail_004_kani=true&JigyosyoCd=0770103919-00&ServiceCd=780&Type=search" }, "geometry": { "type": "Point", "coordinates": [ 140.4728719, 37.6657277 ] } },
{ "type": "Feature", "properties": { "内容": "地域密着型デイサービス生きがい工房ゆーあいらいふ福籠【地域密着型通所介護】福島県福島市御山字検田65-4", "url2": "https://www.kaigokensaku.mhlw.go.jp/07/index.php?action_kouhyou_detail_004_kani=true&JigyosyoCd=0770104651-00&ServiceCd=780&Type=search" }, "geometry": { "type": "Point", "coordinates": [ 140.46628110000006, 37.7771013 ] } },
{ "type": "Feature", "properties": { "内容": "リハビリデイサービスnagomi福島笹谷店【地域密着型通所介護】福島県福島市笹谷字南田1-21", "url2": "https://www.kaigokensaku.mhlw.go.jp/07/index.php?action_kouhyou_detail_004_kani=true&JigyosyoCd=0770104800-00&ServiceCd=780&Type=search" }, "geometry": { "type": "Point", "coordinates": [ 140.436214, 37.7893799 ] } },
{ "type": "Feature", "properties": { "内容": "ハッピー愛ランドやのめデイサービス【地域密着型通所介護】福島県福島市南矢野目字上戸ノ内１３－１", "url2": "https://www.kaigokensaku.mhlw.go.jp/07/index.php?action_kouhyou_detail_004_kani=true&JigyosyoCd=0770104420-00&ServiceCd=780&Type=search" }, "geometry": { "type": "Point", "coordinates": [ 140.4793628, 37.7902283 ] } },
{ "type": "Feature", "properties": { "内容": "通所介護（老人）デイサービスセンターせせらぎ【地域密着型通所介護】福島県福島市町庭坂字松ノ下９－１", "url2": "https://www.kaigokensaku.mhlw.go.jp/07/index.php?action_kouhyou_detail_004_kani=true&JigyosyoCd=0770102291-00&ServiceCd=780&Type=search" }, "geometry": { "type": "Point", "coordinates": [ 140.393716366270382, 37.769093990942338 ] } },
{ "type": "Feature", "properties": { "内容": "デイサービスセンター　愛の里【地域密着型通所介護】福島県福島市大森字街道下５３－１", "url2": "https://www.kaigokensaku.mhlw.go.jp/07/index.php?action_kouhyou_detail_004_kani=true&JigyosyoCd=0770102457-00&ServiceCd=780&Type=search" }, "geometry": { "type": "Point", "coordinates": [ 140.449303399999962, 37.7361861 ] } },
{ "type": "Feature", "properties": { "内容": "デイサービスセンターさくら館【地域密着型通所介護】福島県福島市飯坂町笠松２－７", "url2": "https://www.kaigokensaku.mhlw.go.jp/07/index.php?action_kouhyou_detail_004_kani=true&JigyosyoCd=0770102986-00&ServiceCd=780&Type=search" }, "geometry": { "type": "Point", "coordinates": [ 140.449826300000012, 37.8338786 ] } },
{ "type": "Feature", "properties": { "内容": "リハプライド郷野目【地域密着型通所介護】福島県福島市郷野目字東1-46舟山ビル", "url2": "https://www.kaigokensaku.mhlw.go.jp/07/index.php?action_kouhyou_detail_004_kani=true&JigyosyoCd=0790100879-00&ServiceCd=780&Type=search" }, "geometry": { "type": "Point", "coordinates": [ 140.460624200000012, 37.7340385 ] } },
{ "type": "Feature", "properties": { "内容": "あいの里デイサービスもものさと【地域密着型通所介護】福島県福島市小倉寺字美濃輪下1-3", "url2": "https://www.kaigokensaku.mhlw.go.jp/07/index.php?action_kouhyou_detail_004_kani=true&JigyosyoCd=0770105179-00&ServiceCd=780&Type=search" }, "geometry": { "type": "Point", "coordinates": [ 140.4743484, 37.7292095 ] } },
{ "type": "Feature", "properties": { "内容": "菜の花【地域密着型通所介護】福島県会津若松市藤原22番地の2", "url2": "https://www.kaigokensaku.mhlw.go.jp/07/index.php?action_kouhyou_detail_004_kani=true&JigyosyoCd=0790200307-00&ServiceCd=780&Type=search" }, "geometry": { "type": "Point", "coordinates": [ 139.940418602897637, 37.514861481644616 ] } },
{ "type": "Feature", "properties": { "内容": "デイサービスおら家【地域密着型通所介護】福島県会津若松市一箕町大字八角字中村東66-1", "url2": "https://www.kaigokensaku.mhlw.go.jp/07/index.php?action_kouhyou_detail_004_kani=true&JigyosyoCd=0790200489-00&ServiceCd=780&Type=search" }, "geometry": { "type": "Point", "coordinates": [ 139.9466821, 37.5043897 ] } },
{ "type": "Feature", "properties": { "内容": "デイサービスセンター縁【地域密着型通所介護】福島県会津若松市門田町大字御山字村中３４１番地の２", "url2": "https://www.kaigokensaku.mhlw.go.jp/07/index.php?action_kouhyou_detail_004_kani=true&JigyosyoCd=0790200406-00&ServiceCd=780&Type=search" }, "geometry": { "type": "Point", "coordinates": [ 139.9239632, 37.4665322 ] } },
{ "type": "Feature", "properties": { "内容": "こころのさとデイサービスセンター【地域密着型通所介護】福島県会津若松市石堂町6番30号", "url2": "https://www.kaigokensaku.mhlw.go.jp/07/index.php?action_kouhyou_detail_004_kani=true&JigyosyoCd=0770200715-00&ServiceCd=780&Type=search" }, "geometry": { "type": "Point", "coordinates": [ 139.926287099999968, 37.5112593 ] } },
{ "type": "Feature", "properties": { "内容": "デイサービス　おともだち会津【地域密着型通所介護】福島県会津若松市門田町一ノ堰字村西386-1", "url2": "https://www.kaigokensaku.mhlw.go.jp/07/index.php?action_kouhyou_detail_004_kani=true&JigyosyoCd=0770201804-00&ServiceCd=780&Type=search" }, "geometry": { "type": "Point", "coordinates": [ 139.912800823278758, 37.458440668085935 ] } },
{ "type": "Feature", "properties": { "内容": "メディカルガーデン笑-しょう【地域密着型通所介護】福島県会津若松市山見町二丁目9番地の9", "url2": "https://www.kaigokensaku.mhlw.go.jp/07/index.php?action_kouhyou_detail_004_kani=true&JigyosyoCd=0790200422-00&ServiceCd=780&Type=search" }, "geometry": { "type": "Point", "coordinates": [ 139.9414807, 37.5097569 ] } },
{ "type": "Feature", "properties": { "内容": "デイサービスセンター　みらい　東千石【地域密着型通所介護】福島県会津若松市東千石町3-4-67", "url2": "https://www.kaigokensaku.mhlw.go.jp/07/index.php?action_kouhyou_detail_004_kani=true&JigyosyoCd=0770201341-00&ServiceCd=780&Type=search" }, "geometry": { "type": "Point", "coordinates": [ 139.946633954383827, 37.49851812304172 ] } },
{ "type": "Feature", "properties": { "内容": "デイサービスセンター湊【地域密着型通所介護】福島県会津若松市湊町大字赤井字屋敷108-1", "url2": "https://www.kaigokensaku.mhlw.go.jp/07/index.php?action_kouhyou_detail_004_kani=true&JigyosyoCd=0770201986-00&ServiceCd=780&Type=search" }, "geometry": { "type": "Point", "coordinates": [ 140.017842042327885, 37.501778 ] } },
{ "type": "Feature", "properties": { "内容": "よってくなんしょ。暖らんの家【地域密着型通所介護】福島県会津若松市町北町大字藤室字横道162番地5", "url2": "https://www.kaigokensaku.mhlw.go.jp/07/index.php?action_kouhyou_detail_004_kani=true&JigyosyoCd=0770201770-00&ServiceCd=780&Type=search" }, "geometry": { "type": "Point", "coordinates": [ 139.9477627, 37.5185251 ] } },
{ "type": "Feature", "properties": { "内容": "デイサービス楽楽すみよし【地域密着型通所介護】福島県会津若松市住吉町2番3号", "url2": "https://www.kaigokensaku.mhlw.go.jp/07/index.php?action_kouhyou_detail_004_kani=true&JigyosyoCd=0770201853-00&ServiceCd=780&Type=search" }, "geometry": { "type": "Point", "coordinates": [ 139.908103799999907, 37.486417 ] } },
{ "type": "Feature", "properties": { "内容": "デイサービス温っ家（ぽっか）【地域密着型通所介護】福島県会津若松市飯寺南一丁目11番40号", "url2": "https://www.kaigokensaku.mhlw.go.jp/07/index.php?action_kouhyou_detail_004_kani=true&JigyosyoCd=0770201994-00&ServiceCd=780&Type=search" }, "geometry": { "type": "Point", "coordinates": [ 139.909067971290369, 37.473193917950745 ] } },
{ "type": "Feature", "properties": { "内容": "リハビリ専門デイサービス　ポエム開成【地域密着型通所介護】福島県郡山市台新1丁目31-3ｻﾝﾊﾟﾚｽ國分1-東号室", "url2": "https://www.kaigokensaku.mhlw.go.jp/07/index.php?action_kouhyou_detail_004_kani=true&JigyosyoCd=0790300834-00&ServiceCd=780&Type=search" }, "geometry": { "type": "Point", "coordinates": [ 140.342162645131936, 37.391524084999482 ] } },
{ "type": "Feature", "properties": { "内容": "デイサービスセンター「Carelinks荒井Take2」【地域密着型通所介護】福島県郡山市安積町荒井字大久保14-123", "url2": "https://www.kaigokensaku.mhlw.go.jp/07/index.php?action_kouhyou_detail_004_kani=true&JigyosyoCd=0770305019-00&ServiceCd=780&Type=search" }, "geometry": { "type": "Point", "coordinates": [ 140.343141800000012, 37.3765397 ] } },
{ "type": "Feature", "properties": { "内容": "介護センター風想苑【地域密着型通所介護】福島県郡山市堤二丁目１３２番地", "url2": "https://www.kaigokensaku.mhlw.go.jp/07/index.php?action_kouhyou_detail_004_kani=true&JigyosyoCd=0770303584-00&ServiceCd=780&Type=search" }, "geometry": { "type": "Point", "coordinates": [ 140.337286399999982, 37.397765900000017 ] } },
{ "type": "Feature", "properties": { "内容": "通所介護うさぎ庵【地域密着型通所介護】郡山市台新2丁目1番6号", "url2": "https://www.kaigokensaku.mhlw.go.jp/07/index.php?action_kouhyou_detail_004_kani=true&JigyosyoCd=0770303485-00&ServiceCd=780&Type=search" }, "geometry": { "type": "Point", "coordinates": [ 140.347543769533019, 37.391708748421266 ] } },
{ "type": "Feature", "properties": { "内容": "通所介護　うさぎ庵南亭【地域密着型通所介護】福島県郡山市台新2丁目14-7", "url2": "https://www.kaigokensaku.mhlw.go.jp/07/index.php?action_kouhyou_detail_004_kani=true&JigyosyoCd=0790300768-00&ServiceCd=780&Type=search" }, "geometry": { "type": "Point", "coordinates": [ 140.345925242010253, 37.388024796659117 ] } },
{ "type": "Feature", "properties": { "内容": "通所介護　うさぎ庵東亭【地域密着型通所介護】福島県郡山市鶴見坦１丁目２－２０", "url2": "https://www.kaigokensaku.mhlw.go.jp/07/index.php?action_kouhyou_detail_004_kani=true&JigyosyoCd=0790300891-00&ServiceCd=780&Type=search" }, "geometry": { "type": "Point", "coordinates": [ 140.367359, 37.3940591 ] } },
{ "type": "Feature", "properties": { "内容": "デイサービスセンターポエム郡山賀庄【地域密着型通所介護】郡山市字賀庄153-5", "url2": "https://www.kaigokensaku.mhlw.go.jp/07/index.php?action_kouhyou_detail_004_kani=true&JigyosyoCd=0770305233-00&ServiceCd=780&Type=search" }, "geometry": { "type": "Point", "coordinates": [ 140.3678531, 37.3702109 ] } },
{ "type": "Feature", "properties": { "内容": "デイサービスはなみずき大槻【地域密着型通所介護】福島県郡山市大槻町水門東2-1ケアセンターはなみずき大槻", "url2": "https://www.kaigokensaku.mhlw.go.jp/07/index.php?action_kouhyou_detail_004_kani=true&JigyosyoCd=0790300990-00&ServiceCd=780&Type=search" }, "geometry": { "type": "Point", "coordinates": [ 140.339751400000011, 37.38219 ] } },
{ "type": "Feature", "properties": { "内容": "デイサービスセンター「Carelinks開成Take1」【地域密着型通所介護】福島県郡山市開成2丁目39-14クリヤマビル1F（102・103）", "url2": "https://www.kaigokensaku.mhlw.go.jp/07/index.php?action_kouhyou_detail_004_kani=true&JigyosyoCd=0770304525-00&ServiceCd=780&Type=search" }, "geometry": { "type": "Point", "coordinates": [ 140.3551205, 37.3939324 ] } },
{ "type": "Feature", "properties": { "内容": "樹楽団らんの家　郡山大槻【地域密着型通所介護】福島県郡山市大槻町字針生前田117-3", "url2": "https://www.kaigokensaku.mhlw.go.jp/07/index.php?action_kouhyou_detail_004_kani=true&JigyosyoCd=0770304475-00&ServiceCd=780&Type=search" }, "geometry": { "type": "Point", "coordinates": [ 140.349783800000012, 37.3837812 ] } },
{ "type": "Feature", "properties": { "内容": "デイサービスセンターはなうた【地域密着型通所介護】福島県郡山市安積町日出山二丁目167番地", "url2": "https://www.kaigokensaku.mhlw.go.jp/07/index.php?action_kouhyou_detail_004_kani=true&JigyosyoCd=0770304517-00&ServiceCd=780&Type=search" }, "geometry": { "type": "Point", "coordinates": [ 140.383549233065764, 37.371406861747118 ] } },
{ "type": "Feature", "properties": { "内容": "いちかわデイサービスセンター【地域密着型通所介護】福島県郡山市小原田2丁目5番2", "url2": "https://www.kaigokensaku.mhlw.go.jp/07/index.php?action_kouhyou_detail_004_kani=true&JigyosyoCd=0790300859-00&ServiceCd=780&Type=search" }, "geometry": { "type": "Point", "coordinates": [ 140.383957, 37.382501 ] } },
{ "type": "Feature", "properties": { "内容": "デイサービスセンター夏の香【地域密着型通所介護】福島県郡山市喜久田町字松ヶ作１７番地５４", "url2": "https://www.kaigokensaku.mhlw.go.jp/07/index.php?action_kouhyou_detail_004_kani=true&JigyosyoCd=0790301048-00&ServiceCd=780&Type=search" }, "geometry": { "type": "Point", "coordinates": [ 140.3380436, 37.4389242 ] } },
{ "type": "Feature", "properties": { "内容": "デイサービスセンターいろは【地域密着型通所介護】福島県郡山市喜久田町堀之内字南椚内19-16", "url2": "https://www.kaigokensaku.mhlw.go.jp/07/index.php?action_kouhyou_detail_004_kani=true&JigyosyoCd=0790301139-00&ServiceCd=780&Type=search" }, "geometry": { "type": "Point", "coordinates": [ 140.3419945, 37.4503497 ] } },
{ "type": "Feature", "properties": { "内容": "ひでのやま機能訓練リハビリデイサービス【地域密着型通所介護】福島県郡山市安積町日出山字神明下41-1ジュネスビクトリア100号", "url2": "https://www.kaigokensaku.mhlw.go.jp/07/index.php?action_kouhyou_detail_004_kani=true&JigyosyoCd=0770304509-00&ServiceCd=780&Type=search" }, "geometry": { "type": "Point", "coordinates": [ 140.38661, 37.3659535 ] } },
{ "type": "Feature", "properties": { "内容": "リハ＆スパ郡山デイサービス２号館【地域密着型通所介護】福島県郡山市安積町日出山４丁目１１６番地", "url2": "https://www.kaigokensaku.mhlw.go.jp/07/index.php?action_kouhyou_detail_004_kani=true&JigyosyoCd=0790300982-00&ServiceCd=780&Type=search" }, "geometry": { "type": "Point", "coordinates": [ 140.3810335, 37.3687891 ] } },
{ "type": "Feature", "properties": { "内容": "デイサービス銀のつばさ【地域密着型通所介護】福島県郡山市安積荒井3丁目530番地", "url2": "https://www.kaigokensaku.mhlw.go.jp/07/index.php?action_kouhyou_detail_004_kani=true&JigyosyoCd=0790301352-00&ServiceCd=780&Type=search" }, "geometry": { "type": "Point", "coordinates": [ 140.3649643, 37.3718995 ] } },
{ "type": "Feature", "properties": { "内容": "すまいるケア大成【地域密着型通所介護】郡山市静町19-24", "url2": "https://www.kaigokensaku.mhlw.go.jp/07/index.php?action_kouhyou_detail_004_kani=true&JigyosyoCd=0790301030-00&ServiceCd=780&Type=search" }, "geometry": { "type": "Point", "coordinates": [ 140.337127500000037, 37.391727500000016 ] } },
{ "type": "Feature", "properties": { "内容": "リハビリセンターさくら・みどりが丘【地域密着型通所介護】福島県郡山市緑ヶ丘四丁目29番地14", "url2": "https://www.kaigokensaku.mhlw.go.jp/07/index.php?action_kouhyou_detail_004_kani=true&JigyosyoCd=0790301303-00&ServiceCd=780&Type=search" }, "geometry": { "type": "Point", "coordinates": [ 140.436551564153348, 37.380483894327206 ] } },
{ "type": "Feature", "properties": { "内容": "デイサービス　かりん【地域密着型通所介護】福島県郡山市大槻町字花輪３－２", "url2": "https://www.kaigokensaku.mhlw.go.jp/07/index.php?action_kouhyou_detail_004_kani=true&JigyosyoCd=0770303196-00&ServiceCd=780&Type=search" }, "geometry": { "type": "Point", "coordinates": [ 140.336417200000028, 37.3843191 ] } },
{ "type": "Feature", "properties": { "内容": "デイサービスセンター桃の花【地域密着型通所介護】福島県郡山市愛宕町7-11", "url2": "https://www.kaigokensaku.mhlw.go.jp/07/index.php?action_kouhyou_detail_004_kani=true&JigyosyoCd=0790301055-00&ServiceCd=780&Type=search" }, "geometry": { "type": "Point", "coordinates": [ 140.3743615, 37.3869876 ] } },
{ "type": "Feature", "properties": { "内容": "デイサービスセンターこのは【地域密着型通所介護】希望ヶ丘14-3市営希望ヶ丘住宅1-5棟店舗", "url2": "https://www.kaigokensaku.mhlw.go.jp/07/index.php?action_kouhyou_detail_004_kani=true&JigyosyoCd=0790301279-00&ServiceCd=780&Type=search" }, "geometry": { "type": "Point", "coordinates": [ 138.8130143, 37.4471315 ] } },
{ "type": "Feature", "properties": { "内容": "ホームデイサービス大槻【地域密着型通所介護】郡山市大槻町字北中野30-2", "url2": "https://www.kaigokensaku.mhlw.go.jp/07/index.php?action_kouhyou_detail_004_kani=true&JigyosyoCd=0770304236-00&ServiceCd=780&Type=search" }, "geometry": { "type": "Point", "coordinates": [ 140.329235412860982, 37.392849253836367 ] } },
{ "type": "Feature", "properties": { "内容": "デイセンター悠【地域密着型通所介護】堤二丁目132番地", "url2": "https://www.kaigokensaku.mhlw.go.jp/07/index.php?action_kouhyou_detail_004_kani=true&JigyosyoCd=0790301212-00&ServiceCd=780&Type=search" }, "geometry": { "type": "Point", "coordinates": [ 140.3374792, 37.3977199 ] } },
{ "type": "Feature", "properties": { "内容": "太田小磯デイサービスセンター【地域密着型通所介護】福島県郡山市湖南町舟津字小磯5112番地1", "url2": "https://www.kaigokensaku.mhlw.go.jp/07/index.php?action_kouhyou_detail_004_kani=true&JigyosyoCd=0770301315-00&ServiceCd=780&Type=search" }, "geometry": { "type": "Point", "coordinates": [ 140.116342499999973, 37.4126407 ] } },
{ "type": "Feature", "properties": { "内容": "太田デイサービスセンター【地域密着型通所介護】福島県郡山市深沢2-3-1", "url2": "https://www.kaigokensaku.mhlw.go.jp/07/index.php?action_kouhyou_detail_004_kani=true&JigyosyoCd=0790301311-00&ServiceCd=780&Type=search" }, "geometry": { "type": "Point", "coordinates": [ 140.371527220237709, 37.390597498115433 ] } },
{ "type": "Feature", "properties": { "内容": "ケアセンターきらきら【地域密着型通所介護】福島県郡山市安積町日出山三丁目２６７番地", "url2": "https://www.kaigokensaku.mhlw.go.jp/07/index.php?action_kouhyou_detail_004_kani=true&JigyosyoCd=0770302495-00&ServiceCd=780&Type=search" }, "geometry": { "type": "Point", "coordinates": [ 140.377866499999982, 37.3665801 ] } },
{ "type": "Feature", "properties": { "内容": "明徳館リハビリデイセンターおおつき【地域密着型通所介護】福島県郡山市大槻町字原ノ町1-2", "url2": "https://www.kaigokensaku.mhlw.go.jp/07/index.php?action_kouhyou_detail_004_kani=true&JigyosyoCd=0770305316-00&ServiceCd=780&Type=search" }, "geometry": { "type": "Point", "coordinates": [ 140.319626800000037, 37.3933731 ] } },
{ "type": "Feature", "properties": { "内容": "介護センターお花畑おおつき【地域密着型通所介護】福島県郡山市大槻町北中野22-3", "url2": "https://www.kaigokensaku.mhlw.go.jp/07/index.php?action_kouhyou_detail_004_kani=true&JigyosyoCd=0790301097-00&ServiceCd=780&Type=search" }, "geometry": { "type": "Point", "coordinates": [ 140.329131, 37.3917669 ] } },
{ "type": "Feature", "properties": { "内容": "コンパスウォークお花畑【地域密着型通所介護】福島県郡山市熱海町熱海１丁目２００", "url2": "https://www.kaigokensaku.mhlw.go.jp/07/index.php?action_kouhyou_detail_004_kani=true&JigyosyoCd=0790301246-00&ServiceCd=780&Type=search" }, "geometry": { "type": "Point", "coordinates": [ 140.272749299999987, 37.4831309 ] } },
{ "type": "Feature", "properties": { "内容": "すまいるケア【地域密着型通所介護】福島県郡山市中野2丁目161", "url2": "https://www.kaigokensaku.mhlw.go.jp/07/index.php?action_kouhyou_detail_004_kani=true&JigyosyoCd=0770304848-00&ServiceCd=780&Type=search" }, "geometry": { "type": "Point", "coordinates": [ 140.3297291, 37.3892171 ] } },
{ "type": "Feature", "properties": { "内容": "すまいるケア安積【地域密着型通所介護】郡山市安積町南長久保1丁目１４－２", "url2": "https://www.kaigokensaku.mhlw.go.jp/07/index.php?action_kouhyou_detail_004_kani=true&JigyosyoCd=0790300669-00&ServiceCd=780&Type=search" }, "geometry": { "type": "Point", "coordinates": [ 140.354332699999986, 37.3551548 ] } },
{ "type": "Feature", "properties": { "内容": "半日型デイサービスいろどり【地域密着型通所介護】福島県郡山市若葉町15-5　若葉ビル1F", "url2": "https://www.kaigokensaku.mhlw.go.jp/07/index.php?action_kouhyou_detail_004_kani=true&JigyosyoCd=0790301162-00&ServiceCd=780&Type=search" }, "geometry": { "type": "Point", "coordinates": [ 140.3815378, 37.4054275 ] } },
{ "type": "Feature", "properties": { "内容": "郡山三穂田温泉デイサービスセンター【地域密着型通所介護】福島県郡山市三穂田町富岡字本郷62-1", "url2": "https://www.kaigokensaku.mhlw.go.jp/07/index.php?action_kouhyou_detail_004_kani=true&JigyosyoCd=0770304418-00&ServiceCd=780&Type=search" }, "geometry": { "type": "Point", "coordinates": [ 140.274666700000012, 37.3509038 ] } },
{ "type": "Feature", "properties": { "内容": "なべちゃんデイサービス【地域密着型通所介護】福島県郡山市安積町荒井字柴宮山43-6", "url2": "https://www.kaigokensaku.mhlw.go.jp/07/index.php?action_kouhyou_detail_004_kani=true&JigyosyoCd=0770304806-00&ServiceCd=780&Type=search" }, "geometry": { "type": "Point", "coordinates": [ 140.3380257, 37.376278500000019 ] } },
{ "type": "Feature", "properties": { "内容": "明徳館リハビリデイセンター【地域密着型通所介護】福島県郡山市鶴見担1丁目12-4", "url2": "https://www.kaigokensaku.mhlw.go.jp/07/index.php?action_kouhyou_detail_004_kani=true&JigyosyoCd=0770304699-00&ServiceCd=780&Type=search" }, "geometry": { "type": "Point", "coordinates": [ 140.362801499999989, 37.3943567 ] } },
{ "type": "Feature", "properties": { "内容": "デイサービスセンターみほた【地域密着型通所介護】福島県郡山市三穂田町鍋山字前原250番地の2", "url2": "https://www.kaigokensaku.mhlw.go.jp/07/index.php?action_kouhyou_detail_004_kani=true&JigyosyoCd=0770302164-00&ServiceCd=780&Type=search" }, "geometry": { "type": "Point", "coordinates": [ 140.281364, 37.3384887 ] } },
{ "type": "Feature", "properties": { "内容": "郡山ケアセンターそよ風【地域密着型通所介護】福島県郡山市大槻町字弥八池南14-1", "url2": "https://www.kaigokensaku.mhlw.go.jp/07/index.php?action_kouhyou_detail_004_kani=true&JigyosyoCd=0790301329-00&ServiceCd=780&Type=search" }, "geometry": { "type": "Point", "coordinates": [ 140.3443689, 37.3865971 ] } },
{ "type": "Feature", "properties": { "内容": "花風デイサービスセンター【地域密着型通所介護】福島県郡山市東原1-258", "url2": "https://www.kaigokensaku.mhlw.go.jp/07/index.php?action_kouhyou_detail_004_kani=true&JigyosyoCd=0770304962-00&ServiceCd=780&Type=search" }, "geometry": { "type": "Point", "coordinates": [ 140.351279009507579, 37.430638027927763 ] } },
{ "type": "Feature", "properties": { "内容": "デイサービスセンター　カーサ・ミッレ【地域密着型通所介護】福島県郡山市安積町笹川字西宿77", "url2": "https://www.kaigokensaku.mhlw.go.jp/07/index.php?action_kouhyou_detail_004_kani=true&JigyosyoCd=0790300826-00&ServiceCd=780&Type=search" }, "geometry": { "type": "Point", "coordinates": [ 140.363640830688496, 37.349626557742077 ] } },
{ "type": "Feature", "properties": { "内容": "デイサービス五色【地域密着型通所介護】福島県郡山市富田町日吉ヶ丘180", "url2": "https://www.kaigokensaku.mhlw.go.jp/07/index.php?action_kouhyou_detail_004_kani=true&JigyosyoCd=0770305027-00&ServiceCd=780&Type=search" }, "geometry": { "type": "Point", "coordinates": [ 140.3511532, 37.4257625 ] } },
{ "type": "Feature", "properties": { "内容": "ポラリスデイサービスセンター富田【地域密着型通所介護】福島県郡山市新屋敷2-54-2", "url2": "https://www.kaigokensaku.mhlw.go.jp/07/index.php?action_kouhyou_detail_004_kani=true&JigyosyoCd=0790300800-00&ServiceCd=780&Type=search" }, "geometry": { "type": "Point", "coordinates": [ 140.3533649, 37.4182655 ] } },
{ "type": "Feature", "properties": { "内容": "福寿リハビリ介護ステーション【地域密着型通所介護】郡山市並木3丁目３番地２６", "url2": "https://www.kaigokensaku.mhlw.go.jp/07/index.php?action_kouhyou_detail_004_kani=true&JigyosyoCd=0790301121-00&ServiceCd=780&Type=search" }, "geometry": { "type": "Point", "coordinates": [ 140.359278499999988, 37.409458 ] } },
{ "type": "Feature", "properties": { "内容": "うねめの里デイサービスえみふる【地域密着型通所介護】福島県郡山市片平町字妙見舘１番地２", "url2": "https://www.kaigokensaku.mhlw.go.jp/07/index.php?action_kouhyou_detail_004_kani=true&JigyosyoCd=0770303840-00&ServiceCd=780&Type=search" }, "geometry": { "type": "Point", "coordinates": [ 140.31717608829112, 37.434779630966077 ] } },
{ "type": "Feature", "properties": { "内容": "今泉デイサービス【地域密着型通所介護】福島県郡山市静西1丁目288サービス付き高齢者向け住宅遊間亭", "url2": "https://www.kaigokensaku.mhlw.go.jp/07/index.php?action_kouhyou_detail_004_kani=true&JigyosyoCd=0770303881-00&ServiceCd=780&Type=search" }, "geometry": { "type": "Point", "coordinates": [ 140.329920499999957, 37.3877269 ] } },
{ "type": "Feature", "properties": { "内容": "さかえデイサービスセンター【地域密着型通所介護】郡山市横塚2-18-7", "url2": "https://www.kaigokensaku.mhlw.go.jp/07/index.php?action_kouhyou_detail_004_kani=true&JigyosyoCd=0790301287-00&ServiceCd=780&Type=search" }, "geometry": { "type": "Point", "coordinates": [ 140.4007365, 37.3972458 ] } },
{ "type": "Feature", "properties": { "内容": "ここいろday【地域密着型通所介護】福島県郡山市巳六段173", "url2": "https://www.kaigokensaku.mhlw.go.jp/07/index.php?action_kouhyou_detail_004_kani=true&JigyosyoCd=0790301295-00&ServiceCd=780&Type=search" }, "geometry": { "type": "Point", "coordinates": [ 140.3531185, 37.3729984 ] } },
{ "type": "Feature", "properties": { "内容": "すずのねデイサービス【地域密着型通所介護】福島県郡山市安積町笹川字経蔵43", "url2": "https://www.kaigokensaku.mhlw.go.jp/07/index.php?action_kouhyou_detail_004_kani=true&JigyosyoCd=0790300974-00&ServiceCd=780&Type=search" }, "geometry": { "type": "Point", "coordinates": [ 140.37014210000001, 37.346015323203758 ] } },
{ "type": "Feature", "properties": { "内容": "デイサービスほたるの里【地域密着型通所介護】福島県郡山市鳴神3丁目187ＢＥＥハウス77-1Ｆ", "url2": "https://www.kaigokensaku.mhlw.go.jp/07/index.php?action_kouhyou_detail_004_kani=true&JigyosyoCd=0770303709-00&ServiceCd=780&Type=search" }, "geometry": { "type": "Point", "coordinates": [ 140.3355947, 37.3924987 ] } },
{ "type": "Feature", "properties": { "内容": "樹楽団らんの家郡山萌【地域密着型通所介護】福島県郡山市亀田1丁目15番1号", "url2": "https://www.kaigokensaku.mhlw.go.jp/07/index.php?action_kouhyou_detail_004_kani=true&JigyosyoCd=0770303980-00&ServiceCd=780&Type=search" }, "geometry": { "type": "Point", "coordinates": [ 140.3481845, 37.4025058 ] } },
{ "type": "Feature", "properties": { "内容": "樹楽団らんの家郡山歩【地域密着型通所介護】福島県郡山市亀田一丁目24番19号", "url2": "https://www.kaigokensaku.mhlw.go.jp/07/index.php?action_kouhyou_detail_004_kani=true&JigyosyoCd=0770304889-00&ServiceCd=780&Type=search" }, "geometry": { "type": "Point", "coordinates": [ 140.3466818, 37.4014293 ] } },
{ "type": "Feature", "properties": { "内容": "樹楽団らんの家郡山結【地域密着型通所介護】福島県郡山市亀田1丁目24番10号", "url2": "https://www.kaigokensaku.mhlw.go.jp/07/index.php?action_kouhyou_detail_004_kani=true&JigyosyoCd=0790300917-00&ServiceCd=780&Type=search" }, "geometry": { "type": "Point", "coordinates": [ 140.346552747885141, 37.401412558269811 ] } },
{ "type": "Feature", "properties": { "内容": "リハ＆スパ郡山デイサービス【地域密着型通所介護】福島県郡山市小原田5丁目21-18", "url2": "https://www.kaigokensaku.mhlw.go.jp/07/index.php?action_kouhyou_detail_004_kani=true&JigyosyoCd=0790300909-00&ServiceCd=780&Type=search" }, "geometry": { "type": "Point", "coordinates": [ 140.382049700000039, 37.376427899999989 ] } },
{ "type": "Feature", "properties": { "内容": "リハ＆スパ郡山デイサービス3号館【地域密着型通所介護】福島県郡山市八山田1丁目2-2ロイヤル八山田1F", "url2": "https://www.kaigokensaku.mhlw.go.jp/07/index.php?action_kouhyou_detail_004_kani=true&JigyosyoCd=0790301196-00&ServiceCd=780&Type=search" }, "geometry": { "type": "Point", "coordinates": [ 140.373015, 37.4241308 ] } },
{ "type": "Feature", "properties": { "内容": "みやびデイサービス【地域密着型通所介護】福島県いわき市四倉町上仁井田字南浜37-7", "url2": "https://www.kaigokensaku.mhlw.go.jp/07/index.php?action_kouhyou_detail_004_kani=true&JigyosyoCd=0770406148-00&ServiceCd=780&Type=search" }, "geometry": { "type": "Point", "coordinates": [ 140.979091499999981, 37.0933444 ] } },
{ "type": "Feature", "properties": { "内容": "ホームケアセンター平新川町【地域密着型通所介護】福島県いわき市平字新川町17番地", "url2": "https://www.kaigokensaku.mhlw.go.jp/07/index.php?action_kouhyou_detail_004_kani=true&JigyosyoCd=0770406734-00&ServiceCd=780&Type=search" }, "geometry": { "type": "Point", "coordinates": [ 140.896583399336208, 37.054448481145016 ] } },
{ "type": "Feature", "properties": { "内容": "ひろむ整骨院リハビリデイサービス【地域密着型通所介護】福島県いわき市小名浜字定西58-1", "url2": "https://www.kaigokensaku.mhlw.go.jp/07/index.php?action_kouhyou_detail_004_kani=true&JigyosyoCd=0770406593-00&ServiceCd=780&Type=search" }, "geometry": { "type": "Point", "coordinates": [ 140.899809650926215, 36.950232503051609 ] } },
{ "type": "Feature", "properties": { "内容": "デイサービス憩の郷【地域密着型通所介護】福島県いわき市平中神谷字六本榎17-1", "url2": "https://www.kaigokensaku.mhlw.go.jp/07/index.php?action_kouhyou_detail_004_kani=true&JigyosyoCd=0770406510-00&ServiceCd=780&Type=search" }, "geometry": { "type": "Point", "coordinates": [ 140.92572045064847, 37.062984050936763 ] } },
{ "type": "Feature", "properties": { "内容": "ヒロコーポレーション(株)【地域密着型通所介護】福島県いわき市平下高久字八幡１１－１", "url2": "https://www.kaigokensaku.mhlw.go.jp/07/index.php?action_kouhyou_detail_004_kani=true&JigyosyoCd=0770404499-00&ServiceCd=780&Type=search" }, "geometry": { "type": "Point", "coordinates": [ 140.9605334, 37.0240174 ] } },
{ "type": "Feature", "properties": { "内容": "デイサービス　るんるん【地域密着型通所介護】福島県いわき市平字堂ノ前19-4", "url2": "https://www.kaigokensaku.mhlw.go.jp/07/index.php?action_kouhyou_detail_004_kani=true&JigyosyoCd=0790401442-00&ServiceCd=780&Type=search" }, "geometry": { "type": "Point", "coordinates": [ 140.8857983, 37.0531274 ] } },
{ "type": "Feature", "properties": { "内容": "にこにこリハビリクラブ【地域密着型通所介護】勿来町窪田万谷41－5", "url2": "https://www.kaigokensaku.mhlw.go.jp/07/index.php?action_kouhyou_detail_004_kani=true&JigyosyoCd=0770406791-00&ServiceCd=780&Type=search" }, "geometry": { "type": "Point", "coordinates": [ 140.758831485249999, 36.895331513335528 ] } },
{ "type": "Feature", "properties": { "内容": "デイサービスセンターひとと樹【地域密着型通所介護】福島県いわき市平下荒川字諏訪下４３番地", "url2": "https://www.kaigokensaku.mhlw.go.jp/07/index.php?action_kouhyou_detail_004_kani=true&JigyosyoCd=0770405025-00&ServiceCd=780&Type=search" }, "geometry": { "type": "Point", "coordinates": [ 140.906671599999981, 37.0258292 ] } },
{ "type": "Feature", "properties": { "内容": "スマイルデイサービス【地域密着型通所介護】福島県いわき市内郷高野町番所１１３－３", "url2": "https://www.kaigokensaku.mhlw.go.jp/07/index.php?action_kouhyou_detail_004_kani=true&JigyosyoCd=0770406502-00&ServiceCd=780&Type=search" }, "geometry": { "type": "Point", "coordinates": [ 140.796144700000013, 37.0482452 ] } },
{ "type": "Feature", "properties": { "内容": "デイサービス　えんむすび【地域密着型通所介護】久之浜町久之浜字猫作14-2", "url2": "https://www.kaigokensaku.mhlw.go.jp/07/index.php?action_kouhyou_detail_004_kani=true&JigyosyoCd=0790401400-00&ServiceCd=780&Type=search" }, "geometry": { "type": "Point", "coordinates": [ 140.994887299999988, 37.1392223 ] } },
{ "type": "Feature", "properties": { "内容": "月のうさぎデイサービス【地域密着型通所介護】福島県いわき市郷ケ丘2-17-10", "url2": "https://www.kaigokensaku.mhlw.go.jp/07/index.php?action_kouhyou_detail_004_kani=true&JigyosyoCd=0770406205-00&ServiceCd=780&Type=search" }, "geometry": { "type": "Point", "coordinates": [ 140.905491100000063, 37.0273706 ] } },
{ "type": "Feature", "properties": { "内容": "ケアセンターよろこび【地域密着型通所介護】福島県いわき市金山町朝日台１３２番地", "url2": "https://www.kaigokensaku.mhlw.go.jp/07/index.php?action_kouhyou_detail_004_kani=true&JigyosyoCd=0770402188-00&ServiceCd=780&Type=search" }, "geometry": { "type": "Point", "coordinates": [ 140.8233136, 36.9289064 ] } },
{ "type": "Feature", "properties": { "内容": "ヘルパーステーション小川　ひまわり【地域密着型通所介護】福島県いわき市小川町福岡字飯森３７－１", "url2": "https://www.kaigokensaku.mhlw.go.jp/07/index.php?action_kouhyou_detail_004_kani=true&JigyosyoCd=0770405439-00&ServiceCd=780&Type=search" }, "geometry": { "type": "Point", "coordinates": [ 140.851455900000019, 37.1399776 ] } },
{ "type": "Feature", "properties": { "内容": "スマートエイジングサロンまごの手【地域密着型通所介護】福島県いわき市常磐湯本町宝海127-5", "url2": "https://www.kaigokensaku.mhlw.go.jp/07/index.php?action_kouhyou_detail_004_kani=true&JigyosyoCd=0790401012-00&ServiceCd=780&Type=search" }, "geometry": { "type": "Point", "coordinates": [ 140.838677100000041, 37.0143296 ] } },
{ "type": "Feature", "properties": { "内容": "デイサービス　プアラ【地域密着型通所介護】内郷御厩町1丁目199-2", "url2": "https://www.kaigokensaku.mhlw.go.jp/07/index.php?action_kouhyou_detail_004_kani=true&JigyosyoCd=0790401145-00&ServiceCd=780&Type=search" }, "geometry": { "type": "Point", "coordinates": [ 140.8677563, 37.0455031 ] } },
{ "type": "Feature", "properties": { "内容": "あいデイサービスセンター【地域密着型通所介護】福島県いわき市勿来町関田南町２８番地", "url2": "https://www.kaigokensaku.mhlw.go.jp/07/index.php?action_kouhyou_detail_004_kani=true&JigyosyoCd=0770403715-00&ServiceCd=780&Type=search" }, "geometry": { "type": "Point", "coordinates": [ 140.790011700000036, 36.8803445 ] } },
{ "type": "Feature", "properties": { "内容": "有限会社泉町三丁目ヘルパーステーション【地域密着型通所介護】福島県いわき市泉町三丁目６番地の６", "url2": "https://www.kaigokensaku.mhlw.go.jp/07/index.php?action_kouhyou_detail_004_kani=true&JigyosyoCd=0770401354-00&ServiceCd=780&Type=search" }, "geometry": { "type": "Point", "coordinates": [ 140.855930899999947, 36.9504917 ] } },
{ "type": "Feature", "properties": { "内容": "デイサービスセンターしおさいの丘【地域密着型通所介護】福島県いわき市平沼ノ内諏訪原二丁目５－７", "url2": "https://www.kaigokensaku.mhlw.go.jp/07/index.php?action_kouhyou_detail_004_kani=true&JigyosyoCd=0770402196-00&ServiceCd=780&Type=search" }, "geometry": { "type": "Point", "coordinates": [ 140.969894299999964, 37.0163097 ] } },
{ "type": "Feature", "properties": { "内容": "リフレ＆スパ　さはこ【地域密着型通所介護】福島県いわき市常磐湯本町三函91番地の1", "url2": "https://www.kaigokensaku.mhlw.go.jp/07/index.php?action_kouhyou_detail_004_kani=true&JigyosyoCd=0790401319-00&ServiceCd=780&Type=search" }, "geometry": { "type": "Point", "coordinates": [ 140.845785457286098, 37.012525479169405 ] } },
{ "type": "Feature", "properties": { "内容": "デイサービス　まごころの家　小名浜【地域密着型通所介護】福島県いわき市小名浜大原小滝町14-4", "url2": "https://www.kaigokensaku.mhlw.go.jp/07/index.php?action_kouhyou_detail_004_kani=true&JigyosyoCd=0770407294-00&ServiceCd=780&Type=search" }, "geometry": { "type": "Point", "coordinates": [ 140.895196, 36.9648604 ] } },
{ "type": "Feature", "properties": { "内容": "デイサービス　まごころの家　泉【地域密着型通所介護】福島県いわき市泉町滝尻２－６－３", "url2": "https://www.kaigokensaku.mhlw.go.jp/07/index.php?action_kouhyou_detail_004_kani=true&JigyosyoCd=0790400865-00&ServiceCd=780&Type=search" }, "geometry": { "type": "Point", "coordinates": [ 140.859696699999972, 36.9557217 ] } },
{ "type": "Feature", "properties": { "内容": "デイサービス　まごころの家　湯本【地域密着型通所介護】福島県いわき市常磐下湯長谷町３－２１", "url2": "https://www.kaigokensaku.mhlw.go.jp/07/index.php?action_kouhyou_detail_004_kani=true&JigyosyoCd=0790401392-00&ServiceCd=780&Type=search" }, "geometry": { "type": "Point", "coordinates": [ 140.8552192, 36.9889896 ] } },
{ "type": "Feature", "properties": { "内容": "あいりすデイサービスセンター金山【地域密着型通所介護】福島県いわき市金山町南台１６１番地の１", "url2": "https://www.kaigokensaku.mhlw.go.jp/07/index.php?action_kouhyou_detail_004_kani=true&JigyosyoCd=0790401061-00&ServiceCd=780&Type=search" }, "geometry": { "type": "Point", "coordinates": [ 140.81845, 36.9255122 ] } },
{ "type": "Feature", "properties": { "内容": "翠祥園デイサービスセンター【地域密着型通所介護】福島県いわき市久之浜町末続字深谷３３－１", "url2": "https://www.kaigokensaku.mhlw.go.jp/07/index.php?action_kouhyou_detail_004_kani=true&JigyosyoCd=0770400588-00&ServiceCd=780&Type=search" }, "geometry": { "type": "Point", "coordinates": [ 140.999514699999963, 37.1667593 ] } },
{ "type": "Feature", "properties": { "内容": "レッツ倶楽部いわき郷ヶ丘【地域密着型通所介護】福島県いわき市郷ヶ丘2丁目11-1", "url2": "https://www.kaigokensaku.mhlw.go.jp/07/index.php?action_kouhyou_detail_004_kani=true&JigyosyoCd=0790400857-00&ServiceCd=780&Type=search" }, "geometry": { "type": "Point", "coordinates": [ 140.9058877, 37.0277402 ] } },
{ "type": "Feature", "properties": { "内容": "デイサービスセンターいちごいち笑【地域密着型通所介護】いわき市平中神谷字南鳥沼27", "url2": "https://www.kaigokensaku.mhlw.go.jp/07/index.php?action_kouhyou_detail_004_kani=true&JigyosyoCd=0790401335-00&ServiceCd=780&Type=search" }, "geometry": { "type": "Point", "coordinates": [ 140.934642700000012, 37.0633103 ] } },
{ "type": "Feature", "properties": { "内容": "レッツ倶楽部いわき　平窪【地域密着型通所介護】福島県いわき市平下平窪２丁目１−９", "url2": "https://www.kaigokensaku.mhlw.go.jp/07/index.php?action_kouhyou_detail_004_kani=true&JigyosyoCd=0770407146-00&ServiceCd=780&Type=search" }, "geometry": { "type": "Point", "coordinates": [ 140.8820796, 37.0752023 ] } },
{ "type": "Feature", "properties": { "内容": "レッツ倶楽部いわき　湯本【地域密着型通所介護】福島県いわき市常磐上湯長谷町五反田85-3", "url2": "https://www.kaigokensaku.mhlw.go.jp/07/index.php?action_kouhyou_detail_004_kani=true&JigyosyoCd=0770407781-00&ServiceCd=780&Type=search" }, "geometry": { "type": "Point", "coordinates": [ 140.84108040000001, 36.9983073 ] } },
{ "type": "Feature", "properties": { "内容": "レッツ倶楽部いわき泉【地域密着型通所介護】福島県いわき市泉町本谷字大田20-1", "url2": "https://www.kaigokensaku.mhlw.go.jp/07/index.php?action_kouhyou_detail_004_kani=true&JigyosyoCd=0790400931-00&ServiceCd=780&Type=search" }, "geometry": { "type": "Point", "coordinates": [ 140.8713851, 36.9680625 ] } },
{ "type": "Feature", "properties": { "内容": "社会福祉法人双葉町社会福祉協議会指定地域密着型通所介護事業所【地域密着型通所介護】福島県いわき市勿来町酒井青柳14-5双葉町サポートセンターひだまり", "url2": "https://www.kaigokensaku.mhlw.go.jp/07/index.php?action_kouhyou_detail_004_kani=true&JigyosyoCd=0793250028-00&ServiceCd=780&Type=search" }, "geometry": { "type": "Point", "coordinates": [ 140.755743558197054, 36.890366277375854 ] } },
{ "type": "Feature", "properties": { "内容": "くすりのまるとりはびりすてーしょんなこそ【地域密着型通所介護】福島県いわき市錦町重殿３０番地の５", "url2": "https://www.kaigokensaku.mhlw.go.jp/07/index.php?action_kouhyou_detail_004_kani=true&JigyosyoCd=0770407344-00&ServiceCd=780&Type=search" }, "geometry": { "type": "Point", "coordinates": [ 140.781827900000053, 36.8927951 ] } },
{ "type": "Feature", "properties": { "内容": "だいせんデイサービス平【地域密着型通所介護】福島県いわき市明治団地66-4", "url2": "https://www.kaigokensaku.mhlw.go.jp/07/index.php?action_kouhyou_detail_004_kani=true&JigyosyoCd=0770406858-00&ServiceCd=780&Type=search" }, "geometry": { "type": "Point", "coordinates": [ 140.8907924, 37.0419737 ] } },
{ "type": "Feature", "properties": { "内容": "だいせんデイサービス小名浜【地域密着型通所介護】福島県いわき市小名浜寺廻町13－14", "url2": "https://www.kaigokensaku.mhlw.go.jp/07/index.php?action_kouhyou_detail_004_kani=true&JigyosyoCd=0770406635-00&ServiceCd=780&Type=search" }, "geometry": { "type": "Point", "coordinates": [ 140.899116464418057, 36.951758326138012 ] } },
{ "type": "Feature", "properties": { "内容": "だいせんデイサービス湯本【地域密着型通所介護】福島県いわき市常磐湯本町天神48番地4", "url2": "https://www.kaigokensaku.mhlw.go.jp/07/index.php?action_kouhyou_detail_004_kani=true&JigyosyoCd=0770407427-00&ServiceCd=780&Type=search" }, "geometry": { "type": "Point", "coordinates": [ 140.83216360000003, 37.016468 ] } },
{ "type": "Feature", "properties": { "内容": "くすりのマルトリハビリステーション小名浜【地域密着型通所介護】福島県いわき市小名浜林城字辻前3番地2", "url2": "https://www.kaigokensaku.mhlw.go.jp/07/index.php?action_kouhyou_detail_004_kani=true&JigyosyoCd=0790400980-00&ServiceCd=780&Type=search" }, "geometry": { "type": "Point", "coordinates": [ 140.898239, 36.9599119 ] } },
{ "type": "Feature", "properties": { "内容": "江名の家【地域密着型通所介護】福島県いわき市江名字荻ノ作１４６", "url2": "https://www.kaigokensaku.mhlw.go.jp/07/index.php?action_kouhyou_detail_004_kani=true&JigyosyoCd=0770402774-00&ServiceCd=780&Type=search" }, "geometry": { "type": "Point", "coordinates": [ 140.957113599999957, 36.9730868 ] } },
{ "type": "Feature", "properties": { "内容": "みなとの家【地域密着型通所介護】福島県いわき市江名字北町１２２－１", "url2": "https://www.kaigokensaku.mhlw.go.jp/07/index.php?action_kouhyou_detail_004_kani=true&JigyosyoCd=0770403491-00&ServiceCd=780&Type=search" }, "geometry": { "type": "Point", "coordinates": [ 140.957723843902585, 36.971272329167519 ] } },
{ "type": "Feature", "properties": { "内容": "くすりのマルトリハビリステーション内郷【地域密着型通所介護】福島県いわき市内郷綴町七反田52番地の10", "url2": "https://www.kaigokensaku.mhlw.go.jp/07/index.php?action_kouhyou_detail_004_kani=true&JigyosyoCd=0770407310-00&ServiceCd=780&Type=search" }, "geometry": { "type": "Point", "coordinates": [ 140.85184328282017, 37.031484026470814 ] } },
{ "type": "Feature", "properties": { "内容": "吉田家具店デイサービス未来中岡【地域密着型通所介護】福島県いわき市中岡町5-7-28", "url2": "https://www.kaigokensaku.mhlw.go.jp/07/index.php?action_kouhyou_detail_004_kani=true&JigyosyoCd=0770407369-00&ServiceCd=780&Type=search" }, "geometry": { "type": "Point", "coordinates": [ 140.7826701, 36.9180808 ] } },
{ "type": "Feature", "properties": { "内容": "デイサービスセンターひだまり２【地域密着型通所介護】福島県いわき市泉もえぎ台二丁目２３番地の６", "url2": "https://www.kaigokensaku.mhlw.go.jp/07/index.php?action_kouhyou_detail_004_kani=true&JigyosyoCd=0770403863-00&ServiceCd=780&Type=search" }, "geometry": { "type": "Point", "coordinates": [ 140.84462110000004, 36.9492108 ] } },
{ "type": "Feature", "properties": { "内容": "デイサービスセンターひだまり３【地域密着型通所介護】福島県いわき市泉もえぎ台二丁目２３番地の６", "url2": "https://www.kaigokensaku.mhlw.go.jp/07/index.php?action_kouhyou_detail_004_kani=true&JigyosyoCd=0770403871-00&ServiceCd=780&Type=search" }, "geometry": { "type": "Point", "coordinates": [ 140.84462110000004, 36.9492108 ] } },
{ "type": "Feature", "properties": { "内容": "アマユデイサービス【地域密着型通所介護】福島県いわき市佐糠町碇田67番地の1", "url2": "https://www.kaigokensaku.mhlw.go.jp/07/index.php?action_kouhyou_detail_004_kani=true&JigyosyoCd=0770407740-00&ServiceCd=780&Type=search" }, "geometry": { "type": "Point", "coordinates": [ 140.803992194512148, 36.916138585372714 ] } },
{ "type": "Feature", "properties": { "内容": "ののいデイサービス【地域密着型通所介護】福島県いわき市泉町二丁目２－１０", "url2": "https://www.kaigokensaku.mhlw.go.jp/07/index.php?action_kouhyou_detail_004_kani=true&JigyosyoCd=0790401384-00&ServiceCd=780&Type=search" }, "geometry": { "type": "Point", "coordinates": [ 140.8506142, 36.9535524 ] } },
{ "type": "Feature", "properties": { "内容": "I-stepテラスかべや【地域密着型通所介護】福島県いわき市平下神谷字内宿87-4", "url2": "https://www.kaigokensaku.mhlw.go.jp/07/index.php?action_kouhyou_detail_004_kani=true&JigyosyoCd=0790401525-00&ServiceCd=780&Type=search" }, "geometry": { "type": "Point", "coordinates": [ 140.949866500000013, 37.0710698 ] } },
{ "type": "Feature", "properties": { "内容": "デイサービス処あしび【地域密着型通所介護】福島県いわき市小名浜諏訪町26番地の1", "url2": "https://www.kaigokensaku.mhlw.go.jp/07/index.php?action_kouhyou_detail_004_kani=true&JigyosyoCd=0770406411-00&ServiceCd=780&Type=search" }, "geometry": { "type": "Point", "coordinates": [ 140.907835500000033, 36.9544074 ] } },
{ "type": "Feature", "properties": { "内容": "デイサービス心【地域密着型通所介護】福島県いわき市鹿島町久保一丁目８番地の４", "url2": "https://www.kaigokensaku.mhlw.go.jp/07/index.php?action_kouhyou_detail_004_kani=true&JigyosyoCd=0790401418-00&ServiceCd=780&Type=search" }, "geometry": { "type": "Point", "coordinates": [ 140.904796, 36.9909436 ] } },
{ "type": "Feature", "properties": { "内容": "すみれデイサービス【地域密着型通所介護】福島県いわき市内郷御厩町４丁目１番地", "url2": "https://www.kaigokensaku.mhlw.go.jp/07/index.php?action_kouhyou_detail_004_kani=true&JigyosyoCd=0770402923-00&ServiceCd=780&Type=search" }, "geometry": { "type": "Point", "coordinates": [ 140.872590286508171, 37.051406969220935 ] } },
{ "type": "Feature", "properties": { "内容": "デイサービス結【地域密着型通所介護】福島県いわき市常磐関船町迎77-1", "url2": "https://www.kaigokensaku.mhlw.go.jp/07/index.php?action_kouhyou_detail_004_kani=true&JigyosyoCd=0790401269-00&ServiceCd=780&Type=search" }, "geometry": { "type": "Point", "coordinates": [ 140.8516205, 37.0016385 ] } },
{ "type": "Feature", "properties": { "内容": "ホワイトクローバー【地域密着型通所介護】内郷御厩町久世原87番地の7", "url2": "https://www.kaigokensaku.mhlw.go.jp/07/index.php?action_kouhyou_detail_004_kani=true&JigyosyoCd=0790401483-00&ServiceCd=780&Type=search" }, "geometry": { "type": "Point", "coordinates": [ 140.865911, 37.0412478 ] } },
{ "type": "Feature", "properties": { "内容": "デイサービス福老【地域密着型通所介護】福島県いわき市明治団地64番地の1", "url2": "https://www.kaigokensaku.mhlw.go.jp/07/index.php?action_kouhyou_detail_004_kani=true&JigyosyoCd=0770406726-00&ServiceCd=780&Type=search" }, "geometry": { "type": "Point", "coordinates": [ 140.885865299999978, 37.0407181 ] } },
{ "type": "Feature", "properties": { "内容": "デイサービス福老BLGいわき【地域密着型通所介護】福島県いわき市内郷御厩町２丁目８７にぎらないおにぎりカフェふくろう２F", "url2": "https://www.kaigokensaku.mhlw.go.jp/07/index.php?action_kouhyou_detail_004_kani=true&JigyosyoCd=0790401293-00&ServiceCd=780&Type=search" }, "geometry": { "type": "Point", "coordinates": [ 140.870328, 37.047302 ] } },
{ "type": "Feature", "properties": { "内容": "さくら樹デイサービスセンター【地域密着型通所介護】福島県いわき市内郷綴町町之内42-11さくら樹デイサービスセンター", "url2": "https://www.kaigokensaku.mhlw.go.jp/07/index.php?action_kouhyou_detail_004_kani=true&JigyosyoCd=0770406668-00&ServiceCd=780&Type=search" }, "geometry": { "type": "Point", "coordinates": [ 140.8527656, 37.0343005 ] } },
{ "type": "Feature", "properties": { "内容": "さくら樹デイサービスみまや【地域密着型通所介護】福島県いわき市内郷綴町高野作75", "url2": "https://www.kaigokensaku.mhlw.go.jp/07/index.php?action_kouhyou_detail_004_kani=true&JigyosyoCd=0770407617-00&ServiceCd=780&Type=search" }, "geometry": { "type": "Point", "coordinates": [ 140.866349758637995, 37.039316465443427 ] } },
{ "type": "Feature", "properties": { "内容": "みなと整骨院デイサービス内郷【地域密着型通所介護】福島県いわき市内郷綴町金谷１９－１３", "url2": "https://www.kaigokensaku.mhlw.go.jp/07/index.php?action_kouhyou_detail_004_kani=true&JigyosyoCd=0770405611-00&ServiceCd=780&Type=search" }, "geometry": { "type": "Point", "coordinates": [ 140.864128899999969, 37.0378034 ] } },
{ "type": "Feature", "properties": { "内容": "杉本整骨院デイサービス　トレさーじ【地域密着型通所介護】福島県いわき市小名浜花畑町36番地の15", "url2": "https://www.kaigokensaku.mhlw.go.jp/07/index.php?action_kouhyou_detail_004_kani=true&JigyosyoCd=0770406973-00&ServiceCd=780&Type=search" }, "geometry": { "type": "Point", "coordinates": [ 140.905419, 36.9569209 ] } },
{ "type": "Feature", "properties": { "内容": "つるかめデイサービス【地域密着型通所介護】福島県いわき市平下神谷字仲田１-１", "url2": "https://www.kaigokensaku.mhlw.go.jp/07/index.php?action_kouhyou_detail_004_kani=true&JigyosyoCd=0770407815-00&ServiceCd=780&Type=search" }, "geometry": { "type": "Point", "coordinates": [ 140.950128599999971, 37.0737132 ] } },
{ "type": "Feature", "properties": { "内容": "からだプラスデイサービス【地域密着型通所介護】福島県いわき市平中平窪字杉内15－6", "url2": "https://www.kaigokensaku.mhlw.go.jp/07/index.php?action_kouhyou_detail_004_kani=true&JigyosyoCd=0770406940-00&ServiceCd=780&Type=search" }, "geometry": { "type": "Point", "coordinates": [ 140.878319890808683, 37.08408638530571 ] } },
{ "type": "Feature", "properties": { "内容": "からだプラスデイサービスゆもと【地域密着型通所介護】福島県いわき市常磐西郷町金山10", "url2": "https://www.kaigokensaku.mhlw.go.jp/07/index.php?action_kouhyou_detail_004_kani=true&JigyosyoCd=0790400881-00&ServiceCd=780&Type=search" }, "geometry": { "type": "Point", "coordinates": [ 140.8559409, 36.9862901 ] } },
{ "type": "Feature", "properties": { "内容": "安泰デイサービス湯本【地域密着型通所介護】福島県いわき市常磐関船町一丁目8番地の４", "url2": "https://www.kaigokensaku.mhlw.go.jp/07/index.php?action_kouhyou_detail_004_kani=true&JigyosyoCd=0770404671-00&ServiceCd=780&Type=search" }, "geometry": { "type": "Point", "coordinates": [ 140.8535841, 37.0012674 ] } },
{ "type": "Feature", "properties": { "内容": "デイサービスセンター聖徳荘【地域密着型通所介護】福島県いわき市内郷宮町金坂１８４番地の３", "url2": "https://www.kaigokensaku.mhlw.go.jp/07/index.php?action_kouhyou_detail_004_kani=true&JigyosyoCd=0770401529-00&ServiceCd=780&Type=search" }, "geometry": { "type": "Point", "coordinates": [ 140.846247299999959, 37.0439655 ] } },
{ "type": "Feature", "properties": { "内容": "デイサービスセンターもみじ【地域密着型通所介護】福島県いわき市小名浜寺廻町５－１", "url2": "https://www.kaigokensaku.mhlw.go.jp/07/index.php?action_kouhyou_detail_004_kani=true&JigyosyoCd=0770403335-00&ServiceCd=780&Type=search" }, "geometry": { "type": "Point", "coordinates": [ 140.9014836, 36.9529184 ] } },
{ "type": "Feature", "properties": { "内容": "デイサービスあおば【地域密着型通所介護】福島県いわき市四倉町字鬼越78-6", "url2": "https://www.kaigokensaku.mhlw.go.jp/07/index.php?action_kouhyou_detail_004_kani=true&JigyosyoCd=0770405298-00&ServiceCd=780&Type=search" }, "geometry": { "type": "Point", "coordinates": [ 140.977337799999987, 37.1042687 ] } },
{ "type": "Feature", "properties": { "内容": "いわき市三和ふれあい館デイサービスセンター【地域密着型通所介護】福島県いわき市三和町下市萱字竹ノ内１１４－１", "url2": "https://www.kaigokensaku.mhlw.go.jp/07/index.php?action_kouhyou_detail_004_kani=true&JigyosyoCd=0770400810-00&ServiceCd=780&Type=search" }, "geometry": { "type": "Point", "coordinates": [ 140.687871500000028, 37.1427013 ] } },
{ "type": "Feature", "properties": { "内容": "明日葉デイサービス【地域密着型通所介護】内郷御厩町上宿８３", "url2": "https://www.kaigokensaku.mhlw.go.jp/07/index.php?action_kouhyou_detail_004_kani=true&JigyosyoCd=0790401533-00&ServiceCd=780&Type=search" }, "geometry": { "type": "Point", "coordinates": [ 140.873975800000011, 37.0480089 ] } },
{ "type": "Feature", "properties": { "内容": "有限会社　タロサ　デイサービスタロー【地域密着型通所介護】福島県いわき市平下神谷字仲田82番地", "url2": "https://www.kaigokensaku.mhlw.go.jp/07/index.php?action_kouhyou_detail_004_kani=true&JigyosyoCd=0770402162-00&ServiceCd=780&Type=search" }, "geometry": { "type": "Point", "coordinates": [ 140.951981199999977, 37.0748548 ] } },
{ "type": "Feature", "properties": { "内容": "ときわ会　デイサービスセンター　ルピナス【地域密着型通所介護】福島県いわき市小名浜金成字若宮50-1サービス付き高齢者向け住宅Well", "url2": "https://www.kaigokensaku.mhlw.go.jp/07/index.php?action_kouhyou_detail_004_kani=true&JigyosyoCd=0790400998-00&ServiceCd=780&Type=search" }, "geometry": { "type": "Point", "coordinates": [ 140.89598490000003, 36.9881393 ] } },
{ "type": "Feature", "properties": { "内容": "デイサービス心の郷【地域密着型通所介護】福島県いわき市錦町江栗3丁目63-3", "url2": "https://www.kaigokensaku.mhlw.go.jp/07/index.php?action_kouhyou_detail_004_kani=true&JigyosyoCd=0790401004-00&ServiceCd=780&Type=search" }, "geometry": { "type": "Point", "coordinates": [ 140.774932452203018, 36.913304315128038 ] } },
{ "type": "Feature", "properties": { "内容": "デイサービスこたつ【地域密着型通所介護】福島県いわき市大久町小久字菖蒲作50", "url2": "https://www.kaigokensaku.mhlw.go.jp/07/index.php?action_kouhyou_detail_004_kani=true&JigyosyoCd=0790401152-00&ServiceCd=780&Type=search" }, "geometry": { "type": "Point", "coordinates": [ 140.9696337, 37.1430734 ] } },
{ "type": "Feature", "properties": { "内容": "デイスパゆもと【地域密着型通所介護】福島県いわき市常磐湯本町吹谷８０－３８", "url2": "https://www.kaigokensaku.mhlw.go.jp/07/index.php?action_kouhyou_detail_004_kani=true&JigyosyoCd=0770406387-00&ServiceCd=780&Type=search" }, "geometry": { "type": "Point", "coordinates": [ 140.8466125, 37.0074722 ] } },
{ "type": "Feature", "properties": { "内容": "八千代デイサ－ビス【地域密着型通所介護】福島県いわき市中央台高久二丁目８番地の３", "url2": "https://www.kaigokensaku.mhlw.go.jp/07/index.php?action_kouhyou_detail_004_kani=true&JigyosyoCd=0770406080-00&ServiceCd=780&Type=search" }, "geometry": { "type": "Point", "coordinates": [ 140.927274300000022, 37.0064598 ] } },
{ "type": "Feature", "properties": { "内容": "デイサービス笑福【地域密着型通所介護】福島県いわき市植田町横町１０７－２", "url2": "https://www.kaigokensaku.mhlw.go.jp/07/index.php?action_kouhyou_detail_004_kani=true&JigyosyoCd=0790401178-00&ServiceCd=780&Type=search" }, "geometry": { "type": "Point", "coordinates": [ 140.794828099999989, 36.917308299999981 ] } },
{ "type": "Feature", "properties": { "内容": "ほねつぎデイサービス御台境町店【地域密着型通所介護】内郷御台境町鶴巻2", "url2": "https://www.kaigokensaku.mhlw.go.jp/07/index.php?action_kouhyou_detail_004_kani=true&JigyosyoCd=0790401285-00&ServiceCd=780&Type=search" }, "geometry": { "type": "Point", "coordinates": [ 140.8702467, 37.0528293 ] } },
{ "type": "Feature", "properties": { "内容": "デイサービス　奏心【地域密着型通所介護】福島県いわき市好間町下好間字向山82-1", "url2": "https://www.kaigokensaku.mhlw.go.jp/07/index.php?action_kouhyou_detail_004_kani=true&JigyosyoCd=0790401566-00&ServiceCd=780&Type=search" }, "geometry": { "type": "Point", "coordinates": [ 140.859640001852398, 37.056871636876885 ] } },
{ "type": "Feature", "properties": { "内容": "デイサービス和奏【地域密着型通所介護】福島県いわき市好間町中好間字寺台108番地の1", "url2": "https://www.kaigokensaku.mhlw.go.jp/07/index.php?action_kouhyou_detail_004_kani=true&JigyosyoCd=0790400923-00&ServiceCd=780&Type=search" }, "geometry": { "type": "Point", "coordinates": [ 140.857748, 37.0580033 ] } },
{ "type": "Feature", "properties": { "内容": "ほねつぎデイサービス泉町【地域密着型通所介護】福島県いわき市泉玉露3丁目12番地の1", "url2": "https://www.kaigokensaku.mhlw.go.jp/07/index.php?action_kouhyou_detail_004_kani=true&JigyosyoCd=0790401277-00&ServiceCd=780&Type=search" }, "geometry": { "type": "Point", "coordinates": [ 140.852785899999986, 36.9583827 ] } },
{ "type": "Feature", "properties": { "内容": "デイサービスあさなぎ【地域密着型通所介護】福島県いわき市常磐関船町一丁目3-10", "url2": "https://www.kaigokensaku.mhlw.go.jp/07/index.php?action_kouhyou_detail_004_kani=true&JigyosyoCd=0790401301-00&ServiceCd=780&Type=search" }, "geometry": { "type": "Point", "coordinates": [ 140.8553875, 37.0004834 ] } },
{ "type": "Feature", "properties": { "内容": "ほねつぎデイサービス平【地域密着型通所介護】平新川町36-1松﨑ビル１階", "url2": "https://www.kaigokensaku.mhlw.go.jp/07/index.php?action_kouhyou_detail_004_kani=true&JigyosyoCd=0790401368-00&ServiceCd=780&Type=search" }, "geometry": { "type": "Point", "coordinates": [ 140.89736382579494, 37.055466832730382 ] } },
{ "type": "Feature", "properties": { "内容": "デイサービスセンターふくださんち。【地域密着型通所介護】内郷内町四方北115番地の2", "url2": "https://www.kaigokensaku.mhlw.go.jp/07/index.php?action_kouhyou_detail_004_kani=true&JigyosyoCd=0790401186-00&ServiceCd=780&Type=search" }, "geometry": { "type": "Point", "coordinates": [ 140.8566083, 37.0395385 ] } },
{ "type": "Feature", "properties": { "内容": "元氣ジムいわき小名浜【地域密着型通所介護】福島県いわき市小名浜大原字小屋10-2", "url2": "https://www.kaigokensaku.mhlw.go.jp/07/index.php?action_kouhyou_detail_004_kani=true&JigyosyoCd=0790401574-00&ServiceCd=780&Type=search" }, "geometry": { "type": "Point", "coordinates": [ 140.8922064, 36.9652093 ] } },
{ "type": "Feature", "properties": { "内容": "元氣ジムいわき小島町【地域密着型通所介護】福島県いわき市小島町1-2-2", "url2": "https://www.kaigokensaku.mhlw.go.jp/07/index.php?action_kouhyou_detail_004_kani=true&JigyosyoCd=0790401426-00&ServiceCd=780&Type=search" }, "geometry": { "type": "Point", "coordinates": [ 140.880426699999987, 37.0488911 ] } },
{ "type": "Feature", "properties": { "内容": "デイサービス　はいっ喜んデイ【地域密着型通所介護】福島県いわき市平字愛谷町２丁目５番地の２", "url2": "https://www.kaigokensaku.mhlw.go.jp/07/index.php?action_kouhyou_detail_004_kani=true&JigyosyoCd=0770406965-00&ServiceCd=780&Type=search" }, "geometry": { "type": "Point", "coordinates": [ 140.906934699999965, 37.049006399999989 ] } },
{ "type": "Feature", "properties": { "内容": "樹楽　団らんの家　いわき泉【地域密着型通所介護】福島県いわき市泉町下川字須賀蛭27－728", "url2": "https://www.kaigokensaku.mhlw.go.jp/07/index.php?action_kouhyou_detail_004_kani=true&JigyosyoCd=0790401103-00&ServiceCd=780&Type=search" }, "geometry": { "type": "Point", "coordinates": [ 140.8495139, 36.9215486 ] } },
{ "type": "Feature", "properties": { "内容": "デイサービス　オハナ【地域密着型通所介護】小名浜字道珍１０８番地", "url2": "https://www.kaigokensaku.mhlw.go.jp/07/index.php?action_kouhyou_detail_004_kani=true&JigyosyoCd=0790401137-00&ServiceCd=780&Type=search" }, "geometry": { "type": "Point", "coordinates": [ 140.891198682803349, 36.952478214242362 ] } },
{ "type": "Feature", "properties": { "内容": "デイサービスセンターあかえんば【地域密着型通所介護】福島県いわき市小名浜諏訪町25番地1", "url2": "https://www.kaigokensaku.mhlw.go.jp/07/index.php?action_kouhyou_detail_004_kani=true&JigyosyoCd=0770407799-00&ServiceCd=780&Type=search" }, "geometry": { "type": "Point", "coordinates": [ 140.909318166717583, 36.954439674435207 ] } },
{ "type": "Feature", "properties": { "内容": "デイサービス　十和の里よつくら【地域密着型通所介護】福島県いわき市四倉町字鬼越２４０番地の８１", "url2": "https://www.kaigokensaku.mhlw.go.jp/07/index.php?action_kouhyou_detail_004_kani=true&JigyosyoCd=0770405421-00&ServiceCd=780&Type=search" }, "geometry": { "type": "Point", "coordinates": [ 140.9744452, 37.1033474 ] } },
{ "type": "Feature", "properties": { "内容": "つむぎのさとおおの【地域密着型通所介護】四倉町駒込字広畑20番地2", "url2": "https://www.kaigokensaku.mhlw.go.jp/07/index.php?action_kouhyou_detail_004_kani=true&JigyosyoCd=0790401541-00&ServiceCd=780&Type=search" }, "geometry": { "type": "Point", "coordinates": [ 140.9033425, 37.1134025 ] } },
{ "type": "Feature", "properties": { "内容": "デイサービス松が台【地域密着型通所介護】福島県いわき市常磐松ヶ台174", "url2": "https://www.kaigokensaku.mhlw.go.jp/07/index.php?action_kouhyou_detail_004_kani=true&JigyosyoCd=0790401558-00&ServiceCd=780&Type=search" }, "geometry": { "type": "Point", "coordinates": [ 140.8427092, 37.0048486 ] } },
{ "type": "Feature", "properties": { "内容": "スナグルホームこづえ【地域密着型通所介護】福島県白河市昭和町60-5", "url2": "https://www.kaigokensaku.mhlw.go.jp/07/index.php?action_kouhyou_detail_004_kani=true&JigyosyoCd=0770500932-00&ServiceCd=780&Type=search" }, "geometry": { "type": "Point", "coordinates": [ 140.2023517, 37.1307362 ] } },
{ "type": "Feature", "properties": { "内容": "デイサービス　城南【地域密着型通所介護】福島県白河市道場小路91番地8", "url2": "https://www.kaigokensaku.mhlw.go.jp/07/index.php?action_kouhyou_detail_004_kani=true&JigyosyoCd=0790500102-00&ServiceCd=780&Type=search" }, "geometry": { "type": "Point", "coordinates": [ 140.21010380000007, 37.1290422 ] } },
{ "type": "Feature", "properties": { "内容": "デイサービスさんくす【地域密着型通所介護】福島県白河市田島薊田１３番地3", "url2": "https://www.kaigokensaku.mhlw.go.jp/07/index.php?action_kouhyou_detail_004_kani=true&JigyosyoCd=0790500219-00&ServiceCd=780&Type=search" }, "geometry": { "type": "Point", "coordinates": [ 140.296094900000014, 37.112823 ] } },
{ "type": "Feature", "properties": { "内容": "デイサービス笑来歩【地域密着型通所介護】福島県白河市栄町30-2", "url2": "https://www.kaigokensaku.mhlw.go.jp/07/index.php?action_kouhyou_detail_004_kani=true&JigyosyoCd=0790500276-00&ServiceCd=780&Type=search" }, "geometry": { "type": "Point", "coordinates": [ 140.2162004, 37.118832500000032 ] } },
{ "type": "Feature", "properties": { "内容": "デイサービス　リハビリいっぽ【地域密着型通所介護】福島県白河市旭町一丁目244-1", "url2": "https://www.kaigokensaku.mhlw.go.jp/07/index.php?action_kouhyou_detail_004_kani=true&JigyosyoCd=0790500193-00&ServiceCd=780&Type=search" }, "geometry": { "type": "Point", "coordinates": [ 140.225294100000013, 37.122801 ] } },
{ "type": "Feature", "properties": { "内容": "デイサービス　さくら【地域密着型通所介護】白河市鍛治町66番地2", "url2": "https://www.kaigokensaku.mhlw.go.jp/07/index.php?action_kouhyou_detail_004_kani=true&JigyosyoCd=0790500151-00&ServiceCd=780&Type=search" }, "geometry": { "type": "Point", "coordinates": [ 140.2217747, 37.1233139 ] } },
{ "type": "Feature", "properties": { "内容": "せいふうケアリハビリ・ホーム新白河【地域密着型通所介護】福島県白河市新白河一丁目34番地2号", "url2": "https://www.kaigokensaku.mhlw.go.jp/07/index.php?action_kouhyou_detail_004_kani=true&JigyosyoCd=0770500916-00&ServiceCd=780&Type=search" }, "geometry": { "type": "Point", "coordinates": [ 140.192177799999968, 37.1243422 ] } },
{ "type": "Feature", "properties": { "内容": "デイサービスセンター八福神壱番館【地域密着型通所介護】福島県白河市久田野田中39-4デイサービスセンター八福神壱番館", "url2": "https://www.kaigokensaku.mhlw.go.jp/07/index.php?action_kouhyou_detail_004_kani=true&JigyosyoCd=0770501096-00&ServiceCd=780&Type=search" }, "geometry": { "type": "Point", "coordinates": [ 140.261634326458761, 37.136965336090682 ] } },
{ "type": "Feature", "properties": { "内容": "F.C.C.リハビリdayココロの家白河【地域密着型通所介護】郭内12", "url2": "https://www.kaigokensaku.mhlw.go.jp/07/index.php?action_kouhyou_detail_004_kani=true&JigyosyoCd=0790500243-00&ServiceCd=780&Type=search" }, "geometry": { "type": "Point", "coordinates": [ 140.216956083467068, 37.128514368627954 ] } },
{ "type": "Feature", "properties": { "内容": "デイサービスセンターひとつ屋根の下【地域密着型通所介護】福島県白河市立石169番地2", "url2": "https://www.kaigokensaku.mhlw.go.jp/07/index.php?action_kouhyou_detail_004_kani=true&JigyosyoCd=0770501039-00&ServiceCd=780&Type=search" }, "geometry": { "type": "Point", "coordinates": [ 140.196416199999931, 37.126181 ] } },
{ "type": "Feature", "properties": { "内容": "通所介護　あえる【地域密着型通所介護】福島県白河市田島45-1", "url2": "https://www.kaigokensaku.mhlw.go.jp/07/index.php?action_kouhyou_detail_004_kani=true&JigyosyoCd=0790500300-00&ServiceCd=780&Type=search" }, "geometry": { "type": "Point", "coordinates": [ 140.2910929, 37.1170852 ] } },
{ "type": "Feature", "properties": { "内容": "いこいの広場デイサービス【地域密着型通所介護】福島県白河市外薄葉17-1", "url2": "https://www.kaigokensaku.mhlw.go.jp/07/index.php?action_kouhyou_detail_004_kani=true&JigyosyoCd=0770501047-00&ServiceCd=780&Type=search" }, "geometry": { "type": "Point", "coordinates": [ 140.221084077246132, 37.142659975647597 ] } },
{ "type": "Feature", "properties": { "内容": "だんらんの家　白河【地域密着型通所介護】福島県白河市栄町25番地5", "url2": "https://www.kaigokensaku.mhlw.go.jp/07/index.php?action_kouhyou_detail_004_kani=true&JigyosyoCd=0790500144-00&ServiceCd=780&Type=search" }, "geometry": { "type": "Point", "coordinates": [ 140.216818, 37.1191395 ] } },
{ "type": "Feature", "properties": { "内容": "だんらんの家　みさか【地域密着型通所介護】福島県白河市みさか1丁目18番地2", "url2": "https://www.kaigokensaku.mhlw.go.jp/07/index.php?action_kouhyou_detail_004_kani=true&JigyosyoCd=0790500284-00&ServiceCd=780&Type=search" }, "geometry": { "type": "Point", "coordinates": [ 140.1915158, 37.1062367 ] } },
{ "type": "Feature", "properties": { "内容": "茶話本舗デイサービス須賀川【地域密着型通所介護】福島県須賀川市森宿字鍛治山8-5", "url2": "https://www.kaigokensaku.mhlw.go.jp/07/index.php?action_kouhyou_detail_004_kani=true&JigyosyoCd=0770701225-00&ServiceCd=780&Type=search" }, "geometry": { "type": "Point", "coordinates": [ 140.3711042, 37.305106 ] } },
{ "type": "Feature", "properties": { "内容": "やすらぎの里デイサービスセンタ－【地域密着型通所介護】福島県須賀川市長沼字北延命寺3番地6", "url2": "https://www.kaigokensaku.mhlw.go.jp/07/index.php?action_kouhyou_detail_004_kani=true&JigyosyoCd=0790700108-00&ServiceCd=780&Type=search" }, "geometry": { "type": "Point", "coordinates": [ 140.219857421951332, 37.290703121496051 ] } },
{ "type": "Feature", "properties": { "内容": "しあわせ本舗【地域密着型通所介護】福島県須賀川市浜尾字前田115番1", "url2": "https://www.kaigokensaku.mhlw.go.jp/07/index.php?action_kouhyou_detail_004_kani=true&JigyosyoCd=0770700995-00&ServiceCd=780&Type=search" }, "geometry": { "type": "Point", "coordinates": [ 140.411489, 37.2870859 ] } },
{ "type": "Feature", "properties": { "内容": "やまだデイサービスセンター【地域密着型通所介護】福島県須賀川市越久字三斗内７５－４", "url2": "https://www.kaigokensaku.mhlw.go.jp/07/index.php?action_kouhyou_detail_004_kani=true&JigyosyoCd=0770700557-00&ServiceCd=780&Type=search" }, "geometry": { "type": "Point", "coordinates": [ 140.338718, 37.3085884 ] } },
{ "type": "Feature", "properties": { "内容": "いにしえデイサービス【地域密着型通所介護】福島県須賀川市下宿町９８番地", "url2": "https://www.kaigokensaku.mhlw.go.jp/07/index.php?action_kouhyou_detail_004_kani=true&JigyosyoCd=0770700854-00&ServiceCd=780&Type=search" }, "geometry": { "type": "Point", "coordinates": [ 140.375353600000039, 37.307989 ] } },
{ "type": "Feature", "properties": { "内容": "シオンの園【地域密着型通所介護】福島県須賀川市下小山田字月夜田206", "url2": "https://www.kaigokensaku.mhlw.go.jp/07/index.php?action_kouhyou_detail_004_kani=true&JigyosyoCd=0790700132-00&ServiceCd=780&Type=search" }, "geometry": { "type": "Point", "coordinates": [ 140.438263084130853, 37.27895683689232 ] } },
{ "type": "Feature", "properties": { "内容": "株式会社　住専ノザキ　福祉事業部　デイサービスセンターえがお【地域密着型通所介護】福島県須賀川市前田川字宮の前166-145", "url2": "https://www.kaigokensaku.mhlw.go.jp/07/index.php?action_kouhyou_detail_004_kani=true&JigyosyoCd=0790700082-00&ServiceCd=780&Type=search" }, "geometry": { "type": "Point", "coordinates": [ 140.388743889935313, 37.264640108574334 ] } },
{ "type": "Feature", "properties": { "内容": "エルピスデイサービスセンター【地域密着型通所介護】福島県須賀川市和田字沓掛４８番１", "url2": "https://www.kaigokensaku.mhlw.go.jp/07/index.php?action_kouhyou_detail_004_kani=true&JigyosyoCd=0770700409-00&ServiceCd=780&Type=search" }, "geometry": { "type": "Point", "coordinates": [ 140.379399799999987, 37.2673157 ] } },
{ "type": "Feature", "properties": { "内容": "社会福祉法人三愛福祉会　愛寿園デイサービスセンター【地域密着型通所介護】福島県須賀川市吉美根字土橋121番地", "url2": "https://www.kaigokensaku.mhlw.go.jp/07/index.php?action_kouhyou_detail_004_kani=true&JigyosyoCd=0770700235-00&ServiceCd=780&Type=search" }, "geometry": { "type": "Point", "coordinates": [ 140.343609499999957, 37.3033114 ] } },
{ "type": "Feature", "properties": { "内容": "つくしデイサービス紡【地域密着型通所介護】福島県須賀川市小作田字荒町台17", "url2": "https://www.kaigokensaku.mhlw.go.jp/07/index.php?action_kouhyou_detail_004_kani=true&JigyosyoCd=0770701068-00&ServiceCd=780&Type=search" }, "geometry": { "type": "Point", "coordinates": [ 140.410069166047606, 37.270257045730624 ] } },
{ "type": "Feature", "properties": { "内容": "デイサービスクローバー【地域密着型通所介護】福島県須賀川市坂の上町１－１", "url2": "https://www.kaigokensaku.mhlw.go.jp/07/index.php?action_kouhyou_detail_004_kani=true&JigyosyoCd=0770701175-00&ServiceCd=780&Type=search" }, "geometry": { "type": "Point", "coordinates": [ 140.362296790104693, 37.298540000000642 ] } },
{ "type": "Feature", "properties": { "内容": "リハ＆スパ須賀川デイサービス【地域密着型通所介護】福島県須賀川市西川町43-2", "url2": "https://www.kaigokensaku.mhlw.go.jp/07/index.php?action_kouhyou_detail_004_kani=true&JigyosyoCd=0790700157-00&ServiceCd=780&Type=search" }, "geometry": { "type": "Point", "coordinates": [ 140.360301099999987, 37.2959324 ] } },
{ "type": "Feature", "properties": { "内容": "ケアテルデイサービスセンター　ハーブの園きたかた【地域密着型通所介護】福島県喜多方市豊川町一井字間々上580-4", "url2": "https://www.kaigokensaku.mhlw.go.jp/07/index.php?action_kouhyou_detail_004_kani=true&JigyosyoCd=0790800163-00&ServiceCd=780&Type=search" }, "geometry": { "type": "Point", "coordinates": [ 139.875252622228999, 37.631528953103683 ] } },
{ "type": "Feature", "properties": { "内容": "医療生協デイサービスセンターすわ【地域密着型通所介護】福島県喜多方市諏訪３６－１", "url2": "https://www.kaigokensaku.mhlw.go.jp/07/index.php?action_kouhyou_detail_004_kani=true&JigyosyoCd=0770800480-00&ServiceCd=780&Type=search" }, "geometry": { "type": "Point", "coordinates": [ 139.8704424, 37.6541157 ] } },
{ "type": "Feature", "properties": { "内容": "高郷デイサービスセンター「かたくり荘」【地域密着型通所介護】福島県喜多方市高郷町揚津字袖山甲3067-3", "url2": "https://www.kaigokensaku.mhlw.go.jp/07/index.php?action_kouhyou_detail_004_kani=true&JigyosyoCd=0790800197-00&ServiceCd=780&Type=search" }, "geometry": { "type": "Point", "coordinates": [ 139.717264, 37.6305898 ] } },
{ "type": "Feature", "properties": { "内容": "山都デイサービスセンター「しゃくなげホーム」【地域密着型通所介護】福島県喜多方市山都町字北松ノ前3144番地喜多方市社会福祉協議会　山都支所", "url2": "https://www.kaigokensaku.mhlw.go.jp/07/index.php?action_kouhyou_detail_004_kani=true&JigyosyoCd=0790800189-00&ServiceCd=780&Type=search" }, "geometry": { "type": "Point", "coordinates": [ 139.7648682, 37.6396744 ] } },
{ "type": "Feature", "properties": { "内容": "通所介護事業所　ぴーす【地域密着型通所介護】福島県喜多方市岩月町宮津字下新田５９９３－１", "url2": "https://www.kaigokensaku.mhlw.go.jp/07/index.php?action_kouhyou_detail_004_kani=true&JigyosyoCd=0770800910-00&ServiceCd=780&Type=search" }, "geometry": { "type": "Point", "coordinates": [ 139.888187499999958, 37.6711197 ] } },
{ "type": "Feature", "properties": { "内容": "とくていひいえいりかつどうほうじんなぎ【地域密着型通所介護】慶徳町豊岡字重壇2011", "url2": "https://www.kaigokensaku.mhlw.go.jp/07/index.php?action_kouhyou_detail_004_kani=true&JigyosyoCd=0790800205-00&ServiceCd=780&Type=search" }, "geometry": { "type": "Point", "coordinates": [ 139.8401093, 37.6228263 ] } },
{ "type": "Feature", "properties": { "内容": "特定非営利活動法人　民営通所介護ひなたぼっこ【地域密着型通所介護】福島県喜多方市塩川町新江木字谷地田４", "url2": "https://www.kaigokensaku.mhlw.go.jp/07/index.php?action_kouhyou_detail_004_kani=true&JigyosyoCd=0770800365-00&ServiceCd=780&Type=search" }, "geometry": { "type": "Point", "coordinates": [ 139.891741799999977, 37.609880700000019 ] } },
{ "type": "Feature", "properties": { "内容": "デイサービス　楽蔵【地域密着型通所介護】福島県喜多方市豊川町米室字二条川原1878-6", "url2": "https://www.kaigokensaku.mhlw.go.jp/07/index.php?action_kouhyou_detail_004_kani=true&JigyosyoCd=0770800779-00&ServiceCd=780&Type=search" }, "geometry": { "type": "Point", "coordinates": [ 139.856224600000019, 37.6420195 ] } },
{ "type": "Feature", "properties": { "内容": "リハプライド相馬【地域密着型通所介護】福島県相馬市沖ノ内1丁目18-1", "url2": "https://www.kaigokensaku.mhlw.go.jp/07/index.php?action_kouhyou_detail_004_kani=true&JigyosyoCd=0790900088-00&ServiceCd=780&Type=search" }, "geometry": { "type": "Point", "coordinates": [ 140.9284769, 37.8041725 ] } },
{ "type": "Feature", "properties": { "内容": "デイサービスセンター　あじさい【地域密着型通所介護】福島県相馬市沖の内三丁目7番地の6", "url2": "https://www.kaigokensaku.mhlw.go.jp/07/index.php?action_kouhyou_detail_004_kani=true&JigyosyoCd=0790900070-00&ServiceCd=780&Type=search" }, "geometry": { "type": "Point", "coordinates": [ 140.933674945230109, 37.805257826706381 ] } },
{ "type": "Feature", "properties": { "内容": "デイサービス友遊【地域密着型通所介護】福島県相馬市南飯渕字木関無９３", "url2": "https://www.kaigokensaku.mhlw.go.jp/07/index.php?action_kouhyou_detail_004_kani=true&JigyosyoCd=0770900504-00&ServiceCd=780&Type=search" }, "geometry": { "type": "Point", "coordinates": [ 140.945581100000027, 37.8017441 ] } },
{ "type": "Feature", "properties": { "内容": "デイサービス友遊Ⅱ【地域密着型通所介護】福島県相馬市中村字北町１－８", "url2": "https://www.kaigokensaku.mhlw.go.jp/07/index.php?action_kouhyou_detail_004_kani=true&JigyosyoCd=0770900561-00&ServiceCd=780&Type=search" }, "geometry": { "type": "Point", "coordinates": [ 140.913050700000014, 37.8001513 ] } },
{ "type": "Feature", "properties": { "内容": "自立支援・リハビリ重視型デイサービスさんぽ【地域密着型通所介護】福島県相馬市中村字砂子田８番地", "url2": "https://www.kaigokensaku.mhlw.go.jp/07/index.php?action_kouhyou_detail_004_kani=true&JigyosyoCd=0790900062-00&ServiceCd=780&Type=search" }, "geometry": { "type": "Point", "coordinates": [ 140.925506199999973, 37.7982752 ] } },
{ "type": "Feature", "properties": { "内容": "羽山荘デイサービスセンター【地域密着型通所介護】福島県二本松市太田字荻ノ田３５番地１", "url2": "https://www.kaigokensaku.mhlw.go.jp/07/index.php?action_kouhyou_detail_004_kani=true&JigyosyoCd=0772100103-00&ServiceCd=780&Type=search" }, "geometry": { "type": "Point", "coordinates": [ 140.529452499999934, 37.5896285 ] } },
{ "type": "Feature", "properties": { "内容": "安達ヶ原あだたら荘デイサービスセンター【地域密着型通所介護】福島県二本松市安達ヶ原一丁目291番地１", "url2": "https://www.kaigokensaku.mhlw.go.jp/07/index.php?action_kouhyou_detail_004_kani=true&JigyosyoCd=0771000056-00&ServiceCd=780&Type=search" }, "geometry": { "type": "Point", "coordinates": [ 140.459370900000067, 37.5852918 ] } },
{ "type": "Feature", "properties": { "内容": "二本松市社会福祉協議会　デイサービスセンターにほんまつ【地域密着型通所介護】福島県二本松市中江116番地", "url2": "https://www.kaigokensaku.mhlw.go.jp/07/index.php?action_kouhyou_detail_004_kani=true&JigyosyoCd=0771000387-00&ServiceCd=780&Type=search" }, "geometry": { "type": "Point", "coordinates": [ 140.417257299999989, 37.5612237 ] } },
{ "type": "Feature", "properties": { "内容": "JWS陽だまりの郷　機能訓練　たんぽぽ【地域密着型通所介護】福島県二本松市表2丁目775番地", "url2": "https://www.kaigokensaku.mhlw.go.jp/07/index.php?action_kouhyou_detail_004_kani=true&JigyosyoCd=0791000177-00&ServiceCd=780&Type=search" }, "geometry": { "type": "Point", "coordinates": [ 140.434692, 37.6071737 ] } },
{ "type": "Feature", "properties": { "内容": "まごころデイサービス【地域密着型通所介護】福島県南相馬市鹿島区鹿島字北畑57まごころ接骨鹿島院デイサービス", "url2": "https://www.kaigokensaku.mhlw.go.jp/07/index.php?action_kouhyou_detail_004_kani=true&JigyosyoCd=0791200108-00&ServiceCd=780&Type=search" }, "geometry": { "type": "Point", "coordinates": [ 140.967575600000032, 37.7043544 ] } },
{ "type": "Feature", "properties": { "内容": "リハプライド南相馬【地域密着型通所介護】福島県南相馬市原町区西町1丁目４６－１", "url2": "https://www.kaigokensaku.mhlw.go.jp/07/index.php?action_kouhyou_detail_004_kani=true&JigyosyoCd=0791200090-00&ServiceCd=780&Type=search" }, "geometry": { "type": "Point", "coordinates": [ 140.950787499999933, 37.637885900000043 ] } },
{ "type": "Feature", "properties": { "内容": "福島県南相馬市原町区小川町425番地【地域密着型通所介護】福島県南相馬市原町区小川町425番地", "url2": "https://www.kaigokensaku.mhlw.go.jp/07/index.php?action_kouhyou_detail_004_kani=true&JigyosyoCd=0791200165-00&ServiceCd=780&Type=search" }, "geometry": { "type": "Point", "coordinates": [ 140.9601936, 37.6489142 ] } },
{ "type": "Feature", "properties": { "内容": "ほほえみおだかデイサービスセンター【地域密着型通所介護】福島県南相馬市小高区耳谷字小泉２３番地", "url2": "https://www.kaigokensaku.mhlw.go.jp/07/index.php?action_kouhyou_detail_004_kani=true&JigyosyoCd=0791200116-00&ServiceCd=780&Type=search" }, "geometry": { "type": "Point", "coordinates": [ 140.991431700000021, 37.5257324 ] } },
{ "type": "Feature", "properties": { "内容": "デイサービス　赤い風船【地域密着型通所介護】福島県南相馬市原町区深野字台畑２１－１", "url2": "https://www.kaigokensaku.mhlw.go.jp/07/index.php?action_kouhyou_detail_004_kani=true&JigyosyoCd=0771200292-00&ServiceCd=780&Type=search" }, "geometry": { "type": "Point", "coordinates": [ 140.9259224, 37.6606325 ] } },
{ "type": "Feature", "properties": { "内容": "デイサービス　白い風船【地域密着型通所介護】福島県南相馬市原町区陣ケ崎281-1", "url2": "https://www.kaigokensaku.mhlw.go.jp/07/index.php?action_kouhyou_detail_004_kani=true&JigyosyoCd=0771200425-00&ServiceCd=780&Type=search" }, "geometry": { "type": "Point", "coordinates": [ 140.939611600000035, 37.6112186 ] } },
{ "type": "Feature", "properties": { "内容": "デイズくにみの郷【地域密着型通所介護】福島県南相馬市原町区国見町二丁目１３番地１", "url2": "https://www.kaigokensaku.mhlw.go.jp/07/index.php?action_kouhyou_detail_004_kani=true&JigyosyoCd=0771200219-00&ServiceCd=780&Type=search" }, "geometry": { "type": "Point", "coordinates": [ 140.951866, 37.628109 ] } },
{ "type": "Feature", "properties": { "内容": "みどりの杜デイサービスセンターヨークタウン原町【地域密着型通所介護】福島県南相馬市原町区旭町3丁目58-1", "url2": "https://www.kaigokensaku.mhlw.go.jp/07/index.php?action_kouhyou_detail_004_kani=true&JigyosyoCd=0791200157-00&ServiceCd=780&Type=search" }, "geometry": { "type": "Point", "coordinates": [ 140.971439933096292, 37.635309441327806 ] } },
{ "type": "Feature", "properties": { "内容": "デイサービスいろは【地域密着型通所介護】福島県南相馬市小高区大富字東畑32-1", "url2": "https://www.kaigokensaku.mhlw.go.jp/07/index.php?action_kouhyou_detail_004_kani=true&JigyosyoCd=0791200132-00&ServiceCd=780&Type=search" }, "geometry": { "type": "Point", "coordinates": [ 140.926438, 37.5633319 ] } },
{ "type": "Feature", "properties": { "内容": "リハプライド・梁川町【地域密着型通所介護】福島県伊達市梁川町幸町79", "url2": "https://www.kaigokensaku.mhlw.go.jp/07/index.php?action_kouhyou_detail_004_kani=true&JigyosyoCd=0771300662-00&ServiceCd=780&Type=search" }, "geometry": { "type": "Point", "coordinates": [ 140.600328900000022, 37.851236299999982 ] } },
{ "type": "Feature", "properties": { "内容": "デイサービスセンター　はるか【地域密着型通所介護】福島県伊達市梁川町字北本町17-3", "url2": "https://www.kaigokensaku.mhlw.go.jp/07/index.php?action_kouhyou_detail_004_kani=true&JigyosyoCd=0791300320-00&ServiceCd=780&Type=search" }, "geometry": { "type": "Point", "coordinates": [ 140.603523, 37.856521 ] } },
{ "type": "Feature", "properties": { "内容": "まるわデイサービスセンター【地域密着型通所介護】福島県伊達市保原町字宮下82-1", "url2": "https://www.kaigokensaku.mhlw.go.jp/07/index.php?action_kouhyou_detail_004_kani=true&JigyosyoCd=0771300613-00&ServiceCd=780&Type=search" }, "geometry": { "type": "Point", "coordinates": [ 140.556058900000039, 37.8183826 ] } },
{ "type": "Feature", "properties": { "内容": "デイサービスさくら【地域密着型通所介護】保原町上保原字内山35-1", "url2": "https://www.kaigokensaku.mhlw.go.jp/07/index.php?action_kouhyou_detail_004_kani=true&JigyosyoCd=0791300312-00&ServiceCd=780&Type=search" }, "geometry": { "type": "Point", "coordinates": [ 140.543760741139209, 37.808514417680655 ] } },
{ "type": "Feature", "properties": { "内容": "リハビリデイサービス「ここリハ　みよだ」【地域密着型通所介護】福島県伊達市月舘町御代田字扶桑畑42番地1", "url2": "https://www.kaigokensaku.mhlw.go.jp/07/index.php?action_kouhyou_detail_004_kani=true&JigyosyoCd=0771300688-00&ServiceCd=780&Type=search" }, "geometry": { "type": "Point", "coordinates": [ 140.608425594967713, 37.759800554732642 ] } },
{ "type": "Feature", "properties": { "内容": "介護予防センター掛田【地域密着型通所介護】福島県伊達市霊山町掛田字西裏20-1　2F", "url2": "https://www.kaigokensaku.mhlw.go.jp/07/index.php?action_kouhyou_detail_004_kani=true&JigyosyoCd=0791300296-00&ServiceCd=780&Type=search" }, "geometry": { "type": "Point", "coordinates": [ 140.593374635195943, 37.784065800346802 ] } },
{ "type": "Feature", "properties": { "内容": "デイサービスセンターよろこび【地域密着型通所介護】福島県本宮市本宮字塩田入162", "url2": "https://www.kaigokensaku.mhlw.go.jp/07/index.php?action_kouhyou_detail_004_kani=true&JigyosyoCd=0771400173-00&ServiceCd=780&Type=search" }, "geometry": { "type": "Point", "coordinates": [ 140.3923304, 37.5110838 ] } },
{ "type": "Feature", "properties": { "内容": "デイサービスセンター　アルク【地域密着型通所介護】福島県本宮市本宮字南山神42-1", "url2": "https://www.kaigokensaku.mhlw.go.jp/07/index.php?action_kouhyou_detail_004_kani=true&JigyosyoCd=0791400070-00&ServiceCd=780&Type=search" }, "geometry": { "type": "Point", "coordinates": [ 140.393054017790945, 37.510189887336715 ] } },
{ "type": "Feature", "properties": { "内容": "しらさわ有寿園デイサービスセンター【地域密着型通所介護】福島県本宮市和田字戸ノ内158番地3", "url2": "https://www.kaigokensaku.mhlw.go.jp/07/index.php?action_kouhyou_detail_004_kani=true&JigyosyoCd=0791400062-00&ServiceCd=780&Type=search" }, "geometry": { "type": "Point", "coordinates": [ 140.425719500000014, 37.5178008 ] } },
{ "type": "Feature", "properties": { "内容": "ぼたん荘デイサービスセンター【地域密着型通所介護】福島県本宮市本宮字上千束3番地", "url2": "https://www.kaigokensaku.mhlw.go.jp/07/index.php?action_kouhyou_detail_004_kani=true&JigyosyoCd=0772100426-00&ServiceCd=780&Type=search" }, "geometry": { "type": "Point", "coordinates": [ 140.392382199999929, 37.5181612 ] } },
{ "type": "Feature", "properties": { "内容": "そらいろデイ【地域密着型通所介護】福島県伊達郡桑折町大字伊達崎字吉沼19番地", "url2": "https://www.kaigokensaku.mhlw.go.jp/07/index.php?action_kouhyou_detail_004_kani=true&JigyosyoCd=0792000069-00&ServiceCd=780&Type=search" }, "geometry": { "type": "Point", "coordinates": [ 140.5421718, 37.8488931 ] } },
{ "type": "Feature", "properties": { "内容": "大かや園デイサービスセンター【地域密着型通所介護】福島県桑折町大字万正寺字大榧１６番地の1", "url2": "https://www.kaigokensaku.mhlw.go.jp/07/index.php?action_kouhyou_detail_004_kani=true&JigyosyoCd=0772000766-00&ServiceCd=780&Type=search" }, "geometry": { "type": "Point", "coordinates": [ 140.5109357, 37.8519726 ] } },
{ "type": "Feature", "properties": { "内容": "国見町デイサービスセンター【地域密着型通所介護】福島県伊達郡国見町大字山崎字舘東12番地１", "url2": "https://www.kaigokensaku.mhlw.go.jp/07/index.php?action_kouhyou_detail_004_kani=true&JigyosyoCd=0792000051-00&ServiceCd=780&Type=search" }, "geometry": { "type": "Point", "coordinates": [ 140.541366671163928, 37.879912448354389 ] } },
{ "type": "Feature", "properties": { "内容": "川俣ホームデイサービスセンター【地域密着型通所介護】福島県伊達郡川俣町大字鶴沢字川端2-1", "url2": "https://www.kaigokensaku.mhlw.go.jp/07/index.php?action_kouhyou_detail_004_kani=true&JigyosyoCd=0772000790-00&ServiceCd=780&Type=search" }, "geometry": { "type": "Point", "coordinates": [ 140.5958456, 37.6635529 ] } },
{ "type": "Feature", "properties": { "内容": "デイサービスくおん【地域密着型通所介護】福島県岩瀬郡鏡石町本町1－1", "url2": "https://www.kaigokensaku.mhlw.go.jp/07/index.php?action_kouhyou_detail_004_kani=true&JigyosyoCd=0792200032-00&ServiceCd=780&Type=search" }, "geometry": { "type": "Point", "coordinates": [ 140.3518281, 37.2609734 ] } },
{ "type": "Feature", "properties": { "内容": "湯本デイサービスセンター【地域密着型通所介護】福島県岩瀬郡天栄村大字湯本字下原９５番地", "url2": "https://www.kaigokensaku.mhlw.go.jp/07/index.php?action_kouhyou_detail_004_kani=true&JigyosyoCd=0792210023-00&ServiceCd=780&Type=search" }, "geometry": { "type": "Point", "coordinates": [ 139.989417099999969, 37.2810999 ] } },
{ "type": "Feature", "properties": { "内容": "デイサービスみんなの家【地域密着型通所介護】福島県天栄村大字白子字西ノ内15みんなの家", "url2": "https://www.kaigokensaku.mhlw.go.jp/07/index.php?action_kouhyou_detail_004_kani=true&JigyosyoCd=0792200081-00&ServiceCd=780&Type=search" }, "geometry": { "type": "Point", "coordinates": [ 140.2568775, 37.2533841 ] } },
{ "type": "Feature", "properties": { "内容": "デイサービスセンターふじの郷【地域密着型通所介護】福島県南会津郡下郷町大字塩生字前原502-1", "url2": "https://www.kaigokensaku.mhlw.go.jp/07/index.php?action_kouhyou_detail_004_kani=true&JigyosyoCd=0772300729-00&ServiceCd=780&Type=search" }, "geometry": { "type": "Point", "coordinates": [ 139.86751124707223, 37.252757515406174 ] } },
{ "type": "Feature", "properties": { "内容": "下郷町社会福祉協議会指定居宅サービス事業所【地域密着型通所介護】福島県南会津郡下郷町大字湯野上字杉ノ内乙５４８番地", "url2": "https://www.kaigokensaku.mhlw.go.jp/07/index.php?action_kouhyou_detail_004_kani=true&JigyosyoCd=0772300208-00&ServiceCd=780&Type=search" }, "geometry": { "type": "Point", "coordinates": [ 139.8992356, 37.2955212 ] } },
{ "type": "Feature", "properties": { "内容": "只見デイサービスセンター　あさひケ丘【地域密着型通所介護】福島県南会津郡只見町大字長浜字久保田３１番地", "url2": "https://www.kaigokensaku.mhlw.go.jp/07/index.php?action_kouhyou_detail_004_kani=true&JigyosyoCd=0772300232-00&ServiceCd=780&Type=search" }, "geometry": { "type": "Point", "coordinates": [ 139.374910582139563, 37.30473185669495 ] } },
{ "type": "Feature", "properties": { "内容": "桜の丘みらい【地域密着型通所介護】福島県南会津郡只見町大字只見字原707番地の1", "url2": "https://www.kaigokensaku.mhlw.go.jp/07/index.php?action_kouhyou_detail_004_kani=true&JigyosyoCd=0772300620-00&ServiceCd=780&Type=search" }, "geometry": { "type": "Point", "coordinates": [ 139.31339950000006, 37.3446316 ] } },
{ "type": "Feature", "properties": { "内容": "南郷デイサービスセンターみさわ荘【地域密着型通所介護】福島県南会津郡南会津町片貝字根木屋向1番地1", "url2": "https://www.kaigokensaku.mhlw.go.jp/07/index.php?action_kouhyou_detail_004_kani=true&JigyosyoCd=0772300414-00&ServiceCd=780&Type=search" }, "geometry": { "type": "Point", "coordinates": [ 139.531204200000047, 37.2732583 ] } },
{ "type": "Feature", "properties": { "内容": "田島デイサービスセンター七峰【地域密着型通所介護】福島県南会津郡南会津町関本字百一560-8", "url2": "https://www.kaigokensaku.mhlw.go.jp/07/index.php?action_kouhyou_detail_004_kani=true&JigyosyoCd=0772300216-00&ServiceCd=780&Type=search" }, "geometry": { "type": "Point", "coordinates": [ 139.7350686, 37.152458700000018 ] } },
{ "type": "Feature", "properties": { "内容": "聖光デイサービスセンター【地域密着型通所介護】福島県南会津郡南会津町田島字大坪15", "url2": "https://www.kaigokensaku.mhlw.go.jp/07/index.php?action_kouhyou_detail_004_kani=true&JigyosyoCd=0772300646-00&ServiceCd=780&Type=search" }, "geometry": { "type": "Point", "coordinates": [ 139.7731545, 37.2050566 ] } },
{ "type": "Feature", "properties": { "内容": "運動型デイサービスアイテール聖光【地域密着型通所介護】福島県南会津郡南会津町田部字狐穴68", "url2": "https://www.kaigokensaku.mhlw.go.jp/07/index.php?action_kouhyou_detail_004_kani=true&JigyosyoCd=0772300760-00&ServiceCd=780&Type=search" }, "geometry": { "type": "Point", "coordinates": [ 139.8071931, 37.189976 ] } },
{ "type": "Feature", "properties": { "内容": "田島デイサービスセンター愛宕【地域密着型通所介護】福島県南会津郡南会津町永田字風下3-1", "url2": "https://www.kaigokensaku.mhlw.go.jp/07/index.php?action_kouhyou_detail_004_kani=true&JigyosyoCd=0772300372-00&ServiceCd=780&Type=search" }, "geometry": { "type": "Point", "coordinates": [ 139.759997399999946, 37.2046494 ] } },
{ "type": "Feature", "properties": { "内容": "舘岩デイサービスセンター高夕【地域密着型通所介護】福島県南会津郡南会津町湯ノ花６４７番地南会津町舘岩高齢者生活福祉センター高夕", "url2": "https://www.kaigokensaku.mhlw.go.jp/07/index.php?action_kouhyou_detail_004_kani=true&JigyosyoCd=0772300521-00&ServiceCd=780&Type=search" }, "geometry": { "type": "Point", "coordinates": [ 139.522875, 37.0679284 ] } },
{ "type": "Feature", "properties": { "内容": "南会津町伊南デイサービスセンター尾白荘【地域密着型通所介護】福島県南会津郡南会津町古町字太子堂205", "url2": "https://www.kaigokensaku.mhlw.go.jp/07/index.php?action_kouhyou_detail_004_kani=true&JigyosyoCd=0772300224-00&ServiceCd=780&Type=search" }, "geometry": { "type": "Point", "coordinates": [ 139.527292031213364, 37.186192041525885 ] } },
{ "type": "Feature", "properties": { "内容": "あたご共同作業所【地域密着型通所介護】福島県南会津郡南会津町中荒井字西原４７番地", "url2": "https://www.kaigokensaku.mhlw.go.jp/07/index.php?action_kouhyou_detail_004_kani=true&JigyosyoCd=0792300048-00&ServiceCd=780&Type=search" }, "geometry": { "type": "Point", "coordinates": [ 139.749605, 37.17444 ] } },
{ "type": "Feature", "properties": { "内容": "デイサービス・メープルフェロー田島【地域密着型通所介護】福島県南会津郡南会津町田島字田部原１２５番地１３", "url2": "https://www.kaigokensaku.mhlw.go.jp/07/index.php?action_kouhyou_detail_004_kani=true&JigyosyoCd=0772300638-00&ServiceCd=780&Type=search" }, "geometry": { "type": "Point", "coordinates": [ 139.8005076, 37.2121087 ] } },
{ "type": "Feature", "properties": { "内容": "いなわしろホームデイサービスセンター指定地域密着型通所介護事業所【地域密着型通所介護】福島県耶麻郡猪苗代町大字三郷字寺南7962-1", "url2": "https://www.kaigokensaku.mhlw.go.jp/07/index.php?action_kouhyou_detail_004_kani=true&JigyosyoCd=0772500195-00&ServiceCd=780&Type=search" }, "geometry": { "type": "Point", "coordinates": [ 140.1388308, 37.5634066 ] } },
{ "type": "Feature", "properties": { "内容": "デイサービスセンター　咲楽の里【地域密着型通所介護】福島県耶麻郡猪苗代町字程塚2789番", "url2": "https://www.kaigokensaku.mhlw.go.jp/07/index.php?action_kouhyou_detail_004_kani=true&JigyosyoCd=0772500443-00&ServiceCd=780&Type=search" }, "geometry": { "type": "Point", "coordinates": [ 140.117344799999955, 37.5714449 ] } },
{ "type": "Feature", "properties": { "内容": "デイサービスゆうき【地域密着型通所介護】福島県耶麻郡猪苗代町川桁字長町３４８３番地１", "url2": "https://www.kaigokensaku.mhlw.go.jp/07/index.php?action_kouhyou_detail_004_kani=true&JigyosyoCd=0772500559-00&ServiceCd=780&Type=search" }, "geometry": { "type": "Point", "coordinates": [ 140.14034879999997, 37.537624600000015 ] } },
{ "type": "Feature", "properties": { "内容": "特定非営利活動法人　きらめき　デイサービスセンターあそびりステーション【地域密着型通所介護】福島県河沼郡会津坂下町大字束原字東１５２２番地", "url2": "https://www.kaigokensaku.mhlw.go.jp/07/index.php?action_kouhyou_detail_004_kani=true&JigyosyoCd=0772600474-00&ServiceCd=780&Type=search" }, "geometry": { "type": "Point", "coordinates": [ 139.8609358, 37.5394798 ] } },
{ "type": "Feature", "properties": { "内容": "デイサービスセンター咲顔【地域密着型通所介護】福島県河沼郡柳津町郷戸字石神浦甲２２７９", "url2": "https://www.kaigokensaku.mhlw.go.jp/07/index.php?action_kouhyou_detail_004_kani=true&JigyosyoCd=0772600490-00&ServiceCd=780&Type=search" }, "geometry": { "type": "Point", "coordinates": [ 139.713201199999986, 37.5046918 ] } },
{ "type": "Feature", "properties": { "内容": "デイサービス西輝【地域密着型通所介護】福島県大沼郡三島町大字西方字居平77番地", "url2": "https://www.kaigokensaku.mhlw.go.jp/07/index.php?action_kouhyou_detail_004_kani=true&JigyosyoCd=0792700015-00&ServiceCd=780&Type=search" }, "geometry": { "type": "Point", "coordinates": [ 139.6617996, 37.4928611 ] } },
{ "type": "Feature", "properties": { "内容": "よこたデイサービスセンター【地域密着型通所介護】福島県大沼郡金山町大字横田字古町685-1番地", "url2": "https://www.kaigokensaku.mhlw.go.jp/07/index.php?action_kouhyou_detail_004_kani=true&JigyosyoCd=0772700357-00&ServiceCd=780&Type=search" }, "geometry": { "type": "Point", "coordinates": [ 139.445576699999947, 37.3953201 ] } },
{ "type": "Feature", "properties": { "内容": "リハビリセンター藤川【地域密着型通所介護】福島県大沼郡会津美里町冨川字上中川316", "url2": "https://www.kaigokensaku.mhlw.go.jp/07/index.php?action_kouhyou_detail_004_kani=true&JigyosyoCd=0792730053-00&ServiceCd=780&Type=search" }, "geometry": { "type": "Point", "coordinates": [ 139.835470500000042, 37.4432778 ] } },
{ "type": "Feature", "properties": { "内容": "湯ったりデイサービス追原の森【地域密着型通所介護】福島県西白河郡西郷村大字鶴生字由井ヶ原39", "url2": "https://www.kaigokensaku.mhlw.go.jp/07/index.php?action_kouhyou_detail_004_kani=true&JigyosyoCd=0792800153-00&ServiceCd=780&Type=search" }, "geometry": { "type": "Point", "coordinates": [ 140.066833, 37.176881 ] } },
{ "type": "Feature", "properties": { "内容": "デイサービス　ひだまり【地域密着型通所介護】福島県西白河郡泉崎村踏瀬字町尻10-1", "url2": "https://www.kaigokensaku.mhlw.go.jp/07/index.php?action_kouhyou_detail_004_kani=true&JigyosyoCd=0772800942-00&ServiceCd=780&Type=search" }, "geometry": { "type": "Point", "coordinates": [ 140.291614699999968, 37.1846041 ] } },
{ "type": "Feature", "properties": { "内容": "デイサービスセンターほたるの里【地域密着型通所介護】福島県東白川郡棚倉町大字関口字豊郷103", "url2": "https://www.kaigokensaku.mhlw.go.jp/07/index.php?action_kouhyou_detail_004_kani=true&JigyosyoCd=0772900403-00&ServiceCd=780&Type=search" }, "geometry": { "type": "Point", "coordinates": [ 140.39377930417902, 37.023938965418608 ] } },
{ "type": "Feature", "properties": { "内容": "通所介護なごみ【地域密着型通所介護】福島県東白川郡棚倉町大字棚倉字南町195-1", "url2": "https://www.kaigokensaku.mhlw.go.jp/07/index.php?action_kouhyou_detail_004_kani=true&JigyosyoCd=0772900437-00&ServiceCd=780&Type=search" }, "geometry": { "type": "Point", "coordinates": [ 140.3899285591732, 37.023009641592843 ] } },
{ "type": "Feature", "properties": { "内容": "デイサービス　サティ【地域密着型通所介護】福島県東白川郡棚倉町関口一本松164-3", "url2": "https://www.kaigokensaku.mhlw.go.jp/07/index.php?action_kouhyou_detail_004_kani=true&JigyosyoCd=0792900045-00&ServiceCd=780&Type=search" }, "geometry": { "type": "Point", "coordinates": [ 140.389042, 37.0350656 ] } },
{ "type": "Feature", "properties": { "内容": "矢祭町デイサービスセンター舘山荘【地域密着型通所介護】福島県東白川郡矢祭町大字東舘字舘3−1", "url2": "https://www.kaigokensaku.mhlw.go.jp/07/index.php?action_kouhyou_detail_004_kani=true&JigyosyoCd=0792900060-00&ServiceCd=780&Type=search" }, "geometry": { "type": "Point", "coordinates": [ 140.4270626, 36.8740945 ] } },
{ "type": "Feature", "properties": { "内容": "通所介護　のどか【地域密着型通所介護】福島県東白川郡塙町大字塙字末広町132-1", "url2": "https://www.kaigokensaku.mhlw.go.jp/07/index.php?action_kouhyou_detail_004_kani=true&JigyosyoCd=0792920027-00&ServiceCd=780&Type=search" }, "geometry": { "type": "Point", "coordinates": [ 140.406073200000037, 36.9619005 ] } },
{ "type": "Feature", "properties": { "内容": "石川町老人デイサービスセンター長生園【地域密着型通所介護】福島県石川郡石川町字塩ノ平201の1", "url2": "https://www.kaigokensaku.mhlw.go.jp/07/index.php?action_kouhyou_detail_004_kani=true&JigyosyoCd=0773000260-00&ServiceCd=780&Type=search" }, "geometry": { "type": "Point", "coordinates": [ 140.431491199999982, 37.163764900000011 ] } },
{ "type": "Feature", "properties": { "内容": "デイサービスセンターまつたや【地域密着型通所介護】福島県石川郡石川町字長久保92-1", "url2": "https://www.kaigokensaku.mhlw.go.jp/07/index.php?action_kouhyou_detail_004_kani=true&JigyosyoCd=0773000526-00&ServiceCd=780&Type=search" }, "geometry": { "type": "Point", "coordinates": [ 140.447903799999949, 37.1576192 ] } },
{ "type": "Feature", "properties": { "内容": "浅川町デイサービスセンター　さぎそう【地域密着型通所介護】福島県石川郡浅川町大字浅川字背戸谷地１７７－６", "url2": "https://www.kaigokensaku.mhlw.go.jp/07/index.php?action_kouhyou_detail_004_kani=true&JigyosyoCd=0773000104-00&ServiceCd=780&Type=search" }, "geometry": { "type": "Point", "coordinates": [ 140.405357500000036, 37.0797502 ] } },
{ "type": "Feature", "properties": { "内容": "小規模通所介護事業所　もうぎ【地域密着型通所介護】福島県田村郡三春町大字下舞木字上ノ内９９番地の７", "url2": "https://www.kaigokensaku.mhlw.go.jp/07/index.php?action_kouhyou_detail_004_kani=true&JigyosyoCd=0773100656-00&ServiceCd=780&Type=search" }, "geometry": { "type": "Point", "coordinates": [ 140.435279300000047, 37.4209516 ] } },
{ "type": "Feature", "properties": { "内容": "浪江町社会福祉協議会　ふれあいデイサービス【地域密着型通所介護】福島県双葉郡浪江町大字権現堂字矢沢町6番地の1", "url2": "https://www.kaigokensaku.mhlw.go.jp/07/index.php?action_kouhyou_detail_004_kani=true&JigyosyoCd=0793200049-00&ServiceCd=780&Type=search" }, "geometry": { "type": "Point", "coordinates": [ 140.9871475, 37.491353 ] } },
{ "type": "Feature", "properties": { "内容": "葛尾村社会福祉協議会【地域密着型通所介護】福島県双葉郡葛尾村落合字菅ノ又６－１", "url2": "https://www.kaigokensaku.mhlw.go.jp/07/index.php?action_kouhyou_detail_004_kani=true&JigyosyoCd=0773200282-00&ServiceCd=780&Type=search" }, "geometry": { "type": "Point", "coordinates": [ 140.759279700000036, 37.499725900000016 ] } },
{ "type": "Feature", "properties": { "内容": "デイサービス自遊楽校【地域密着型通所介護】福島県相馬郡新地町谷地小屋字新地51-2", "url2": "https://www.kaigokensaku.mhlw.go.jp/07/index.php?action_kouhyou_detail_004_kani=true&JigyosyoCd=0773300306-00&ServiceCd=780&Type=search" }, "geometry": { "type": "Point", "coordinates": [ 140.9139553, 37.87518 ] } },
{ "type": "Feature", "properties": { "内容": "こもれびの里【地域密着型通所介護】福島県相馬郡新地町駒ヶ嶺字大作48-9", "url2": "https://www.kaigokensaku.mhlw.go.jp/07/index.php?action_kouhyou_detail_004_kani=true&JigyosyoCd=0773300264-00&ServiceCd=780&Type=search" }, "geometry": { "type": "Point", "coordinates": [ 140.899460525811719, 37.854526766007034 ] } }
]
}
