{
"type": "FeatureCollection",
"name": "geo_07_特定施設入居者生活介護（有料老人ホーム（サービス付き高齢者向け住宅））",
"crs": { "type": "name", "properties": { "name": "urn:ogc:def:crs:OGC:1.3:CRS84" } },
"features": [
{ "type": "Feature", "properties": { "内容": "ライフガーデンあづま【特定施設入居者生活介護（有料老人ホーム（サービス付き高齢者向け住宅））】大森字柳下10番地1号", "url2": "https://www.kaigokensaku.mhlw.go.jp/07/index.php?action_kouhyou_detail_004_kani=true&JigyosyoCd=0770105591-00&ServiceCd=&Type=search" }, "geometry": { "type": "Point", "coordinates": [ 140.445749592204322, 37.739925931491314 ] } },
{ "type": "Feature", "properties": { "内容": "南開成ケアコミュニティそよ風【特定施設入居者生活介護（有料老人ホーム（サービス付き高齢者向け住宅））】福島県郡山市桑野清水台48-8", "url2": "https://www.kaigokensaku.mhlw.go.jp/07/index.php?action_kouhyou_detail_004_kani=true&JigyosyoCd=0770304111-00&ServiceCd=&Type=search" }, "geometry": { "type": "Point", "coordinates": [ 140.355874199999988, 37.3860179 ] } },
{ "type": "Feature", "properties": { "内容": "サービス付き高齢者向け住宅　逢座【特定施設入居者生活介護（有料老人ホーム（サービス付き高齢者向け住宅））】福島県郡山市大町一丁目１３番地１４号", "url2": "https://www.kaigokensaku.mhlw.go.jp/07/index.php?action_kouhyou_detail_004_kani=true&JigyosyoCd=0770306058-00&ServiceCd=&Type=search" }, "geometry": { "type": "Point", "coordinates": [ 140.386325350926228, 37.401523145288465 ] } },
{ "type": "Feature", "properties": { "内容": "介護付き有料老人ホーム　アーク・コートささがわ【特定施設入居者生活介護（有料老人ホーム（サービス付き高齢者向け住宅））】福島県郡山市安積町笹川字高石坊27番地１", "url2": "https://www.kaigokensaku.mhlw.go.jp/07/index.php?action_kouhyou_detail_004_kani=true&JigyosyoCd=0770306363-00&ServiceCd=&Type=search" }, "geometry": { "type": "Point", "coordinates": [ 140.367435616394062, 37.3517180623952 ] } },
{ "type": "Feature", "properties": { "内容": "サービス付き高齢者向け住宅Well【特定施設入居者生活介護（有料老人ホーム（サービス付き高齢者向け住宅））】福島県いわき市小名浜金成字若宮50-1サービス付き高齢者向け住宅Well", "url2": "https://www.kaigokensaku.mhlw.go.jp/07/index.php?action_kouhyou_detail_004_kani=true&JigyosyoCd=0770407864-00&ServiceCd=&Type=search" }, "geometry": { "type": "Point", "coordinates": [ 140.89598490000003, 36.9881393 ] } },
{ "type": "Feature", "properties": { "内容": "ケアタウンつどいいわき好間【特定施設入居者生活介護（有料老人ホーム（サービス付き高齢者向け住宅））】福島県いわき市好間町中好間字寺台74-1", "url2": "https://www.kaigokensaku.mhlw.go.jp/07/index.php?action_kouhyou_detail_004_kani=true&JigyosyoCd=0770409514-00&ServiceCd=&Type=search" }, "geometry": { "type": "Point", "coordinates": [ 140.85636310000001, 37.0587446 ] } },
{ "type": "Feature", "properties": { "内容": "介護付有料老人ホーム　ケアテル吾妻苑【特定施設入居者生活介護（有料老人ホーム（サービス付き高齢者向け住宅））】福島県耶麻郡猪苗代町大字蚕養字山根乙535番地の12", "url2": "https://www.kaigokensaku.mhlw.go.jp/07/index.php?action_kouhyou_detail_004_kani=true&JigyosyoCd=0772500625-00&ServiceCd=&Type=search" }, "geometry": { "type": "Point", "coordinates": [ 140.1385454, 37.6011429 ] } }
]
}
