{
"type": "FeatureCollection",
"name": "geo_07_小規模多機能型居宅介護",
"crs": { "type": "name", "properties": { "name": "urn:ogc:def:crs:OGC:1.3:CRS84" } },
"features": [
{ "type": "Feature", "properties": { "内容": "夢ガーデン宮町【小規模多機能型居宅介護】福島県福島市宮町2-43", "url": "https://www.kaigokensaku.mhlw.go.jp/07/index.php?action_kouhyou_detail_004_kani=true&JigyosyoCd=0790101026-00&ServiceCd=730&Type=search", "url2": null }, "geometry": { "type": "Point", "coordinates": [ 140.468818493254048, 37.756044716428825 ] } },
{ "type": "Feature", "properties": { "内容": "サテライトゆめさくら【小規模多機能型居宅介護】方木田水戸内8-15", "url": "https://www.kaigokensaku.mhlw.go.jp/07/index.php?action_kouhyou_detail_004_kani=true&JigyosyoCd=0790101182-00&ServiceCd=730&Type=search", "url2": null }, "geometry": { "type": "Point", "coordinates": [ 140.44762990000001, 37.7425652 ] } },
{ "type": "Feature", "properties": { "内容": "小規模多機能型居宅介護事業所　きてみらい【小規模多機能型居宅介護】福島県福島市霞町４－４０", "url": "https://www.kaigokensaku.mhlw.go.jp/07/index.php?action_kouhyou_detail_004_kani=true&JigyosyoCd=0790100788-00&ServiceCd=730&Type=search", "url2": null }, "geometry": { "type": "Point", "coordinates": [ 140.469970099999955, 37.7639499 ] } },
{ "type": "Feature", "properties": { "内容": "クローバーケア福島・蓬莱【小規模多機能型居宅介護】福島県福島市蓬莱町三丁目11番6号", "url": "https://www.kaigokensaku.mhlw.go.jp/07/index.php?action_kouhyou_detail_004_kani=true&JigyosyoCd=0790101141-00&ServiceCd=730&Type=search", "url2": "https://clover-care.jp/" }, "geometry": { "type": "Point", "coordinates": [ 140.47896750000001, 37.7021679 ] } },
{ "type": "Feature", "properties": { "内容": "小規模多機能型居宅介護事業所　悠と里【小規模多機能型居宅介護】福島県福島市南沢又字清水端81番地ハートフルコート悠と里", "url": "https://www.kaigokensaku.mhlw.go.jp/07/index.php?action_kouhyou_detail_004_kani=true&JigyosyoCd=0790100804-00&ServiceCd=730&Type=search", "url2": "http://kitafukushima.co.jp" }, "geometry": { "type": "Point", "coordinates": [ 140.438025399999987, 37.7726037 ] } },
{ "type": "Feature", "properties": { "内容": "笹谷サポートセンター　よりあい【小規模多機能型居宅介護】福島県福島市笹谷字鍛冶屋敷17－1", "url": "https://www.kaigokensaku.mhlw.go.jp/07/index.php?action_kouhyou_detail_004_kani=true&JigyosyoCd=0790100101-00&ServiceCd=730&Type=search", "url2": "http://www.kirari‐hcoop.com" }, "geometry": { "type": "Point", "coordinates": [ 140.435080699999958, 37.7907297 ] } },
{ "type": "Feature", "properties": { "内容": "小規模多機能型居宅介護事業所　なじみの里【小規模多機能型居宅介護】福島県福島市大森字柳下10-1ライフガーデン　1階", "url": "https://www.kaigokensaku.mhlw.go.jp/07/index.php?action_kouhyou_detail_004_kani=true&JigyosyoCd=0790100010-00&ServiceCd=730&Type=search", "url2": "http://www.azumanh.or.jp/najimi/najimi.html" }, "geometry": { "type": "Point", "coordinates": [ 140.445436860049426, 37.739938505322968 ] } },
{ "type": "Feature", "properties": { "内容": "小規模多機能型居宅介護事業所たゆたふ【小規模多機能型居宅介護】福島県福島市森合字台24-10", "url": "https://www.kaigokensaku.mhlw.go.jp/07/index.php?action_kouhyou_detail_004_kani=true&JigyosyoCd=0790100945-00&ServiceCd=730&Type=search", "url2": "http://www.maru-kita.co.jp/" }, "geometry": { "type": "Point", "coordinates": [ 140.457007400000066, 37.7661537 ] } },
{ "type": "Feature", "properties": { "内容": "小規模多機能型居宅介護　なのはな畑【小規模多機能型居宅介護】福島県福島市豊田町1-10", "url": "https://www.kaigokensaku.mhlw.go.jp/07/index.php?action_kouhyou_detail_004_kani=true&JigyosyoCd=0790101075-00&ServiceCd=730&Type=search", "url2": "http://www.nanohanabatake.net" }, "geometry": { "type": "Point", "coordinates": [ 140.4729819, 37.7551834 ] } },
{ "type": "Feature", "properties": { "内容": "小規模多機能すこやかの里・瀬上【小規模多機能型居宅介護】福島県福島市瀬上町字四斗蒔1-1", "url": "https://www.kaigokensaku.mhlw.go.jp/07/index.php?action_kouhyou_detail_004_kani=true&JigyosyoCd=0790101190-00&ServiceCd=730&Type=search", "url2": "https://sukoyakanosato.jp" }, "geometry": { "type": "Point", "coordinates": [ 140.494112300000012, 37.8013193 ] } },
{ "type": "Feature", "properties": { "内容": "あいの里　きろう【小規模多機能型居宅介護】福島県福島市笹谷字谷地前２３番地の５", "url": "https://www.kaigokensaku.mhlw.go.jp/07/index.php?action_kouhyou_detail_004_kani=true&JigyosyoCd=0790100747-00&ServiceCd=730&Type=search", "url2": "ai-nosato.jp" }, "geometry": { "type": "Point", "coordinates": [ 140.446929599999976, 37.7928104 ] } },
{ "type": "Feature", "properties": { "内容": "小規模多機能型居宅介護支援事業所　森の風【小規模多機能型居宅介護】福島県福島市南沢又字水門下160番地の3", "url": "https://www.kaigokensaku.mhlw.go.jp/07/index.php?action_kouhyou_detail_004_kani=true&JigyosyoCd=0790100838-00&ServiceCd=730&Type=search", "url2": "http://youkoukai.jp/" }, "geometry": { "type": "Point", "coordinates": [ 140.411344399999962, 37.78223 ] } },
{ "type": "Feature", "properties": { "内容": "ゲストハウスけいざん2号館【小規模多機能型居宅介護】福島県会津若松市慶山一丁目11番03号", "url": "https://www.kaigokensaku.mhlw.go.jp/07/index.php?action_kouhyou_detail_004_kani=true&JigyosyoCd=0790200372-00&ServiceCd=730&Type=search", "url2": "https://netcare-plan.com" }, "geometry": { "type": "Point", "coordinates": [ 139.949142099999989, 37.4949112 ] } },
{ "type": "Feature", "properties": { "内容": "ゲストハウスけいざん【小規模多機能型居宅介護】福島県会津若松市慶山1丁目11番23号", "url": "https://www.kaigokensaku.mhlw.go.jp/07/index.php?action_kouhyou_detail_004_kani=true&JigyosyoCd=0790200232-00&ServiceCd=730&Type=search", "url2": "https://netcare-plan.com/" }, "geometry": { "type": "Point", "coordinates": [ 139.9493934, 37.4947111 ] } },
{ "type": "Feature", "properties": { "内容": "小規模多機能型居宅介護みなと【小規模多機能型居宅介護】福島県会津若松市湊町大字共和字西田面1番地1", "url": "https://www.kaigokensaku.mhlw.go.jp/07/index.php?action_kouhyou_detail_004_kani=true&JigyosyoCd=0790200125-00&ServiceCd=730&Type=search", "url2": null }, "geometry": { "type": "Point", "coordinates": [ 140.01049850000004, 37.468945 ] } },
{ "type": "Feature", "properties": { "内容": "小規模多機能型居宅介護　オレンジ【小規模多機能型居宅介護】福島県会津若松市本町2－60へるすぷらざ山鹿2号館　3階", "url": "https://www.kaigokensaku.mhlw.go.jp/07/index.php?action_kouhyou_detail_004_kani=true&JigyosyoCd=0790200364-00&ServiceCd=730&Type=search", "url2": "http://takedakenko.jp/kaigohonbu/index.html" }, "geometry": { "type": "Point", "coordinates": [ 139.9207845, 37.4918679 ] } },
{ "type": "Feature", "properties": { "内容": "多機能介護エスプリ【小規模多機能型居宅介護】福島県会津若松市門田町黒岩石高194-2", "url": "https://www.kaigokensaku.mhlw.go.jp/07/index.php?action_kouhyou_detail_004_kani=true&JigyosyoCd=0790200240-00&ServiceCd=730&Type=search", "url2": "https://kokoronosato-aizu.com/" }, "geometry": { "type": "Point", "coordinates": [ 139.9344768, 37.4718384 ] } },
{ "type": "Feature", "properties": { "内容": "ておす【小規模多機能型居宅介護】福島県会津若松市藤原二丁目22番地の3サテライト型小規模多機能型居宅介護事業所", "url": "https://www.kaigokensaku.mhlw.go.jp/07/index.php?action_kouhyou_detail_004_kani=true&JigyosyoCd=0790200257-00&ServiceCd=730&Type=search", "url2": "http://www.khaos.jp/" }, "geometry": { "type": "Point", "coordinates": [ 139.940629258335889, 37.515203876917475 ] } },
{ "type": "Feature", "properties": { "内容": "小規模多機能すずかぜ東山【小規模多機能型居宅介護】東山町大字石山字院内556-10", "url": "https://www.kaigokensaku.mhlw.go.jp/07/index.php?action_kouhyou_detail_004_kani=true&JigyosyoCd=0790200083-00&ServiceCd=730&Type=search", "url2": "https://nfks.jp/" }, "geometry": { "type": "Point", "coordinates": [ 139.9574978, 37.4815179 ] } },
{ "type": "Feature", "properties": { "内容": "小規模多機能すずかぜ山見【小規模多機能型居宅介護】山見町2-11-7", "url": "https://www.kaigokensaku.mhlw.go.jp/07/index.php?action_kouhyou_detail_004_kani=true&JigyosyoCd=0790200463-00&ServiceCd=730&Type=search", "url2": "https://nfks.jp/" }, "geometry": { "type": "Point", "coordinates": [ 139.939080776057409, 37.510559513704727 ] } },
{ "type": "Feature", "properties": { "内容": "ハーモニー松長【小規模多機能型居宅介護】福島県会津若松市一箕町松長５丁目１１番地３１", "url": "https://www.kaigokensaku.mhlw.go.jp/07/index.php?action_kouhyou_detail_004_kani=true&JigyosyoCd=0790200141-00&ServiceCd=730&Type=search", "url2": "http://sin-ai.com/" }, "geometry": { "type": "Point", "coordinates": [ 139.9617862, 37.5275992 ] } },
{ "type": "Feature", "properties": { "内容": "小規模多機能型居宅介護事業所「健康倶楽部家　鶴成館」【小規模多機能型居宅介護】福島県会津若松市飯寺南三丁目2番21号", "url": "https://www.kaigokensaku.mhlw.go.jp/07/index.php?action_kouhyou_detail_004_kani=true&JigyosyoCd=0790200042-00&ServiceCd=730&Type=search", "url2": "http://www.heiseikai-group.com/" }, "geometry": { "type": "Point", "coordinates": [ 139.908246530042106, 37.476217370201802 ] } },
{ "type": "Feature", "properties": { "内容": "健康倶楽部あいづ　小規模多機能型居宅介護事業所「アルコート南」【小規模多機能型居宅介護】福島県会津若松市館馬町6番11号", "url": "https://www.kaigokensaku.mhlw.go.jp/07/index.php?action_kouhyou_detail_004_kani=true&JigyosyoCd=0790200273-00&ServiceCd=730&Type=search", "url2": "http://www.heiseikai-group.com/" }, "geometry": { "type": "Point", "coordinates": [ 139.922641099999964, 37.48091790000003 ] } },
{ "type": "Feature", "properties": { "内容": "医療法人　むつき会　Carehill's　小規模多機能型居宅介護　野の花【小規模多機能型居宅介護】福島県郡山市富久山町久保田字上野147-8", "url": "https://www.kaigokensaku.mhlw.go.jp/07/index.php?action_kouhyou_detail_004_kani=true&JigyosyoCd=0790300206-00&ServiceCd=730&Type=search", "url2": "http://mutsukikai.ftw.jp/" }, "geometry": { "type": "Point", "coordinates": [ 140.385144447668722, 37.413142190512552 ] } },
{ "type": "Feature", "properties": { "内容": "医療法人　むつき会　小規模多機能型居宅介護　あおいそら【小規模多機能型居宅介護】福島県郡山市片平町字若宮裏１０－４", "url": "https://www.kaigokensaku.mhlw.go.jp/07/index.php?action_kouhyou_detail_004_kani=true&JigyosyoCd=0790300131-00&ServiceCd=730&Type=search", "url2": "https://mutsukikai.com/sakuma/" }, "geometry": { "type": "Point", "coordinates": [ 140.320867435581931, 37.41909752340699 ] } },
{ "type": "Feature", "properties": { "内容": "小規模多機能型居宅介護　輝たむら２号館【小規模多機能型居宅介護】郡山市田村町金屋字上川原273-1", "url": "https://www.kaigokensaku.mhlw.go.jp/07/index.php?action_kouhyou_detail_004_kani=true&JigyosyoCd=0790300776-00&ServiceCd=730&Type=search", "url2": "http://kagayaki/co/" }, "geometry": { "type": "Point", "coordinates": [ 140.390496314355801, 37.366794735921992 ] } },
{ "type": "Feature", "properties": { "内容": "慈愛のさと寿光庵さくら【小規模多機能型居宅介護】郡山市富田町字天神林50", "url": "https://www.kaigokensaku.mhlw.go.jp/07/index.php?action_kouhyou_detail_004_kani=true&JigyosyoCd=0790300149-00&ServiceCd=730&Type=search", "url2": "http://jukoan.com/" }, "geometry": { "type": "Point", "coordinates": [ 140.3591719, 37.4224232 ] } },
{ "type": "Feature", "properties": { "内容": "小規模多機能型居宅介護　輝【小規模多機能型居宅介護】熱海町安子島字馬場61-5", "url": "https://www.kaigokensaku.mhlw.go.jp/07/index.php?action_kouhyou_detail_004_kani=true&JigyosyoCd=0790300396-00&ServiceCd=730&Type=search", "url2": "http://kagayaki.co/" }, "geometry": { "type": "Point", "coordinates": [ 140.304825100000016, 37.4785995 ] } },
{ "type": "Feature", "properties": { "内容": "小規模多機能型居宅介護　輝こはらだ【小規模多機能型居宅介護】福島県郡山市小原田４丁目２番１７号", "url": "https://www.kaigokensaku.mhlw.go.jp/07/index.php?action_kouhyou_detail_004_kani=true&JigyosyoCd=0790300594-00&ServiceCd=730&Type=search", "url2": "https://kagayaki.co/" }, "geometry": { "type": "Point", "coordinates": [ 140.379584200000011, 37.381529 ] } },
{ "type": "Feature", "properties": { "内容": "シンシアリィ【小規模多機能型居宅介護】福島県郡山市三穂田町富岡字三本木２番地８２", "url": "https://www.kaigokensaku.mhlw.go.jp/07/index.php?action_kouhyou_detail_004_kani=true&JigyosyoCd=0790300727-00&ServiceCd=730&Type=search", "url2": "https://sincerely2017.co.jp/" }, "geometry": { "type": "Point", "coordinates": [ 140.2735145, 37.3449747 ] } },
{ "type": "Feature", "properties": { "内容": "さかえライフハート美術館通り【小規模多機能型居宅介護】福島県郡山市字下舘野１１－１", "url": "https://www.kaigokensaku.mhlw.go.jp/07/index.php?action_kouhyou_detail_004_kani=true&JigyosyoCd=0790300164-00&ServiceCd=730&Type=search", "url2": "http://www.sakaenaika.jp" }, "geometry": { "type": "Point", "coordinates": [ 140.404679900000019, 37.3974028 ] } },
{ "type": "Feature", "properties": { "内容": "輝　たむら【小規模多機能型居宅介護】福島県郡山市田村町金屋字上川原269-1", "url": "https://www.kaigokensaku.mhlw.go.jp/07/index.php?action_kouhyou_detail_004_kani=true&JigyosyoCd=0790300511-00&ServiceCd=730&Type=search", "url2": null }, "geometry": { "type": "Point", "coordinates": [ 140.3900911, 37.3668754 ] } },
{ "type": "Feature", "properties": { "内容": "小規模多機能型居宅介護ひなたぼっこ【小規模多機能型居宅介護】福島県郡山市島二丁目２３番１７号", "url": "https://www.kaigokensaku.mhlw.go.jp/07/index.php?action_kouhyou_detail_004_kani=true&JigyosyoCd=0790300248-00&ServiceCd=730&Type=search", "url2": "http:/www.koriyama-h-coop.or.jp/" }, "geometry": { "type": "Point", "coordinates": [ 140.3448158, 37.3966596 ] } },
{ "type": "Feature", "properties": { "内容": "ＪＡ福島さくら　小規模多機能型居宅介護　は～とらいふ八山田【小規模多機能型居宅介護】福島県郡山市八山田西五丁目123番地", "url": "https://www.kaigokensaku.mhlw.go.jp/07/index.php?action_kouhyou_detail_004_kani=true&JigyosyoCd=0790300701-00&ServiceCd=730&Type=search", "url2": null }, "geometry": { "type": "Point", "coordinates": [ 140.368621100000041, 37.4258655 ] } },
{ "type": "Feature", "properties": { "内容": "なじみ鶴見坦【小規模多機能型居宅介護】福島県郡山市鶴見坦二丁目11-1", "url": "https://www.kaigokensaku.mhlw.go.jp/07/index.php?action_kouhyou_detail_004_kani=true&JigyosyoCd=0790300578-00&ServiceCd=730&Type=search", "url2": null }, "geometry": { "type": "Point", "coordinates": [ 140.365736199999986, 37.3918968 ] } },
{ "type": "Feature", "properties": { "内容": "なじみ安積【小規模多機能型居宅介護】福島県郡山市安積荒井本町375番地", "url": "https://www.kaigokensaku.mhlw.go.jp/07/index.php?action_kouhyou_detail_004_kani=true&JigyosyoCd=0790300289-00&ServiceCd=730&Type=search", "url2": null }, "geometry": { "type": "Point", "coordinates": [ 140.3682341, 37.366818899999984 ] } },
{ "type": "Feature", "properties": { "内容": "小規模多機能型居宅介護おら家【小規模多機能型居宅介護】福島県郡山市亀田西６７番地", "url": "https://www.kaigokensaku.mhlw.go.jp/07/index.php?action_kouhyou_detail_004_kani=true&JigyosyoCd=0790300081-00&ServiceCd=730&Type=search", "url2": "https://gc-bridge.jp/orage/" }, "geometry": { "type": "Point", "coordinates": [ 140.342226799999906, 37.4051696 ] } },
{ "type": "Feature", "properties": { "内容": "ハーモニー日和田【小規模多機能型居宅介護】福島県郡山市日和田町字北ノ入51番1", "url": "https://www.kaigokensaku.mhlw.go.jp/07/index.php?action_kouhyou_detail_004_kani=true&JigyosyoCd=0790300222-00&ServiceCd=730&Type=search", "url2": "info@sin-ai.com" }, "geometry": { "type": "Point", "coordinates": [ 140.3902525, 37.452547400000014 ] } },
{ "type": "Feature", "properties": { "内容": "ハーモニー中田【小規模多機能型居宅介護】福島県郡山市中田町下枝字久保337番地1", "url": "https://www.kaigokensaku.mhlw.go.jp/07/index.php?action_kouhyou_detail_004_kani=true&JigyosyoCd=0790300073-00&ServiceCd=730&Type=search", "url2": "http://www.sin-ai.com" }, "geometry": { "type": "Point", "coordinates": [ 140.4773371, 37.3523456 ] } },
{ "type": "Feature", "properties": { "内容": "なじみ山根【小規模多機能型居宅介護】福島県郡山市山根町12-25", "url": "https://www.kaigokensaku.mhlw.go.jp/07/index.php?action_kouhyou_detail_004_kani=true&JigyosyoCd=0790300404-00&ServiceCd=730&Type=search", "url2": null }, "geometry": { "type": "Point", "coordinates": [ 140.373932051451078, 37.384352560527368 ] } },
{ "type": "Feature", "properties": { "内容": "ハーモニー並木【小規模多機能型居宅介護】福島県郡山市並木５丁目6－7", "url": "https://www.kaigokensaku.mhlw.go.jp/07/index.php?action_kouhyou_detail_004_kani=true&JigyosyoCd=0790300156-00&ServiceCd=730&Type=search", "url2": "http://sin-ai.com/" }, "geometry": { "type": "Point", "coordinates": [ 140.36082220000003, 37.4125945 ] } },
{ "type": "Feature", "properties": { "内容": "小規模多機能型居宅介護　結【小規模多機能型居宅介護】福島県郡山市桜木１丁目1-9", "url": "https://www.kaigokensaku.mhlw.go.jp/07/index.php?action_kouhyou_detail_004_kani=true&JigyosyoCd=0790300362-00&ServiceCd=730&Type=search", "url2": "http://www.mutukikai.com/" }, "geometry": { "type": "Point", "coordinates": [ 140.374252, 37.407674299999968 ] } },
{ "type": "Feature", "properties": { "内容": "ハーモニーみどりヶ丘ソレイユ【小規模多機能型居宅介護】福島県郡山市緑ヶ丘東六丁目26-1ハーモニーみどりヶ丘ソレイユ", "url": "https://www.kaigokensaku.mhlw.go.jp/07/index.php?action_kouhyou_detail_004_kani=true&JigyosyoCd=0790300743-00&ServiceCd=730&Type=search", "url2": "http://www.sin-ai.com/" }, "geometry": { "type": "Point", "coordinates": [ 140.4371, 37.38846 ] } },
{ "type": "Feature", "properties": { "内容": "あかつき【小規模多機能型居宅介護】福島県郡山市備前舘2丁目22番6号", "url": "https://www.kaigokensaku.mhlw.go.jp/07/index.php?action_kouhyou_detail_004_kani=true&JigyosyoCd=0790301006-00&ServiceCd=730&Type=search", "url2": "https://www.y-jikka.com/" }, "geometry": { "type": "Point", "coordinates": [ 140.361196722753903, 37.415959531001725 ] } },
{ "type": "Feature", "properties": { "内容": "ナーシングケアセンター縁寿の園さくら木【小規模多機能型居宅介護】福島県郡山市桜木１丁目５－４", "url": "https://www.kaigokensaku.mhlw.go.jp/07/index.php?action_kouhyou_detail_004_kani=true&JigyosyoCd=0790300180-00&ServiceCd=730&Type=search", "url2": "http://enjyu-g.com/" }, "geometry": { "type": "Point", "coordinates": [ 140.374157200000013, 37.4085841 ] } },
{ "type": "Feature", "properties": { "内容": "さかえライフハート安積【小規模多機能型居宅介護】福島県郡山市安積荒井一丁目８番地", "url": "https://www.kaigokensaku.mhlw.go.jp/07/index.php?action_kouhyou_detail_004_kani=true&JigyosyoCd=0790300321-00&ServiceCd=730&Type=search", "url2": "https://eishinkai-med.jp/" }, "geometry": { "type": "Point", "coordinates": [ 140.355415599999986, 37.3702241 ] } },
{ "type": "Feature", "properties": { "内容": "健康倶楽部郡山　小規模多機能型居宅介護事業所「エスポワール」【小規模多機能型居宅介護】福島県郡山市御前南五丁目１３９番地", "url": "https://www.kaigokensaku.mhlw.go.jp/07/index.php?action_kouhyou_detail_004_kani=true&JigyosyoCd=0790300107-00&ServiceCd=730&Type=search", "url2": "http://heiseikai-group.com/" }, "geometry": { "type": "Point", "coordinates": [ 140.327657, 37.3850799 ] } },
{ "type": "Feature", "properties": { "内容": "健康倶楽部郡山　小規模多機能型居宅介護事業所「アルコート並木」【小規模多機能型居宅介護】福島県郡山市並木二丁目１８番７６号", "url": "https://www.kaigokensaku.mhlw.go.jp/07/index.php?action_kouhyou_detail_004_kani=true&JigyosyoCd=0790300529-00&ServiceCd=730&Type=search", "url2": "http://www.heiseikai-group.com/" }, "geometry": { "type": "Point", "coordinates": [ 140.366473145893906, 37.413649732294736 ] } },
{ "type": "Feature", "properties": { "内容": "健康倶楽部郡山　小規模多機能型居宅介護「アルコート安積」【小規模多機能型居宅介護】福島県郡山市安積町南長久保二丁目243-3", "url": "https://www.kaigokensaku.mhlw.go.jp/07/index.php?action_kouhyou_detail_004_kani=true&JigyosyoCd=0790301170-00&ServiceCd=730&Type=search", "url2": "https://www.heiseikai-group.com/" }, "geometry": { "type": "Point", "coordinates": [ 140.357144, 37.3535742 ] } },
{ "type": "Feature", "properties": { "内容": "小規模多機能型居宅介護まいんど町東【小規模多機能型居宅介護】福島県郡山市町東一丁目52番地", "url": "https://www.kaigokensaku.mhlw.go.jp/07/index.php?action_kouhyou_detail_004_kani=true&JigyosyoCd=0790300297-00&ServiceCd=730&Type=search", "url2": "http://www.mind-gr.co.jp" }, "geometry": { "type": "Point", "coordinates": [ 140.350236799999948, 37.4191436 ] } },
{ "type": "Feature", "properties": { "内容": "清流の里みらい【小規模多機能型居宅介護】福島県郡山市台新一丁目８番８号", "url": "https://www.kaigokensaku.mhlw.go.jp/07/index.php?action_kouhyou_detail_004_kani=true&JigyosyoCd=0790300479-00&ServiceCd=730&Type=search", "url2": "http://cosmo-m-s.co.jp/" }, "geometry": { "type": "Point", "coordinates": [ 140.3477198, 37.3947542 ] } },
{ "type": "Feature", "properties": { "内容": "株式会社　あいの里　逢瀬町　絆【小規模多機能型居宅介護】福島県郡山市逢瀬町多田野字浄土松道10-6", "url": "https://www.kaigokensaku.mhlw.go.jp/07/index.php?action_kouhyou_detail_004_kani=true&JigyosyoCd=0790300339-00&ServiceCd=730&Type=search", "url2": null }, "geometry": { "type": "Point", "coordinates": [ 140.2735844, 37.3935271 ] } },
{ "type": "Feature", "properties": { "内容": "小規模多機能型居宅介護いちかわ【小規模多機能型居宅介護】福島県郡山市大槻町字北寺8番1", "url": "https://www.kaigokensaku.mhlw.go.jp/07/index.php?action_kouhyou_detail_004_kani=true&JigyosyoCd=0790300545-00&ServiceCd=730&Type=search", "url2": "http://care-itikawa.com" }, "geometry": { "type": "Point", "coordinates": [ 140.317844813491746, 37.392608257529936 ] } },
{ "type": "Feature", "properties": { "内容": "あいの里ケアセンター福祉の杜【小規模多機能型居宅介護】福島県郡山市西田町鬼生田字杉内515-2", "url": "https://www.kaigokensaku.mhlw.go.jp/07/index.php?action_kouhyou_detail_004_kani=true&JigyosyoCd=0790300628-00&ServiceCd=730&Type=search", "url2": "https://ai-nosato.jp" }, "geometry": { "type": "Point", "coordinates": [ 140.4407718, 37.462594 ] } },
{ "type": "Feature", "properties": { "内容": "あいの里　ケアガーデン福祉の杜【小規模多機能型居宅介護】福島県郡山市西田町鬼生田字杉内206", "url": "https://www.kaigokensaku.mhlw.go.jp/07/index.php?action_kouhyou_detail_004_kani=true&JigyosyoCd=0790300636-00&ServiceCd=730&Type=search", "url2": "http://ai-nosato.jp" }, "geometry": { "type": "Point", "coordinates": [ 140.440557899999931, 37.4622829 ] } },
{ "type": "Feature", "properties": { "内容": "あいの里　芳賀【小規模多機能型居宅介護】石渕町11番3号", "url": "https://www.kaigokensaku.mhlw.go.jp/07/index.php?action_kouhyou_detail_004_kani=true&JigyosyoCd=0790301022-00&ServiceCd=730&Type=search", "url2": "https://ai-nosato.jp/" }, "geometry": { "type": "Point", "coordinates": [ 140.404339639672855, 37.390073066305789 ] } },
{ "type": "Feature", "properties": { "内容": "あいの里きくた【小規模多機能型居宅介護】福島県郡山市東原3丁目219‐1", "url": "https://www.kaigokensaku.mhlw.go.jp/07/index.php?action_kouhyou_detail_004_kani=true&JigyosyoCd=0790301113-00&ServiceCd=730&Type=search", "url2": null }, "geometry": { "type": "Point", "coordinates": [ 140.3565827, 37.4302076 ] } },
{ "type": "Feature", "properties": { "内容": "なじみ逢瀬【小規模多機能型居宅介護】福島県郡山市逢瀬町多田野字上山田原１番２６４", "url": "https://www.kaigokensaku.mhlw.go.jp/07/index.php?action_kouhyou_detail_004_kani=true&JigyosyoCd=0790300040-00&ServiceCd=730&Type=search", "url2": null }, "geometry": { "type": "Point", "coordinates": [ 140.237576600000011, 37.3917239 ] } },
{ "type": "Feature", "properties": { "内容": "なじみ久留米【小規模多機能型居宅介護】福島県郡山市久留米二丁目32-2大和マンション１Ｆ", "url": "https://www.kaigokensaku.mhlw.go.jp/07/index.php?action_kouhyou_detail_004_kani=true&JigyosyoCd=0790300123-00&ServiceCd=730&Type=search", "url2": null }, "geometry": { "type": "Point", "coordinates": [ 140.358065099999976, 37.3793647 ] } },
{ "type": "Feature", "properties": { "内容": "ミモザ郡山富田【小規模多機能型居宅介護】福島県郡山市富田町字西原40番の１", "url": "https://www.kaigokensaku.mhlw.go.jp/07/index.php?action_kouhyou_detail_004_kani=true&JigyosyoCd=0790301238-00&ServiceCd=730&Type=search", "url2": "koriyqmq-tomitq-st@mimmoza-care.jp" }, "geometry": { "type": "Point", "coordinates": [ 140.349613, 37.4146966 ] } },
{ "type": "Feature", "properties": { "内容": "小規模多機能型居宅介護チロリン村【小規模多機能型居宅介護】福島県いわき市三和町渡戸字宿頭63-1", "url": "https://www.kaigokensaku.mhlw.go.jp/07/index.php?action_kouhyou_detail_004_kani=true&JigyosyoCd=0790400303-00&ServiceCd=730&Type=search", "url2": "chirorin@orchid.plala.or.jp" }, "geometry": { "type": "Point", "coordinates": [ 140.7371918, 37.1234181 ] } },
{ "type": "Feature", "properties": { "内容": "小規模多機能　花うさぎ【小規模多機能型居宅介護】福島県いわき市郷ケ丘二丁目１７－２２", "url": "https://www.kaigokensaku.mhlw.go.jp/07/index.php?action_kouhyou_detail_004_kani=true&JigyosyoCd=0790400907-00&ServiceCd=730&Type=search", "url2": "http://care-net.biz-07-k-dobashi" }, "geometry": { "type": "Point", "coordinates": [ 140.904799499999967, 37.0275234 ] } },
{ "type": "Feature", "properties": { "内容": "小規模多機能型　つどい【小規模多機能型居宅介護】いわき市好間町北好間字外川原33番地の1", "url": "https://www.kaigokensaku.mhlw.go.jp/07/index.php?action_kouhyou_detail_004_kani=true&JigyosyoCd=0790400600-00&ServiceCd=730&Type=search", "url2": "https://iwakinosato.jp/" }, "geometry": { "type": "Point", "coordinates": [ 140.856632417196693, 37.064980441656616 ] } },
{ "type": "Feature", "properties": { "内容": "医和生会小規模多機能型すばる【小規模多機能型居宅介護】福島県いわき市平谷川瀬一丁目14番地２", "url": "https://www.kaigokensaku.mhlw.go.jp/07/index.php?action_kouhyou_detail_004_kani=true&JigyosyoCd=0790400451-00&ServiceCd=730&Type=search", "url2": "www.Iwakikai.sakura.ne.jp" }, "geometry": { "type": "Point", "coordinates": [ 140.891647899999953, 37.0469785 ] } },
{ "type": "Feature", "properties": { "内容": "SOMPOケアいわき下船尾【小規模多機能型居宅介護】福島県いわき市常磐下船尾町古内292番地1", "url": "https://www.kaigokensaku.mhlw.go.jp/07/index.php?action_kouhyou_detail_004_kani=true&JigyosyoCd=0790401038-00&ServiceCd=730&Type=search", "url2": "https://www.sompocare.com/yxi3sr7hz9/users/login?redirect=%2Fyxi3sr7hz9%2F" }, "geometry": { "type": "Point", "coordinates": [ 140.8703295, 36.9864321 ] } },
{ "type": "Feature", "properties": { "内容": "SOMPOケアいわき泉玉露【小規模多機能型居宅介護】福島県いわき市泉玉露6丁目17番地5", "url": "https://www.kaigokensaku.mhlw.go.jp/07/index.php?action_kouhyou_detail_004_kani=true&JigyosyoCd=0790401046-00&ServiceCd=730&Type=search", "url2": null }, "geometry": { "type": "Point", "coordinates": [ 140.844556499999953, 36.9580984 ] } },
{ "type": "Feature", "properties": { "内容": "悠々庵小規模多機能型居宅介護【小規模多機能型居宅介護】福島県いわき市常磐上矢田町頭田43番地", "url": "https://www.kaigokensaku.mhlw.go.jp/07/index.php?action_kouhyou_detail_004_kani=true&JigyosyoCd=0790400089-00&ServiceCd=730&Type=search", "url2": "http://iwaki-meiseikai.jp/shisetsu/yuyu-an.html" }, "geometry": { "type": "Point", "coordinates": [ 140.898739772352627, 37.021024979002576 ] } },
{ "type": "Feature", "properties": { "内容": "山田ねむの里介護センター【小規模多機能型居宅介護】福島県いわき市山田町西山44番地", "url": "https://www.kaigokensaku.mhlw.go.jp/07/index.php?action_kouhyou_detail_004_kani=true&JigyosyoCd=0790400329-00&ServiceCd=730&Type=search", "url2": "http://www.iwaki-aiseikai.jp/" }, "geometry": { "type": "Point", "coordinates": [ 140.766400451590016, 36.946207997675664 ] } },
{ "type": "Feature", "properties": { "内容": "小規模多機能型居宅介護　木もれ陽【小規模多機能型居宅介護】福島県いわき市遠野町上遠野字沢繋16番地の17", "url": "https://www.kaigokensaku.mhlw.go.jp/07/index.php?action_kouhyou_detail_004_kani=true&JigyosyoCd=0790400154-00&ServiceCd=730&Type=search", "url2": "http://jin-ai-kai.jp" }, "geometry": { "type": "Point", "coordinates": [ 140.783258462565669, 37.005961252019205 ] } },
{ "type": "Feature", "properties": { "内容": "医療法人医和生会小規模多機能型さらい【小規模多機能型居宅介護】福島県いわき市平谷川瀬一丁目19-7いきいきはうす", "url": "https://www.kaigokensaku.mhlw.go.jp/07/index.php?action_kouhyou_detail_004_kani=true&JigyosyoCd=0790400709-00&ServiceCd=730&Type=search", "url2": "http://iwakikai.sakura.ne.jp" }, "geometry": { "type": "Point", "coordinates": [ 140.892573372352558, 37.046599668324944 ] } },
{ "type": "Feature", "properties": { "内容": "ケアサ-ビスみやび【小規模多機能型居宅介護】錦町上中田３５番地１", "url": "https://www.kaigokensaku.mhlw.go.jp/07/index.php?action_kouhyou_detail_004_kani=true&JigyosyoCd=0790400493-00&ServiceCd=730&Type=search", "url2": null }, "geometry": { "type": "Point", "coordinates": [ 140.7843514, 36.8982206 ] } },
{ "type": "Feature", "properties": { "内容": "ケイアンドワイ小規模多機能型居宅介護【小規模多機能型居宅介護】福島県いわき市泉ヶ丘2丁目11-7", "url": "https://www.kaigokensaku.mhlw.go.jp/07/index.php?action_kouhyou_detail_004_kani=true&JigyosyoCd=0790400345-00&ServiceCd=730&Type=search", "url2": "http://k-and-y.p-kit.com/" }, "geometry": { "type": "Point", "coordinates": [ 140.854815317086008, 36.964053947646562 ] } },
{ "type": "Feature", "properties": { "内容": "小規模多機能　トモ・ハウス【小規模多機能型居宅介護】福島県いわき市中之作字勝見ヶ浦49-18", "url": "https://www.kaigokensaku.mhlw.go.jp/07/index.php?action_kouhyou_detail_004_kani=true&JigyosyoCd=0790400618-00&ServiceCd=730&Type=search", "url2": null }, "geometry": { "type": "Point", "coordinates": [ 140.947531499999968, 36.9562523 ] } },
{ "type": "Feature", "properties": { "内容": "よつくらタローの家【小規模多機能型居宅介護】福島県いわき市四倉町字六丁目28-5", "url": "https://www.kaigokensaku.mhlw.go.jp/07/index.php?action_kouhyou_detail_004_kani=true&JigyosyoCd=0790400139-00&ServiceCd=730&Type=search", "url2": "http://taropha.com/" }, "geometry": { "type": "Point", "coordinates": [ 140.994591899999932, 37.1085152 ] } },
{ "type": "Feature", "properties": { "内容": "よつくらの家【小規模多機能型居宅介護】福島県いわき市四倉町6丁目２７－３", "url": "https://www.kaigokensaku.mhlw.go.jp/07/index.php?action_kouhyou_detail_004_kani=true&JigyosyoCd=0790400253-00&ServiceCd=730&Type=search", "url2": "http://taropha.com/" }, "geometry": { "type": "Point", "coordinates": [ 140.994378, 37.1085068 ] } },
{ "type": "Feature", "properties": { "内容": "小規模多機能ホーム愛【小規模多機能型居宅介護】福島県いわき市洋向台三丁目6番地の5", "url": "https://www.kaigokensaku.mhlw.go.jp/07/index.php?action_kouhyou_detail_004_kani=true&JigyosyoCd=0790400626-00&ServiceCd=730&Type=search", "url2": "https://goodlove2023.jp" }, "geometry": { "type": "Point", "coordinates": [ 140.940095899999989, 36.966165 ] } },
{ "type": "Feature", "properties": { "内容": "小規模多機能型住宅　青空【小規模多機能型居宅介護】福島県いわき市平下神谷字御城128-9", "url": "https://www.kaigokensaku.mhlw.go.jp/07/index.php?action_kouhyou_detail_004_kani=true&JigyosyoCd=0790400071-00&ServiceCd=730&Type=search", "url2": null }, "geometry": { "type": "Point", "coordinates": [ 140.951205799999968, 37.0709369 ] } },
{ "type": "Feature", "properties": { "内容": "小規模多機能型居宅介護施設「千歳」【小規模多機能型居宅介護】花岡33-15", "url": "https://www.kaigokensaku.mhlw.go.jp/07/index.php?action_kouhyou_detail_004_kani=true&JigyosyoCd=0790700124-00&ServiceCd=730&Type=search", "url2": null }, "geometry": { "type": "Point", "coordinates": [ 140.3874164, 37.2747809 ] } },
{ "type": "Feature", "properties": { "内容": "小規模多機能型居宅介護　エルピス大東【小規模多機能型居宅介護】福島県須賀川市雨田字前中山78-5", "url": "https://www.kaigokensaku.mhlw.go.jp/07/index.php?action_kouhyou_detail_004_kani=true&JigyosyoCd=0790700017-00&ServiceCd=730&Type=search", "url2": "http://www.tokushinkai.care/" }, "geometry": { "type": "Point", "coordinates": [ 140.4188019, 37.2649568 ] } },
{ "type": "Feature", "properties": { "内容": "ユースフルまつやま【小規模多機能型居宅介護】福島県喜多方市松山町鳥見山字街道西5015-24", "url": "https://www.kaigokensaku.mhlw.go.jp/07/index.php?action_kouhyou_detail_004_kani=true&JigyosyoCd=0790800080-00&ServiceCd=730&Type=search", "url2": "http://www.tenshinkai.or.jp" }, "geometry": { "type": "Point", "coordinates": [ 139.870796499999983, 37.6856702 ] } },
{ "type": "Feature", "properties": { "内容": "小規模多機能型居宅介護事業所　ケアプラザ喜多方【小規模多機能型居宅介護】福島県喜多方市押切南一丁目150", "url": "https://www.kaigokensaku.mhlw.go.jp/07/index.php?action_kouhyou_detail_004_kani=true&JigyosyoCd=0790800023-00&ServiceCd=730&Type=search", "url2": "https://www.npo-seifukai.com/" }, "geometry": { "type": "Point", "coordinates": [ 139.859640698147587, 37.645873629406566 ] } },
{ "type": "Feature", "properties": { "内容": "ファミリーさわら【小規模多機能型居宅介護】福島県喜多方市字大坪７６１０－１", "url": "https://www.kaigokensaku.mhlw.go.jp/07/index.php?action_kouhyou_detail_004_kani=true&JigyosyoCd=0790800072-00&ServiceCd=730&Type=search", "url2": "http://sawara.or.jp" }, "geometry": { "type": "Point", "coordinates": [ 139.8736063, 37.6449391 ] } },
{ "type": "Feature", "properties": { "内容": "小規模多機能型居宅介護事業所やわらぎ【小規模多機能型居宅介護】福島県喜多方市東桜ガ丘一丁目136番地", "url": "https://www.kaigokensaku.mhlw.go.jp/07/index.php?action_kouhyou_detail_004_kani=true&JigyosyoCd=0790800056-00&ServiceCd=730&Type=search", "url2": "https://keiwakai.net/" }, "geometry": { "type": "Point", "coordinates": [ 139.87690269999996, 37.6621899 ] } },
{ "type": "Feature", "properties": { "内容": "小規模多機能型居宅介護事業所笑実の郷【小規模多機能型居宅介護】福島県二本松市百目木字町50番地", "url": "https://www.kaigokensaku.mhlw.go.jp/07/index.php?action_kouhyou_detail_004_kani=true&JigyosyoCd=0791000102-00&ServiceCd=730&Type=search", "url2": null }, "geometry": { "type": "Point", "coordinates": [ 140.613004199999978, 37.5330843 ] } },
{ "type": "Feature", "properties": { "内容": "小規模多機能ホームオハナハウス【小規模多機能型居宅介護】福島県二本松市高田1番地1", "url": "https://www.kaigokensaku.mhlw.go.jp/07/index.php?action_kouhyou_detail_004_kani=true&JigyosyoCd=0791000029-00&ServiceCd=730&Type=search", "url2": "http：//care-net.biz/midorinosato/" }, "geometry": { "type": "Point", "coordinates": [ 140.4465722, 37.5844111 ] } },
{ "type": "Feature", "properties": { "内容": "小規模多機能型居宅介護　かがやきの杜【小規模多機能型居宅介護】福島県二本松市針道字橇町24番地", "url": "https://www.kaigokensaku.mhlw.go.jp/07/index.php?action_kouhyou_detail_004_kani=true&JigyosyoCd=0791000144-00&ServiceCd=730&Type=search", "url2": "www.cosmo-m-s.co.jp" }, "geometry": { "type": "Point", "coordinates": [ 140.579281, 37.596529 ] } },
{ "type": "Feature", "properties": { "内容": "あいの里　霞【小規模多機能型居宅介護】福島県二本松市油井字下中ノ内85番地", "url": "https://www.kaigokensaku.mhlw.go.jp/07/index.php?action_kouhyou_detail_004_kani=true&JigyosyoCd=0791000185-00&ServiceCd=730&Type=search", "url2": "https://ai-nosato.jp/" }, "geometry": { "type": "Point", "coordinates": [ 140.466679199999987, 37.6117676 ] } },
{ "type": "Feature", "properties": { "内容": "ＪＡ福島さくら　は～とらいふ船引【小規模多機能型居宅介護】福島県田村市船引町東部台６丁目４６番地", "url": "https://www.kaigokensaku.mhlw.go.jp/07/index.php?action_kouhyou_detail_004_kani=true&JigyosyoCd=0791100076-00&ServiceCd=730&Type=search", "url2": null }, "geometry": { "type": "Point", "coordinates": [ 140.5845723, 37.437072600000029 ] } },
{ "type": "Feature", "properties": { "内容": "JA福島さくら　は～とらいふ常葉【小規模多機能型居宅介護】福島県田村市常葉町常葉字長生内8-1", "url": "https://www.kaigokensaku.mhlw.go.jp/07/index.php?action_kouhyou_detail_004_kani=true&JigyosyoCd=0791100134-00&ServiceCd=730&Type=search", "url2": null }, "geometry": { "type": "Point", "coordinates": [ 140.641445299999987, 37.4365641 ] } },
{ "type": "Feature", "properties": { "内容": "小規模多機能ホーム　さくら【小規模多機能型居宅介護】福島県南相馬市原町区陣ヶ崎201", "url": "https://www.kaigokensaku.mhlw.go.jp/07/index.php?action_kouhyou_detail_004_kani=true&JigyosyoCd=0791200066-00&ServiceCd=730&Type=search", "url2": null }, "geometry": { "type": "Point", "coordinates": [ 140.944897670500154, 37.612592028751045 ] } },
{ "type": "Feature", "properties": { "内容": "小規模多機能型居宅介護事業所　なじみの里　ほばら【小規模多機能型居宅介護】福島県伊達市保原町大泉字小作逢１５－１", "url": "https://www.kaigokensaku.mhlw.go.jp/07/index.php?action_kouhyou_detail_004_kani=true&JigyosyoCd=0791300049-00&ServiceCd=730&Type=search", "url2": "http://azumanh.or.jp/" }, "geometry": { "type": "Point", "coordinates": [ 140.568790600000057, 37.8320568 ] } },
{ "type": "Feature", "properties": { "内容": "指定小規模多機能型居宅介護事業所「よりどころ」【小規模多機能型居宅介護】福島県伊達市霊山町掛田字西裏47-1", "url": "https://www.kaigokensaku.mhlw.go.jp/07/index.php?action_kouhyou_detail_004_kani=true&JigyosyoCd=0791300056-00&ServiceCd=730&Type=search", "url2": "https://youi-kai.org" }, "geometry": { "type": "Point", "coordinates": [ 140.593192330688453, 37.784475066230712 ] } },
{ "type": "Feature", "properties": { "内容": "指定小規模多機能型居宅介護事業所「よすが」【小規模多機能型居宅介護】福島県伊達市梁川町桜町115-2", "url": "https://www.kaigokensaku.mhlw.go.jp/07/index.php?action_kouhyou_detail_004_kani=true&JigyosyoCd=0791300098-00&ServiceCd=730&Type=search", "url2": "https://youi-kai.org" }, "geometry": { "type": "Point", "coordinates": [ 140.605312879762323, 37.849542748663296 ] } },
{ "type": "Feature", "properties": { "内容": "小規模多機能型居宅介護　ももの里みらい【小規模多機能型居宅介護】福島県伊達市沓形18番地1", "url": "https://www.kaigokensaku.mhlw.go.jp/07/index.php?action_kouhyou_detail_004_kani=true&JigyosyoCd=0791300106-00&ServiceCd=730&Type=search", "url2": "http://cosmo-m-s.co.jp/" }, "geometry": { "type": "Point", "coordinates": [ 140.4966131, 37.822817 ] } },
{ "type": "Feature", "properties": { "内容": "まいんど万世二番館　（小規模多機能型居宅介護）【小規模多機能型居宅介護】福島県本宮市本宮字万世134-１", "url": "https://www.kaigokensaku.mhlw.go.jp/07/index.php?action_kouhyou_detail_004_kani=true&JigyosyoCd=0791400021-00&ServiceCd=730&Type=search", "url2": "http://www.mind-gr.co.jp" }, "geometry": { "type": "Point", "coordinates": [ 140.396338040475456, 37.513447384654704 ] } },
{ "type": "Feature", "properties": { "内容": "あいの里　かえでの森【小規模多機能型居宅介護】福島県伊達郡川俣町八反田３－２", "url": "https://www.kaigokensaku.mhlw.go.jp/07/index.php?action_kouhyou_detail_004_kani=true&JigyosyoCd=0792020018-00&ServiceCd=730&Type=search", "url2": "http://ai-nosato.jp" }, "geometry": { "type": "Point", "coordinates": [ 140.6188532, 37.6679334 ] } },
{ "type": "Feature", "properties": { "内容": "檜枝岐村小規模多機能型居宅介護事業所「尾瀬の華」【小規模多機能型居宅介護】福島県南会津郡檜枝岐村字下ノ台４０１番地４", "url": "https://www.kaigokensaku.mhlw.go.jp/07/index.php?action_kouhyou_detail_004_kani=true&JigyosyoCd=0792310013-00&ServiceCd=730&Type=search", "url2": null }, "geometry": { "type": "Point", "coordinates": [ 139.386544800000024, 37.0207264 ] } },
{ "type": "Feature", "properties": { "内容": "小規模多機能型居宅介護　桜の丘みらい【小規模多機能型居宅介護】福島県南会津郡只見町大字只見字原707-1", "url": "https://www.kaigokensaku.mhlw.go.jp/07/index.php?action_kouhyou_detail_004_kani=true&JigyosyoCd=0792320020-00&ServiceCd=730&Type=search", "url2": "http://cosmo-m-s.co.jp/" }, "geometry": { "type": "Point", "coordinates": [ 139.31339950000006, 37.3446316 ] } },
{ "type": "Feature", "properties": { "内容": "西会津町小規模多機能型居宅介護施設　高陽の里【小規模多機能型居宅介護】福島県耶麻郡西会津町奥川大字飯里字沢ノ目449番地6", "url": "https://www.kaigokensaku.mhlw.go.jp/07/index.php?action_kouhyou_detail_004_kani=true&JigyosyoCd=0792500027-00&ServiceCd=730&Type=search", "url2": null }, "geometry": { "type": "Point", "coordinates": [ 139.658452554106134, 37.68215710543511 ] } },
{ "type": "Feature", "properties": { "内容": "小規模多機能型居宅介護事業所西会津しょうぶ苑【小規模多機能型居宅介護】福島県耶麻郡西会津町野沢字下小屋上乙3229番1", "url": "https://www.kaigokensaku.mhlw.go.jp/07/index.php?action_kouhyou_detail_004_kani=true&JigyosyoCd=0792510018-00&ServiceCd=730&Type=search", "url2": "https://keiwakai.net/" }, "geometry": { "type": "Point", "coordinates": [ 139.646623541000395, 37.58851625660543 ] } },
{ "type": "Feature", "properties": { "内容": "ハーモニー磐梯【小規模多機能型居宅介護】福島県耶麻郡磐梯町大字磐梯字山道366", "url": "https://www.kaigokensaku.mhlw.go.jp/07/index.php?action_kouhyou_detail_004_kani=true&JigyosyoCd=0792520017-00&ServiceCd=730&Type=search", "url2": "http://www.sin-ai.com/" }, "geometry": { "type": "Point", "coordinates": [ 139.998592799999983, 37.560252 ] } },
{ "type": "Feature", "properties": { "内容": "ハーモニー猪苗代【小規模多機能型居宅介護】福島県耶麻郡猪苗代町字城南131－1", "url": "https://www.kaigokensaku.mhlw.go.jp/07/index.php?action_kouhyou_detail_004_kani=true&JigyosyoCd=0792530040-00&ServiceCd=730&Type=search", "url2": "sin-ai.com" }, "geometry": { "type": "Point", "coordinates": [ 140.104097200000012, 37.5592486 ] } },
{ "type": "Feature", "properties": { "内容": "天空のさと・すみれ【小規模多機能型居宅介護】福島県耶麻郡猪苗代町字津金沢５３－１", "url": "https://www.kaigokensaku.mhlw.go.jp/07/index.php?action_kouhyou_detail_004_kani=true&JigyosyoCd=0792530024-00&ServiceCd=730&Type=search", "url2": "https://funehiki.clinic/" }, "geometry": { "type": "Point", "coordinates": [ 140.112742900000057, 37.5597406 ] } },
{ "type": "Feature", "properties": { "内容": "小規模多機能型居宅介護事業所　ケアプラザ坂下【小規模多機能型居宅介護】福島県河沼郡会津坂下町大字羽林字西碇180番地", "url": "https://www.kaigokensaku.mhlw.go.jp/07/index.php?action_kouhyou_detail_004_kani=true&JigyosyoCd=0792600017-00&ServiceCd=730&Type=search", "url2": "https://www.npo-seifukai.com/" }, "geometry": { "type": "Point", "coordinates": [ 139.828011699999934, 37.5562539 ] } },
{ "type": "Feature", "properties": { "内容": "チェリーホーム【小規模多機能型居宅介護】福島県大沼郡会津美里町字高田道上2869番地8", "url": "https://www.kaigokensaku.mhlw.go.jp/07/index.php?action_kouhyou_detail_004_kani=true&JigyosyoCd=0792730046-00&ServiceCd=730&Type=search", "url2": "https://senoukai.or.jp" }, "geometry": { "type": "Point", "coordinates": [ 139.84589660000006, 37.468339 ] } },
{ "type": "Feature", "properties": { "内容": "ハーモニーみさと【小規模多機能型居宅介護】福島県大沼郡会津美里町北川原甲2370番地1", "url": "https://www.kaigokensaku.mhlw.go.jp/07/index.php?action_kouhyou_detail_004_kani=true&JigyosyoCd=0792700023-00&ServiceCd=730&Type=search", "url2": "https://sin-ai.com/" }, "geometry": { "type": "Point", "coordinates": [ 139.8870062, 37.4520761 ] } },
{ "type": "Feature", "properties": { "内容": "社会福祉法人　星の郷みらい【小規模多機能型居宅介護】福島県西白河郡西郷村大字米字中山前157番地", "url": "https://www.kaigokensaku.mhlw.go.jp/07/index.php?action_kouhyou_detail_004_kani=true&JigyosyoCd=0792800088-00&ServiceCd=730&Type=search", "url2": "http://cosmo‐m‐s.co.jp/home/hosinosato-sm/" }, "geometry": { "type": "Point", "coordinates": [ 140.190610900000024, 37.1355093 ] } },
{ "type": "Feature", "properties": { "内容": "小規模多機能型居宅介護まつたや【小規模多機能型居宅介護】福島県石川郡石川町字長久保92-1", "url": "https://www.kaigokensaku.mhlw.go.jp/07/index.php?action_kouhyou_detail_004_kani=true&JigyosyoCd=0793000027-00&ServiceCd=730&Type=search", "url2": "www.matsutaya-kaigo.com" }, "geometry": { "type": "Point", "coordinates": [ 140.447903799999949, 37.1576192 ] } },
{ "type": "Feature", "properties": { "内容": "エルピス玉川【小規模多機能型居宅介護】福島県石川郡玉川村大字小高字南畷19-1", "url": "https://www.kaigokensaku.mhlw.go.jp/07/index.php?action_kouhyou_detail_004_kani=true&JigyosyoCd=0793010018-00&ServiceCd=730&Type=search", "url2": "http://www.tokushinkai.care" }, "geometry": { "type": "Point", "coordinates": [ 140.406041499999986, 37.2093225 ] } },
{ "type": "Feature", "properties": { "内容": "ＪＡ福島さくら　小規模多機能型居宅介護　は～とらいふ三春【小規模多機能型居宅介護】福島県田村郡三春町大字平沢字担橋140番地3", "url": "https://www.kaigokensaku.mhlw.go.jp/07/index.php?action_kouhyou_detail_004_kani=true&JigyosyoCd=0793100082-00&ServiceCd=730&Type=search", "url2": null }, "geometry": { "type": "Point", "coordinates": [ 140.481080099999986, 37.4498991 ] } },
{ "type": "Feature", "properties": { "内容": "JA福島さくら　は～とらいふ小野【小規模多機能型居宅介護】福島県田村郡小野町大字谷津作字鬼石３２－２", "url": "https://www.kaigokensaku.mhlw.go.jp/07/index.php?action_kouhyou_detail_004_kani=true&JigyosyoCd=0793110057-00&ServiceCd=730&Type=search", "url2": null }, "geometry": { "type": "Point", "coordinates": [ 140.634416900000019, 37.278131 ] } },
{ "type": "Feature", "properties": { "内容": "JA福島さくら　は〜とらいふ小野・やまだ【小規模多機能型居宅介護】福島県田村郡小野町大字小戸神字葭作９１−４", "url": "https://www.kaigokensaku.mhlw.go.jp/07/index.php?action_kouhyou_detail_004_kani=true&JigyosyoCd=0793100132-00&ServiceCd=730&Type=search", "url2": null }, "geometry": { "type": "Point", "coordinates": [ 140.5815165, 37.3009455 ] } },
{ "type": "Feature", "properties": { "内容": "小規模多機能施設　ふくの郷【小規模多機能型居宅介護】福島県双葉郡富岡町本町1丁目1番地", "url": "https://www.kaigokensaku.mhlw.go.jp/07/index.php?action_kouhyou_detail_004_kani=true&JigyosyoCd=0793200023-00&ServiceCd=730&Type=search", "url2": "fukunosato@futaba-fukunosato.com" }, "geometry": { "type": "Point", "coordinates": [ 141.0053988, 37.3411257 ] } }
]
}
