{
"type": "FeatureCollection",
"name": "geo_07_特別支援学校",
"crs": { "type": "name", "properties": { "name": "urn:ogc:def:crs:EPSG::6668" } },
"features": [
{ "type": "Feature", "properties": { "P29_001": "07201", "P29_002": "E107110000017", "P29_003": "16012", "P29_004": "福島大学附属特別支援学校", "P29_005": "福島県福島市八木田字並柳71", "P29_006": "1", "P29_007": "0", "P29_008": "00", "P29_009": null }, "geometry": { "type": "Point", "coordinates": [ 140.447178387932297, 37.747328912933632 ] } },
{ "type": "Feature", "properties": { "P29_001": "07201", "P29_002": "E107220170018", "P29_003": "16012", "P29_004": "福島県立視覚支援学校", "P29_005": "福島県福島市森合町6-34", "P29_006": "2", "P29_007": "0", "P29_008": "00", "P29_009": null }, "geometry": { "type": "Point", "coordinates": [ 140.46119244967656, 37.762735776867217 ] } },
{ "type": "Feature", "properties": { "P29_001": "07201", "P29_002": "E107220170027", "P29_003": "16012", "P29_004": "福島県立聴覚支援学校福島校", "P29_005": "福島県福島市森合町6-34", "P29_006": "2", "P29_007": "0", "P29_008": "00", "P29_009": null }, "geometry": { "type": "Point", "coordinates": [ 140.460873097949104, 37.763595020739999 ] } },
{ "type": "Feature", "properties": { "P29_001": "07201", "P29_002": "E107220170036", "P29_003": "16012", "P29_004": "福島県立大笹生支援学校", "P29_005": "福島県福島市大笹生字俎板山182-2", "P29_006": "2", "P29_007": "0", "P29_008": "00", "P29_009": null }, "geometry": { "type": "Point", "coordinates": [ 140.413321046377547, 37.813424157805379 ] } },
{ "type": "Feature", "properties": { "P29_001": "07201", "P29_002": "E107220170045", "P29_003": "16012", "P29_004": "福島県立須賀川支援学校医大校", "P29_005": "福島県福島市光が丘1", "P29_006": "2", "P29_007": "0", "P29_008": "00", "P29_009": null }, "geometry": { "type": "Point", "coordinates": [ 140.471564492742687, 37.689986592819508 ] } },
{ "type": "Feature", "properties": { "P29_001": "07201", "P29_002": "E107220170054", "P29_003": "16012", "P29_004": "福島県福島市立ふくしま支援学校", "P29_005": "福島県福島市山居146-1", "P29_006": "3", "P29_007": "0", "P29_008": "00", "P29_009": null }, "geometry": { "type": "Point", "coordinates": [ 140.480771742141059, 37.779937276937396 ] } },
{ "type": "Feature", "properties": { "P29_001": "07202", "P29_002": "E107220270017", "P29_003": "16012", "P29_004": "福島県立聴覚支援学校会津校", "P29_005": "福島県会津若松市一箕町鶴賀字下柳原102", "P29_006": "2", "P29_007": "0", "P29_008": "00", "P29_009": null }, "geometry": { "type": "Point", "coordinates": [ 139.934778771265968, 37.523536962817673 ] } },
{ "type": "Feature", "properties": { "P29_001": "07202", "P29_002": "E107220270026", "P29_003": "16012", "P29_004": "福島県立会津支援学校", "P29_005": "福島県会津若松市一箕町大字鶴賀字下柳原102", "P29_006": "2", "P29_007": "0", "P29_008": "00", "P29_009": null }, "geometry": { "type": "Point", "coordinates": [ 139.934908935114009, 37.523921767995425 ] } },
{ "type": "Feature", "properties": { "P29_001": "07202", "P29_002": "E107220270035", "P29_003": "16012", "P29_004": "福島県立会津支援学校竹田校", "P29_005": "福島県会津若松市山鹿町3-27", "P29_006": "2", "P29_007": "0", "P29_008": "00", "P29_009": null }, "geometry": { "type": "Point", "coordinates": [ 139.921486076833759, 37.490249954205652 ] } },
{ "type": "Feature", "properties": { "P29_001": "07203", "P29_002": "E107220370016", "P29_003": "16012", "P29_004": "福島県立聴覚支援学校", "P29_005": "福島県郡山市大槻町字西ノ宮西32", "P29_006": "2", "P29_007": "0", "P29_008": "00", "P29_009": null }, "geometry": { "type": "Point", "coordinates": [ 140.31976669640045, 37.398391245521438 ] } },
{ "type": "Feature", "properties": { "P29_001": "07203", "P29_002": "E107220370025", "P29_003": "16012", "P29_004": "福島県立郡山支援学校", "P29_005": "福島県郡山市富田町字上ノ台1", "P29_006": "2", "P29_007": "0", "P29_008": "00", "P29_009": null }, "geometry": { "type": "Point", "coordinates": [ 140.345383783370124, 37.430132329184346 ] } },
{ "type": "Feature", "properties": { "P29_001": "07203", "P29_002": "E107220370034", "P29_003": "16012", "P29_004": "福島県立あぶくま支援学校", "P29_005": "福島県郡山市中田町赤沼字杉並139", "P29_006": "2", "P29_007": "0", "P29_008": "00", "P29_009": null }, "geometry": { "type": "Point", "coordinates": [ 140.420663245125951, 37.374382320904694 ] } },
{ "type": "Feature", "properties": { "P29_001": "07203", "P29_002": "E107220370043", "P29_003": "16012", "P29_004": "福島県立須賀川支援学校郡山校", "P29_005": "福島県郡山市桜木2-21-13", "P29_006": "2", "P29_007": "0", "P29_008": "00", "P29_009": null }, "geometry": { "type": "Point", "coordinates": [ 140.366942908032399, 37.408945594383162 ] } },
{ "type": "Feature", "properties": { "P29_001": "07204", "P29_002": "E107220470015", "P29_003": "16012", "P29_004": "福島県立聴覚支援学校平校", "P29_005": "福島県いわき市平馬目字馬目崎61", "P29_006": "2", "P29_007": "0", "P29_008": "00", "P29_009": null }, "geometry": { "type": "Point", "coordinates": [ 140.952272551407248, 37.080824711284613 ] } },
{ "type": "Feature", "properties": { "P29_001": "07204", "P29_002": "E107220470024", "P29_003": "16012", "P29_004": "福島県立平支援学校", "P29_005": "福島県いわき市平上平窪字羽黒40-45", "P29_006": "2", "P29_007": "0", "P29_008": "00", "P29_009": null }, "geometry": { "type": "Point", "coordinates": [ 140.889679819905183, 37.093971227449032 ] } },
{ "type": "Feature", "properties": { "P29_001": "07204", "P29_002": "E107220470033", "P29_003": "16012", "P29_004": "福島県立いわき支援学校", "P29_005": "福島県いわき市平上神谷字石ノ町13-1", "P29_006": "2", "P29_007": "0", "P29_008": "00", "P29_009": null }, "geometry": { "type": "Point", "coordinates": [ 140.916580195346796, 37.067360516376489 ] } },
{ "type": "Feature", "properties": { "P29_001": "07204", "P29_002": "E107220470042", "P29_003": "16012", "P29_004": "福島県立いわき支援学校くぼた校", "P29_005": "福島県いわき市勿来町窪田町通2-1", "P29_006": "2", "P29_007": "0", "P29_008": "00", "P29_009": null }, "geometry": { "type": "Point", "coordinates": [ 140.767612257518351, 36.888768255150161 ] } },
{ "type": "Feature", "properties": { "P29_001": "07207", "P29_002": "E107220770012", "P29_003": "16012", "P29_004": "福島県立須賀川支援学校", "P29_005": "福島県須賀川市芦田塚13-5", "P29_006": "2", "P29_007": "0", "P29_008": "00", "P29_009": null }, "geometry": { "type": "Point", "coordinates": [ 140.387142683442249, 37.293397934221346 ] } },
{ "type": "Feature", "properties": { "P29_001": "07212", "P29_002": "E107220970010", "P29_003": "16012", "P29_004": "福島県立相馬支援学校", "P29_005": "福島県南相馬市鹿島区寺内字鷺内79", "P29_006": "2", "P29_007": "0", "P29_008": "00", "P29_009": null }, "geometry": { "type": "Point", "coordinates": [ 140.957796420979037, 37.701242708042898 ] } },
{ "type": "Feature", "properties": { "P29_001": "07211", "P29_002": "E107221170016", "P29_003": "16012", "P29_004": "福島県立たむら支援学校", "P29_005": "福島県田村市船引町春山字道ノ原51", "P29_006": "2", "P29_007": "0", "P29_008": "00", "P29_009": null }, "geometry": { "type": "Point", "coordinates": [ 140.546805980880606, 37.437838147627737 ] } },
{ "type": "Feature", "properties": { "P29_001": "07213", "P29_002": "E107221370014", "P29_003": "16012", "P29_004": "福島県立だて支援学校", "P29_005": "福島県伊達市保原町大泉字大舘78", "P29_006": "2", "P29_007": "0", "P29_008": "00", "P29_009": null }, "geometry": { "type": "Point", "coordinates": [ 140.564070235785323, 37.82352445353586 ] } },
{ "type": "Feature", "properties": { "P29_001": "07408", "P29_002": "E107240870019", "P29_003": "16012", "P29_004": "福島県立猪苗代支援学校", "P29_005": "福島県耶麻郡猪苗代町長田字並柳西3966-2", "P29_006": "2", "P29_007": "0", "P29_008": "00", "P29_009": null }, "geometry": { "type": "Point", "coordinates": [ 140.069660867051283, 37.558366423289435 ] } },
{ "type": "Feature", "properties": { "P29_001": "07461", "P29_002": "E107246170013", "P29_003": "16012", "P29_004": "福島県立西郷支援学校", "P29_005": "福島県西白河郡西郷村真船字芝原151-1", "P29_006": "2", "P29_007": "0", "P29_008": "00", "P29_009": null }, "geometry": { "type": "Point", "coordinates": [ 140.113818333568304, 37.139997855144095 ] } },
{ "type": "Feature", "properties": { "P29_001": "07501", "P29_002": "E107250170015", "P29_003": "16012", "P29_004": "福島県立石川支援学校", "P29_005": "福島県石川郡石川町字猫啼360-3", "P29_006": "2", "P29_007": "0", "P29_008": "00", "P29_009": null }, "geometry": { "type": "Point", "coordinates": [ 140.433255048360849, 37.1362889249815 ] } },
{ "type": "Feature", "properties": { "P29_001": "07502", "P29_002": "E107250270014", "P29_003": "16012", "P29_004": "福島県立石川支援学校たまかわ校", "P29_005": "福島県石川郡玉川村大字川辺字舘171", "P29_006": "2", "P29_007": "0", "P29_008": "00", "P29_009": null }, "geometry": { "type": "Point", "coordinates": [ 140.412777283241638, 37.196648001768395 ] } },
{ "type": "Feature", "properties": { "P29_001": "07204", "P29_002": "E107254370015", "P29_003": "16012", "P29_004": "福島県立富岡支援学校", "P29_005": "福島県いわき市平馬目字馬目崎61", "P29_006": "2", "P29_007": "0", "P29_008": "00", "P29_009": null }, "geometry": { "type": "Point", "coordinates": [ 140.952246039635469, 37.080367608078085 ] } }
]
}
