{
"type": "FeatureCollection",
"name": "geo_07_幼稚園",
"crs": { "type": "name", "properties": { "name": "urn:ogc:def:crs:EPSG::6668" } },
"features": [
{ "type": "Feature", "properties": { "P29_001": "07201", "P29_002": "A107110000016", "P29_003": "16011", "P29_004": "福島大学附属幼稚園", "P29_005": "福島県福島市浜田町12-39", "P29_006": "1", "P29_007": "0", "P29_008": "00", "P29_009": null }, "geometry": { "type": "Point", "coordinates": [ 140.476567998265864, 37.759397891331027 ] } },
{ "type": "Feature", "properties": { "P29_001": "07201", "P29_002": "A107220110010", "P29_003": "16011", "P29_004": "福島市立渡利幼稚園", "P29_005": "福島県福島市渡利字沖町128", "P29_006": "3", "P29_007": "0", "P29_008": "00", "P29_009": null }, "geometry": { "type": "Point", "coordinates": [ 140.48090322058323, 37.747139903710341 ] } },
{ "type": "Feature", "properties": { "P29_001": "07201", "P29_002": "A107220110029", "P29_003": "16011", "P29_004": "福島市立杉妻幼稚園", "P29_005": "福島県福島市伏拝字沢口18-1", "P29_006": "3", "P29_007": "0", "P29_008": "00", "P29_009": null }, "geometry": { "type": "Point", "coordinates": [ 140.464490392243562, 37.723310063365751 ] } },
{ "type": "Feature", "properties": { "P29_001": "07201", "P29_002": "A107220110038", "P29_003": "16011", "P29_004": "福島市立清水幼稚園", "P29_005": "福島県福島市南沢又字柳清水20-2", "P29_006": "3", "P29_007": "0", "P29_008": "00", "P29_009": null }, "geometry": { "type": "Point", "coordinates": [ 140.44393541602966, 37.779492737776799 ] } },
{ "type": "Feature", "properties": { "P29_001": "07201", "P29_002": "A107220110047", "P29_003": "16011", "P29_004": "福島市立笹谷幼稚園", "P29_005": "福島県福島市笹谷字上町18-1", "P29_006": "3", "P29_007": "0", "P29_008": "00", "P29_009": null }, "geometry": { "type": "Point", "coordinates": [ 140.423402113177133, 37.795320028121886 ] } },
{ "type": "Feature", "properties": { "P29_001": "07201", "P29_002": "A107220110056", "P29_003": "16011", "P29_004": "福島市立いいざか幼稚園", "P29_005": "福島県福島市飯坂町字桜下1-1", "P29_006": "3", "P29_007": "0", "P29_008": "00", "P29_009": null }, "geometry": { "type": "Point", "coordinates": [ 140.446480323286522, 37.833403853707146 ] } },
{ "type": "Feature", "properties": { "P29_001": "07201", "P29_002": "A107220110065", "P29_003": "16011", "P29_004": "福島市立佐倉幼稚園", "P29_005": "福島県福島市上名倉字下田16-1", "P29_006": "3", "P29_007": "0", "P29_008": "00", "P29_009": null }, "geometry": { "type": "Point", "coordinates": [ 140.391151214444676, 37.732258499055092 ] } },
{ "type": "Feature", "properties": { "P29_001": "07201", "P29_002": "A107220110074", "P29_003": "16011", "P29_004": "福島市立まつかわ幼稚園", "P29_005": "福島県福島市松川町浅川字陳場21", "P29_006": "3", "P29_007": "0", "P29_008": "00", "P29_009": null }, "geometry": { "type": "Point", "coordinates": [ 140.46532420774065, 37.68230646683147 ] } },
{ "type": "Feature", "properties": { "P29_001": "07201", "P29_002": "A107220110083", "P29_003": "16011", "P29_004": "福島市立庭塚幼稚園", "P29_005": "福島県福島市在庭坂字薬師田14-3", "P29_006": "3", "P29_007": "0", "P29_008": "00", "P29_009": null }, "geometry": { "type": "Point", "coordinates": [ 140.376047718961871, 37.757507589736626 ] } },
{ "type": "Feature", "properties": { "P29_001": "07201", "P29_002": "A107220110092", "P29_003": "16011", "P29_004": "福島市立森合幼稚園", "P29_005": "福島県福島市森合字谷地3-2", "P29_006": "3", "P29_007": "0", "P29_008": "00", "P29_009": null }, "geometry": { "type": "Point", "coordinates": [ 140.448582999399434, 37.766537998795414 ] } },
{ "type": "Feature", "properties": { "P29_001": "07201", "P29_002": "A107220110109", "P29_003": "16011", "P29_004": "福島市立岡山幼稚園", "P29_005": "福島県福島市山口上中田43-1", "P29_006": "3", "P29_007": "0", "P29_008": "00", "P29_009": null }, "geometry": { "type": "Point", "coordinates": [ 140.511287455110335, 37.77193865712502 ] } },
{ "type": "Feature", "properties": { "P29_001": "07202", "P29_002": "A107220210019", "P29_003": "16011", "P29_004": "会津若松市立河東第三幼稚園", "P29_005": "福島県会津若松市河東町大字熊野堂字高舘175", "P29_006": "3", "P29_007": "0", "P29_008": "00", "P29_009": null }, "geometry": { "type": "Point", "coordinates": [ 139.918187505556688, 37.563446355941942 ] } },
{ "type": "Feature", "properties": { "P29_001": "07204", "P29_002": "A107220410017", "P29_003": "16011", "P29_004": "いわき市立すずかけ幼稚園", "P29_005": "福島県いわき市平字五色町26", "P29_006": "3", "P29_007": "0", "P29_008": "00", "P29_009": null }, "geometry": { "type": "Point", "coordinates": [ 140.903574302880628, 37.054570863455503 ] } },
{ "type": "Feature", "properties": { "P29_001": "07204", "P29_002": "A107220410044", "P29_003": "16011", "P29_004": "いわき市立磐崎幼稚園", "P29_005": "福島県いわき市常磐西郷町金山160-2", "P29_006": "3", "P29_007": "0", "P29_008": "00", "P29_009": null }, "geometry": { "type": "Point", "coordinates": [ 140.855206928732741, 36.984353855212717 ] } },
{ "type": "Feature", "properties": { "P29_001": "07204", "P29_002": "A107220410053", "P29_003": "16011", "P29_004": "いわき市立藤原幼稚園", "P29_005": "福島県いわき市常磐藤原町大畑81", "P29_006": "3", "P29_007": "0", "P29_008": "00", "P29_009": null }, "geometry": { "type": "Point", "coordinates": [ 140.81934451033905, 36.998138149441637 ] } },
{ "type": "Feature", "properties": { "P29_001": "07204", "P29_002": "A107220410062", "P29_003": "16011", "P29_004": "いわき市立江名幼稚園", "P29_005": "福島県いわき市江名字上代8-4", "P29_006": "3", "P29_007": "0", "P29_008": "00", "P29_009": null }, "geometry": { "type": "Point", "coordinates": [ 140.958002003695299, 36.972837003684496 ] } },
{ "type": "Feature", "properties": { "P29_001": "07204", "P29_002": "A107220410071", "P29_003": "16011", "P29_004": "いわき市立四倉第一幼稚園", "P29_005": "福島県いわき市四倉町字西4-3-3", "P29_006": "3", "P29_007": "0", "P29_008": "00", "P29_009": null }, "geometry": { "type": "Point", "coordinates": [ 140.987565802051932, 37.109146199306494 ] } },
{ "type": "Feature", "properties": { "P29_001": "07204", "P29_002": "A107220410080", "P29_003": "16011", "P29_004": "いわき市立四倉第二幼稚園", "P29_005": "福島県いわき市四倉町狐塚字松橋65", "P29_006": "3", "P29_007": "0", "P29_008": "00", "P29_009": null }, "geometry": { "type": "Point", "coordinates": [ 140.966295001419013, 37.093567416109188 ] } },
{ "type": "Feature", "properties": { "P29_001": "07204", "P29_002": "A107220410106", "P29_003": "16011", "P29_004": "いわき市立高坂幼稚園", "P29_005": "福島県いわき市内郷高坂町桜井76", "P29_006": "3", "P29_007": "0", "P29_008": "00", "P29_009": null }, "geometry": { "type": "Point", "coordinates": [ 140.852629007888112, 37.043818966678032 ] } },
{ "type": "Feature", "properties": { "P29_001": "07204", "P29_002": "A107220410115", "P29_003": "16011", "P29_004": "いわき市立宮幼稚園", "P29_005": "福島県いわき市内郷宮町滝12-1", "P29_006": "3", "P29_007": "0", "P29_008": "00", "P29_009": null }, "geometry": { "type": "Point", "coordinates": [ 140.835714978210916, 37.04567769400181 ] } },
{ "type": "Feature", "properties": { "P29_001": "07204", "P29_002": "A107220410124", "P29_003": "16011", "P29_004": "いわき市立西小名浜幼稚園", "P29_005": "福島県いわき市小名浜愛宕町3-2", "P29_006": "3", "P29_007": "0", "P29_008": "00", "P29_009": null }, "geometry": { "type": "Point", "coordinates": [ 140.895520208043592, 36.951336879056505 ] } },
{ "type": "Feature", "properties": { "P29_001": "07204", "P29_002": "A107220410133", "P29_003": "16011", "P29_004": "いわき市立玉川幼稚園", "P29_005": "福島県いわき市小名浜玉川町東11-1", "P29_006": "3", "P29_007": "0", "P29_008": "00", "P29_009": null }, "geometry": { "type": "Point", "coordinates": [ 140.888820794762722, 36.982942089716495 ] } },
{ "type": "Feature", "properties": { "P29_001": "07204", "P29_002": "A107220410151", "P29_003": "16011", "P29_004": "いわき市立汐見が丘幼稚園", "P29_005": "福島県いわき市小浜町西ノ作347", "P29_006": "3", "P29_007": "0", "P29_008": "00", "P29_009": null }, "geometry": { "type": "Point", "coordinates": [ 140.829324005587722, 36.923216004248857 ] } },
{ "type": "Feature", "properties": { "P29_001": "07205", "P29_002": "A107220510016", "P29_003": "16011", "P29_004": "白河市立五箇幼稚園", "P29_005": "福島県白河市田島明治32-6", "P29_006": "3", "P29_007": "0", "P29_008": "00", "P29_009": null }, "geometry": { "type": "Point", "coordinates": [ 140.285307914296737, 37.118444497140693 ] } },
{ "type": "Feature", "properties": { "P29_001": "07205", "P29_002": "A107220510025", "P29_003": "16011", "P29_004": "白河市立小田川幼稚園", "P29_005": "福島県白河市泉田池ノ上239", "P29_006": "3", "P29_007": "0", "P29_008": "00", "P29_009": null }, "geometry": { "type": "Point", "coordinates": [ 140.247524539327429, 37.153838662349123 ] } },
{ "type": "Feature", "properties": { "P29_001": "07205", "P29_002": "A107220510034", "P29_003": "16011", "P29_004": "白河市立大沼幼稚園", "P29_005": "福島県白河市久田野豆柄久保2", "P29_006": "3", "P29_007": "0", "P29_008": "00", "P29_009": null }, "geometry": { "type": "Point", "coordinates": [ 140.260988615161068, 37.126905252450392 ] } },
{ "type": "Feature", "properties": { "P29_001": "07205", "P29_002": "A107220510043", "P29_003": "16011", "P29_004": "白河市立白坂幼稚園", "P29_005": "福島県白河市白坂陣場317", "P29_006": "3", "P29_007": "0", "P29_008": "00", "P29_009": null }, "geometry": { "type": "Point", "coordinates": [ 140.189443381627513, 37.08455972748888 ] } },
{ "type": "Feature", "properties": { "P29_001": "07205", "P29_002": "A107220510052", "P29_003": "16011", "P29_004": "白河市立表郷幼稚園", "P29_005": "福島県白河市表郷金山字長者久保2-5", "P29_006": "3", "P29_007": "0", "P29_008": "00", "P29_009": null }, "geometry": { "type": "Point", "coordinates": [ 140.306089593119282, 37.053794288090167 ] } },
{ "type": "Feature", "properties": { "P29_001": "07205", "P29_002": "A107220510061", "P29_003": "16011", "P29_004": "白河市立ひがし幼稚園", "P29_005": "福島県白河市東釜子字枇杷山28", "P29_006": "3", "P29_007": "0", "P29_008": "00", "P29_009": null }, "geometry": { "type": "Point", "coordinates": [ 140.352935681807679, 37.115114095705287 ] } },
{ "type": "Feature", "properties": { "P29_001": "07205", "P29_002": "A107220510070", "P29_003": "16011", "P29_004": "白河市立大信幼稚園", "P29_005": "福島県白河市大信町屋字道目木12", "P29_006": "3", "P29_007": "0", "P29_008": "00", "P29_009": null }, "geometry": { "type": "Point", "coordinates": [ 140.244567766352219, 37.207477837344427 ] } },
{ "type": "Feature", "properties": { "P29_001": "07205", "P29_002": "A107220510089", "P29_003": "16011", "P29_004": "白河市立関辺幼稚園", "P29_005": "福島県白河市関辺松並26", "P29_006": "3", "P29_007": "0", "P29_008": "00", "P29_009": null }, "geometry": { "type": "Point", "coordinates": [ 140.251106924718897, 37.092634546495894 ] } },
{ "type": "Feature", "properties": { "P29_001": "07207", "P29_002": "A107220710014", "P29_003": "16011", "P29_004": "須賀川市立稲田幼稚園", "P29_005": "福島県須賀川市岩渕字笠木40-2", "P29_006": "3", "P29_007": "0", "P29_008": "00", "P29_009": null }, "geometry": { "type": "Point", "coordinates": [ 140.324340279951599, 37.261977015674859 ] } },
{ "type": "Feature", "properties": { "P29_001": "07207", "P29_002": "A107220710023", "P29_003": "16011", "P29_004": "須賀川市立小塩江幼稚園", "P29_005": "福島県須賀川市塩田字作田1", "P29_006": "3", "P29_007": "0", "P29_008": "00", "P29_009": null }, "geometry": { "type": "Point", "coordinates": [ 140.433533716630421, 37.290618912363158 ] } },
{ "type": "Feature", "properties": { "P29_001": "07207", "P29_002": "A107220710032", "P29_003": "16011", "P29_004": "須賀川市立仁井田幼稚園", "P29_005": "福島県須賀川市仁井田字舘内201-1", "P29_006": "3", "P29_007": "0", "P29_008": "00", "P29_009": null }, "geometry": { "type": "Point", "coordinates": [ 140.322448433516001, 37.33078185061715 ] } },
{ "type": "Feature", "properties": { "P29_001": "07207", "P29_002": "A107220710041", "P29_003": "16011", "P29_004": "須賀川市立長沼幼稚園", "P29_005": "福島県須賀川市長沼字殿町2", "P29_006": "3", "P29_007": "0", "P29_008": "00", "P29_009": null }, "geometry": { "type": "Point", "coordinates": [ 140.214555496921633, 37.292083950297702 ] } },
{ "type": "Feature", "properties": { "P29_001": "07209", "P29_002": "A107220910012", "P29_003": "16011", "P29_004": "相馬市立磯部幼稚園", "P29_005": "福島県相馬市磯部字上ノ台467-2", "P29_006": "3", "P29_007": "0", "P29_008": "00", "P29_009": null }, "geometry": { "type": "Point", "coordinates": [ 140.991685552193928, 37.760946150213499 ] } },
{ "type": "Feature", "properties": { "P29_001": "07209", "P29_002": "A107220910021", "P29_003": "16011", "P29_004": "相馬市立飯豊幼稚園", "P29_005": "福島県相馬市大曲字天神前42", "P29_006": "3", "P29_007": "0", "P29_008": "00", "P29_009": null }, "geometry": { "type": "Point", "coordinates": [ 140.949791986391347, 37.788534241904316 ] } },
{ "type": "Feature", "properties": { "P29_001": "07209", "P29_002": "A107220910030", "P29_003": "16011", "P29_004": "相馬市立大野幼稚園", "P29_005": "福島県相馬市大坪字東畑7", "P29_006": "3", "P29_007": "0", "P29_008": "00", "P29_009": null }, "geometry": { "type": "Point", "coordinates": [ 140.898123341551212, 37.830594669006793 ] } },
{ "type": "Feature", "properties": { "P29_001": "07209", "P29_002": "A107220910049", "P29_003": "16011", "P29_004": "相馬市立八幡幼稚園", "P29_005": "福島県相馬市坪田字清水前9-3", "P29_006": "3", "P29_007": "0", "P29_008": "00", "P29_009": null }, "geometry": { "type": "Point", "coordinates": [ 140.91328440068807, 37.776871130054737 ] } },
{ "type": "Feature", "properties": { "P29_001": "07209", "P29_002": "A107220910058", "P29_003": "16011", "P29_004": "相馬市立山上幼稚園", "P29_005": "福島県相馬市山上字柳下32-2", "P29_006": "3", "P29_007": "0", "P29_008": "00", "P29_009": null }, "geometry": { "type": "Point", "coordinates": [ 140.880821294182141, 37.777315230285907 ] } },
{ "type": "Feature", "properties": { "P29_001": "07209", "P29_002": "A107220910067", "P29_003": "16011", "P29_004": "相馬市立日立木幼稚園", "P29_005": "福島県相馬市日下石字神明前14", "P29_006": "3", "P29_007": "0", "P29_008": "00", "P29_009": null }, "geometry": { "type": "Point", "coordinates": [ 140.94748399864153, 37.767855004799465 ] } },
{ "type": "Feature", "properties": { "P29_001": "07210", "P29_002": "A107221010019", "P29_003": "16011", "P29_004": "二本松市立大平幼稚園", "P29_005": "福島県二本松市太子堂282", "P29_006": "3", "P29_007": "0", "P29_008": "00", "P29_009": null }, "geometry": { "type": "Point", "coordinates": [ 140.474041003911253, 37.578562002173683 ] } },
{ "type": "Feature", "properties": { "P29_001": "07210", "P29_002": "A107221010028", "P29_003": "16011", "P29_004": "二本松市立塩沢幼稚園", "P29_005": "福島県二本松市塩沢町1-238-1", "P29_006": "3", "P29_007": "0", "P29_008": "00", "P29_009": null }, "geometry": { "type": "Point", "coordinates": [ 140.425584184515344, 37.614601910281152 ] } },
{ "type": "Feature", "properties": { "P29_001": "07210", "P29_002": "A107221010037", "P29_003": "16011", "P29_004": "二本松市立油井幼稚園", "P29_005": "福島県二本松市油井字台5", "P29_006": "3", "P29_007": "0", "P29_008": "00", "P29_009": null }, "geometry": { "type": "Point", "coordinates": [ 140.457584473985634, 37.606288657263569 ] } },
{ "type": "Feature", "properties": { "P29_001": "07210", "P29_002": "A107221010046", "P29_003": "16011", "P29_004": "二本松市立小浜幼稚園", "P29_005": "福島県二本松市小浜字藤町100", "P29_006": "3", "P29_007": "0", "P29_008": "00", "P29_009": null }, "geometry": { "type": "Point", "coordinates": [ 140.512411342772197, 37.56048727738871 ] } },
{ "type": "Feature", "properties": { "P29_001": "07210", "P29_002": "A107221010055", "P29_003": "16011", "P29_004": "二本松市立渋川幼稚園", "P29_005": "福島県二本松市渋川字神明森27", "P29_006": "3", "P29_007": "0", "P29_008": "00", "P29_009": null }, "geometry": { "type": "Point", "coordinates": [ 140.463171699156902, 37.634551738548254 ] } },
{ "type": "Feature", "properties": { "P29_001": "07210", "P29_002": "A107221010064", "P29_003": "16011", "P29_004": "二本松市立杉田幼稚園", "P29_005": "福島県二本松市中江195-1", "P29_006": "3", "P29_007": "0", "P29_008": "00", "P29_009": null }, "geometry": { "type": "Point", "coordinates": [ 140.416866887134887, 37.561336499509885 ] } },
{ "type": "Feature", "properties": { "P29_001": "07210", "P29_002": "A107221010073", "P29_003": "16011", "P29_004": "二本松市立石井幼稚園", "P29_005": "福島県二本松市平石町365-1", "P29_006": "3", "P29_007": "0", "P29_008": "00", "P29_009": null }, "geometry": { "type": "Point", "coordinates": [ 140.460511086267701, 37.558732464919309 ] } },
{ "type": "Feature", "properties": { "P29_001": "07210", "P29_002": "A107221010082", "P29_003": "16011", "P29_004": "二本松市立はらせ幼稚園", "P29_005": "福島県二本松市原セ才木380", "P29_006": "3", "P29_007": "0", "P29_008": "00", "P29_009": null }, "geometry": { "type": "Point", "coordinates": [ 140.385232227876656, 37.584688960252855 ] } },
{ "type": "Feature", "properties": { "P29_001": "07210", "P29_002": "A107221010091", "P29_003": "16011", "P29_004": "二本松市立川崎幼稚園", "P29_005": "福島県二本松市上川崎字上種田1", "P29_006": "3", "P29_007": "0", "P29_008": "00", "P29_009": null }, "geometry": { "type": "Point", "coordinates": [ 140.491097170356227, 37.610039542188623 ] } },
{ "type": "Feature", "properties": { "P29_001": "07211", "P29_002": "A107221110018", "P29_003": "16011", "P29_004": "田村市立瀬川幼稚園", "P29_005": "福島県田村市船引町新舘字軽井沢746", "P29_006": "3", "P29_007": "0", "P29_008": "00", "P29_009": null }, "geometry": { "type": "Point", "coordinates": [ 140.578865307206712, 37.49423046988634 ] } },
{ "type": "Feature", "properties": { "P29_001": "07211", "P29_002": "A107221110027", "P29_003": "16011", "P29_004": "田村市立船引南幼稚園", "P29_005": "福島県田村市船引町堀越字丸森2", "P29_006": "3", "P29_007": "0", "P29_008": "00", "P29_009": null }, "geometry": { "type": "Point", "coordinates": [ 140.569944045752834, 37.397009885480998 ] } },
{ "type": "Feature", "properties": { "P29_001": "07211", "P29_002": "A107221110036", "P29_003": "16011", "P29_004": "田村市立芦沢幼稚園", "P29_005": "福島県田村市船引町芦沢字大越293", "P29_006": "3", "P29_007": "0", "P29_008": "00", "P29_009": null }, "geometry": { "type": "Point", "coordinates": [ 140.53836169054739, 37.407073346313481 ] } },
{ "type": "Feature", "properties": { "P29_001": "07211", "P29_002": "A107221110045", "P29_003": "16011", "P29_004": "田村市都路こども園", "P29_005": "福島県田村市都路町古道字遠下前80", "P29_006": "3", "P29_007": "0", "P29_008": "00", "P29_009": null }, "geometry": { "type": "Point", "coordinates": [ 140.794307993139626, 37.438644427003076 ] } },
{ "type": "Feature", "properties": { "P29_001": "07211", "P29_002": "A107221110054", "P29_003": "16011", "P29_004": "田村市立要田幼稚園", "P29_005": "福島県田村市船引町要田字要田15", "P29_006": "3", "P29_007": "0", "P29_008": "00", "P29_009": null }, "geometry": { "type": "Point", "coordinates": [ 140.523104268541402, 37.457109932105112 ] } },
{ "type": "Feature", "properties": { "P29_001": "07211", "P29_002": "A107221110063", "P29_003": "16011", "P29_004": "田村市立滝根幼稚園", "P29_005": "福島県田村市滝根町神俣字弥五郎内28", "P29_006": "3", "P29_007": "0", "P29_008": "00", "P29_009": null }, "geometry": { "type": "Point", "coordinates": [ 140.662731819688986, 37.321579544364077 ] } },
{ "type": "Feature", "properties": { "P29_001": "07211", "P29_002": "A107221110072", "P29_003": "16011", "P29_004": "田村市立常葉幼稚園", "P29_005": "福島県田村市常葉町久保字樋ノ口5-1", "P29_006": "3", "P29_007": "0", "P29_008": "00", "P29_009": null }, "geometry": { "type": "Point", "coordinates": [ 140.619805343518095, 37.442872887840061 ] } },
{ "type": "Feature", "properties": { "P29_001": "07211", "P29_002": "A107221110081", "P29_003": "16011", "P29_004": "田村市立緑幼稚園", "P29_005": "福島県田村市船引町上移字根岸10", "P29_006": "3", "P29_007": "0", "P29_008": "00", "P29_009": null }, "geometry": { "type": "Point", "coordinates": [ 140.648854056103147, 37.514663174868538 ] } },
{ "type": "Feature", "properties": { "P29_001": "07211", "P29_002": "A107221110090", "P29_003": "16011", "P29_004": "田村市大越こども園", "P29_005": "福島県田村市大越町上大越字水神宮167-1", "P29_006": "3", "P29_007": "0", "P29_008": "00", "P29_009": null }, "geometry": { "type": "Point", "coordinates": [ 140.635913996061618, 37.37683199862677 ] } },
{ "type": "Feature", "properties": { "P29_001": "07212", "P29_002": "A107221210017", "P29_003": "16011", "P29_004": "南相馬市立石神第一幼稚園", "P29_005": "福島県南相馬市原町区北長野字北原田288", "P29_006": "3", "P29_007": "0", "P29_008": "00", "P29_009": null }, "geometry": { "type": "Point", "coordinates": [ 140.933895699263076, 37.659299512664852 ] } },
{ "type": "Feature", "properties": { "P29_001": "07212", "P29_002": "A107221210026", "P29_003": "16011", "P29_004": "南相馬市立石神第二幼稚園", "P29_005": "福島県南相馬市原町区大木戸字西原1", "P29_006": "3", "P29_007": "0", "P29_008": "00", "P29_009": null }, "geometry": { "type": "Point", "coordinates": [ 140.933431597883867, 37.634063567949624 ] } },
{ "type": "Feature", "properties": { "P29_001": "07212", "P29_002": "A107221210035", "P29_003": "16011", "P29_004": "南相馬市立高平幼稚園", "P29_005": "福島県南相馬市原町区下北高平字古舘278", "P29_006": "3", "P29_007": "0", "P29_008": "00", "P29_009": null }, "geometry": { "type": "Point", "coordinates": [ 140.987375164685147, 37.651636844428715 ] } },
{ "type": "Feature", "properties": { "P29_001": "07212", "P29_002": "A107221210044", "P29_003": "16011", "P29_004": "南相馬市立太田幼稚園", "P29_005": "福島県南相馬市原町区益田字塩釜61-1", "P29_006": "3", "P29_007": "0", "P29_008": "00", "P29_009": null }, "geometry": { "type": "Point", "coordinates": [ 140.970762382671722, 37.605337984515039 ] } },
{ "type": "Feature", "properties": { "P29_001": "07212", "P29_002": "A107221210053", "P29_003": "16011", "P29_004": "南相馬市立大甕幼稚園", "P29_005": "福島県南相馬市原町区大甕字十日迫26", "P29_006": "3", "P29_007": "0", "P29_008": "00", "P29_009": null }, "geometry": { "type": "Point", "coordinates": [ 141.003855488995015, 37.609657722165473 ] } },
{ "type": "Feature", "properties": { "P29_001": "07212", "P29_002": "A107221210062", "P29_003": "16011", "P29_004": "南相馬市立八沢幼稚園", "P29_005": "福島県南相馬市鹿島区南屋形字北原32", "P29_006": "3", "P29_007": "0", "P29_008": "00", "P29_009": null }, "geometry": { "type": "Point", "coordinates": [ 140.98376046078215, 37.711236195334166 ] } },
{ "type": "Feature", "properties": { "P29_001": "07212", "P29_002": "A107221210071", "P29_003": "16011", "P29_004": "南相馬市立鹿島幼稚園", "P29_005": "福島県南相馬市鹿島区鹿島字北千倉24-2", "P29_006": "3", "P29_007": "0", "P29_008": "00", "P29_009": null }, "geometry": { "type": "Point", "coordinates": [ 140.974847598299846, 37.700482076662084 ] } },
{ "type": "Feature", "properties": { "P29_001": "07212", "P29_002": "A107221210115", "P29_003": "16011", "P29_004": "南相馬市立上真野幼稚園", "P29_005": "福島県南相馬市鹿島区山下字中ノ内273-1", "P29_006": "3", "P29_007": "0", "P29_008": "00", "P29_009": null }, "geometry": { "type": "Point", "coordinates": [ 140.929155568448692, 37.723773003264483 ] } },
{ "type": "Feature", "properties": { "P29_001": "07213", "P29_002": "A107221310016", "P29_003": "16011", "P29_004": "伊達市立伏黒幼稚園", "P29_005": "福島県伊達市伏黒字土井ノ内42", "P29_006": "3", "P29_007": "0", "P29_008": "00", "P29_009": null }, "geometry": { "type": "Point", "coordinates": [ 140.524375001883698, 37.823947004130076 ] } },
{ "type": "Feature", "properties": { "P29_001": "07213", "P29_002": "A107221310025", "P29_003": "16011", "P29_004": "伊達市立堰本幼稚園", "P29_005": "福島県伊達市梁川町新田字南荒野33", "P29_006": "3", "P29_007": "0", "P29_008": "00", "P29_009": null }, "geometry": { "type": "Point", "coordinates": [ 140.60103169183742, 37.831846909785924 ] } },
{ "type": "Feature", "properties": { "P29_001": "07213", "P29_002": "A107221310034", "P29_003": "16011", "P29_004": "伊達市立粟野幼稚園", "P29_005": "福島県伊達市梁川町粟野字沼頭21", "P29_006": "3", "P29_007": "0", "P29_008": "00", "P29_009": null }, "geometry": { "type": "Point", "coordinates": [ 140.581931644436111, 37.850586501479796 ] } },
{ "type": "Feature", "properties": { "P29_001": "07213", "P29_002": "A107221310043", "P29_003": "16011", "P29_004": "伊達市立保原幼稚園", "P29_005": "福島県伊達市保原町字城ノ内67", "P29_006": "3", "P29_007": "0", "P29_008": "00", "P29_009": null }, "geometry": { "type": "Point", "coordinates": [ 140.55971735928469, 37.821646750030311 ] } },
{ "type": "Feature", "properties": { "P29_001": "07213", "P29_002": "A107221310052", "P29_003": "16011", "P29_004": "伊達市立柱沢幼稚園", "P29_005": "福島県伊達市保原町所沢字東畑100", "P29_006": "3", "P29_007": "0", "P29_008": "00", "P29_009": null }, "geometry": { "type": "Point", "coordinates": [ 140.569208493043249, 37.796613201337109 ] } },
{ "type": "Feature", "properties": { "P29_001": "07214", "P29_002": "A107221410015", "P29_003": "16011", "P29_004": "本宮市立岩根幼稚園", "P29_005": "福島県本宮市岩根字下年神92-1", "P29_006": "3", "P29_007": "0", "P29_008": "00", "P29_009": null }, "geometry": { "type": "Point", "coordinates": [ 140.349903813547968, 37.481306197320492 ] } },
{ "type": "Feature", "properties": { "P29_001": "07214", "P29_002": "A107221410024", "P29_003": "16011", "P29_004": "本宮市立白岩幼稚園", "P29_005": "福島県本宮市白岩字馬場166", "P29_006": "3", "P29_007": "0", "P29_008": "00", "P29_009": null }, "geometry": { "type": "Point", "coordinates": [ 140.474743460261038, 37.50340624368026 ] } },
{ "type": "Feature", "properties": { "P29_001": "07214", "P29_002": "A107221410033", "P29_003": "16011", "P29_004": "本宮市立和田幼稚園", "P29_005": "福島県本宮市和田字学校前3", "P29_006": "3", "P29_007": "0", "P29_008": "00", "P29_009": null }, "geometry": { "type": "Point", "coordinates": [ 140.444102108236649, 37.525865168198237 ] } },
{ "type": "Feature", "properties": { "P29_001": "07214", "P29_002": "A107221410042", "P29_003": "16011", "P29_004": "本宮市立糠沢幼稚園", "P29_005": "福島県本宮市糠沢字原23", "P29_006": "3", "P29_007": "0", "P29_008": "00", "P29_009": null }, "geometry": { "type": "Point", "coordinates": [ 140.428780901931134, 37.494814934083195 ] } },
{ "type": "Feature", "properties": { "P29_001": "07214", "P29_002": "A107221410051", "P29_003": "16011", "P29_004": "五百川幼保総合施設幼稚園部", "P29_005": "福島県本宮市荒井字山神23-1", "P29_006": "3", "P29_007": "0", "P29_008": "00", "P29_009": null }, "geometry": { "type": "Point", "coordinates": [ 140.387967997062077, 37.496099104511281 ] } },
{ "type": "Feature", "properties": { "P29_001": "07301", "P29_002": "A107230110019", "P29_003": "16011", "P29_004": "伊達郡桑折町立醸芳幼稚園", "P29_005": "福島県伊達郡桑折町桑島三11-24", "P29_006": "3", "P29_007": "0", "P29_008": "00", "P29_009": null }, "geometry": { "type": "Point", "coordinates": [ 140.516473651289687, 37.84550816782356 ] } },
{ "type": "Feature", "properties": { "P29_001": "07303", "P29_002": "A107230310017", "P29_003": "16011", "P29_004": "国見町立くにみ幼稚園", "P29_005": "福島県伊達郡国見町大字森山字太田川36", "P29_006": "3", "P29_007": "0", "P29_008": "00", "P29_009": null }, "geometry": { "type": "Point", "coordinates": [ 140.565401032744916, 37.868681730657187 ] } },
{ "type": "Feature", "properties": { "P29_001": "07308", "P29_002": "A107230810030", "P29_003": "16011", "P29_004": "川俣町立山木屋幼稚園", "P29_005": "福島県伊達郡川俣町山木屋字小塚山9-1", "P29_006": "3", "P29_007": "0", "P29_008": "00", "P29_009": null }, "geometry": { "type": "Point", "coordinates": [ 140.676641026797711, 37.60279148857272 ] } },
{ "type": "Feature", "properties": { "P29_001": "07322", "P29_002": "A107232210014", "P29_003": "16011", "P29_004": "大玉村立玉井幼稚園", "P29_005": "福島県安達郡大玉村玉井字大壇47-1", "P29_006": "3", "P29_007": "0", "P29_008": "00", "P29_009": null }, "geometry": { "type": "Point", "coordinates": [ 140.362185674143575, 37.537583879749491 ] } },
{ "type": "Feature", "properties": { "P29_001": "07322", "P29_002": "A107232210023", "P29_003": "16011", "P29_004": "大玉村立大山幼稚園", "P29_005": "福島県安達郡大玉村大山字谷地1", "P29_006": "3", "P29_007": "0", "P29_008": "00", "P29_009": null }, "geometry": { "type": "Point", "coordinates": [ 140.385404425972894, 37.546016475056028 ] } },
{ "type": "Feature", "properties": { "P29_001": "07342", "P29_002": "A107234210010", "P29_003": "16011", "P29_004": "鏡石町立鏡石幼稚園", "P29_005": "福島県岩瀬郡鏡石町中町271-4", "P29_006": "3", "P29_007": "0", "P29_008": "00", "P29_009": null }, "geometry": { "type": "Point", "coordinates": [ 140.342346393707345, 37.248464510573505 ] } },
{ "type": "Feature", "properties": { "P29_001": "07344", "P29_002": "A107234410018", "P29_003": "16011", "P29_004": "天栄村立天栄幼稚園", "P29_005": "福島県岩瀬郡天栄村大字白子字小金檀14", "P29_006": "3", "P29_007": "0", "P29_008": "00", "P29_009": null }, "geometry": { "type": "Point", "coordinates": [ 140.251403189260913, 37.256112680997525 ] } },
{ "type": "Feature", "properties": { "P29_001": "07344", "P29_002": "A107234410027", "P29_003": "16011", "P29_004": "天栄村立湯本幼稚園", "P29_005": "福島県岩瀬郡天栄村大字田良尾字野仲36", "P29_006": "3", "P29_007": "0", "P29_008": "00", "P29_009": null }, "geometry": { "type": "Point", "coordinates": [ 140.006862992337176, 37.279070132715418 ] } },
{ "type": "Feature", "properties": { "P29_001": "07368", "P29_002": "A107236810019", "P29_003": "16011", "P29_004": "南会津郡南会津町立舘岩幼稚園", "P29_005": "福島県南会津郡南会津町松戸原55", "P29_006": "3", "P29_007": "0", "P29_008": "00", "P29_009": null }, "geometry": { "type": "Point", "coordinates": [ 139.532773088835711, 37.092639257681917 ] } },
{ "type": "Feature", "properties": { "P29_001": "07402", "P29_002": "A107240210017", "P29_003": "16011", "P29_004": "北塩原村立裏磐梯幼稚園", "P29_005": "福島県耶麻郡北塩原村大字桧原字剣ヶ峯1093-732", "P29_006": "3", "P29_007": "0", "P29_008": "00", "P29_009": null }, "geometry": { "type": "Point", "coordinates": [ 140.084270392387424, 37.658974680581437 ] } },
{ "type": "Feature", "properties": { "P29_001": "07402", "P29_002": "A107240210026", "P29_003": "16011", "P29_004": "北塩原村立さくら幼稚園", "P29_005": "福島県耶麻郡北塩原村大字北山字北畑4293", "P29_006": "3", "P29_007": "0", "P29_008": "00", "P29_009": null }, "geometry": { "type": "Point", "coordinates": [ 139.925502704940811, 37.657844806026944 ] } },
{ "type": "Feature", "properties": { "P29_001": "07407", "P29_002": "A107240710012", "P29_003": "16011", "P29_004": "耶麻郡磐梯町立磐梯幼稚園", "P29_005": "福島県耶麻郡磐梯町大字磐梯字小原1872", "P29_006": "3", "P29_007": "0", "P29_008": "00", "P29_009": null }, "geometry": { "type": "Point", "coordinates": [ 139.987809581598725, 37.562564025160796 ] } },
{ "type": "Feature", "properties": { "P29_001": "07421", "P29_002": "A107242110014", "P29_003": "16011", "P29_004": "会津坂下町立坂下南幼稚園", "P29_005": "福島県河沼郡会津坂下町字石田甲650", "P29_006": "3", "P29_007": "0", "P29_008": "00", "P29_009": null }, "geometry": { "type": "Point", "coordinates": [ 139.819787538042107, 37.557757966059683 ] } },
{ "type": "Feature", "properties": { "P29_001": "07421", "P29_002": "A107242110023", "P29_003": "16011", "P29_004": "会津坂下町立坂下東幼稚園", "P29_005": "福島県河沼郡会津坂下町字上口705", "P29_006": "3", "P29_007": "0", "P29_008": "00", "P29_009": null }, "geometry": { "type": "Point", "coordinates": [ 139.833848758519679, 37.560611483955086 ] } },
{ "type": "Feature", "properties": { "P29_001": "07422", "P29_002": "A107242210013", "P29_003": "16011", "P29_004": "湯川村立ゆがわ幼稚園", "P29_005": "福島県河沼郡湯川村大字清水田字長瀞26", "P29_006": "3", "P29_007": "0", "P29_008": "00", "P29_009": null }, "geometry": { "type": "Point", "coordinates": [ 139.886077062380963, 37.565280677061018 ] } },
{ "type": "Feature", "properties": { "P29_001": "07461", "P29_002": "A107246110015", "P29_003": "16011", "P29_004": "西白河郡西郷村立西郷幼稚園", "P29_005": "福島県西白河郡西郷村大字米字館岡1", "P29_006": "3", "P29_007": "0", "P29_008": "00", "P29_009": null }, "geometry": { "type": "Point", "coordinates": [ 140.189303968253739, 37.141998185963963 ] } },
{ "type": "Feature", "properties": { "P29_001": "07464", "P29_002": "A107246410012", "P29_003": "16011", "P29_004": "西白河郡泉崎村立泉崎幼稚園", "P29_005": "福島県西白河郡泉崎村泉崎字八丸100", "P29_006": "3", "P29_007": "0", "P29_008": "00", "P29_009": null }, "geometry": { "type": "Point", "coordinates": [ 140.302586851829034, 37.154535340539958 ] } },
{ "type": "Feature", "properties": { "P29_001": "07465", "P29_002": "A107246510011", "P29_003": "16011", "P29_004": "西白河郡中島村立中島幼稚園", "P29_005": "福島県西白河郡中島村二ッ山28-2", "P29_006": "3", "P29_007": "0", "P29_008": "00", "P29_009": null }, "geometry": { "type": "Point", "coordinates": [ 140.347820550236094, 37.150234117931127 ] } },
{ "type": "Feature", "properties": { "P29_001": "07466", "P29_002": "A107246610010", "P29_003": "16011", "P29_004": "矢吹町立中央幼稚園", "P29_005": "福島県西白河郡矢吹町一本木85-1", "P29_006": "3", "P29_007": "0", "P29_008": "00", "P29_009": null }, "geometry": { "type": "Point", "coordinates": [ 140.335315045217897, 37.202563966546975 ] } },
{ "type": "Feature", "properties": { "P29_001": "07466", "P29_002": "A107246610029", "P29_003": "16011", "P29_004": "矢吹町立矢吹幼稚園", "P29_005": "福島県西白河郡矢吹町大町184-10", "P29_006": "3", "P29_007": "0", "P29_008": "00", "P29_009": null }, "geometry": { "type": "Point", "coordinates": [ 140.320256088679116, 37.202128504499889 ] } },
{ "type": "Feature", "properties": { "P29_001": "07466", "P29_002": "A107246610038", "P29_003": "16011", "P29_004": "矢吹町立中畑幼稚園", "P29_005": "福島県西白河郡矢吹町根宿520-1", "P29_006": "3", "P29_007": "0", "P29_008": "00", "P29_009": null }, "geometry": { "type": "Point", "coordinates": [ 140.348550003750518, 37.176325000062967 ] } },
{ "type": "Feature", "properties": { "P29_001": "07466", "P29_002": "A107246610047", "P29_003": "16011", "P29_004": "矢吹町立三神幼稚園", "P29_005": "福島県西白河郡矢吹町神田西130-1", "P29_006": "3", "P29_007": "0", "P29_008": "00", "P29_009": null }, "geometry": { "type": "Point", "coordinates": [ 140.383570534571732, 37.200900990317017 ] } },
{ "type": "Feature", "properties": { "P29_001": "07481", "P29_002": "A107248110011", "P29_003": "16011", "P29_004": "棚倉町立棚倉幼稚園", "P29_005": "福島県東白川郡棚倉町大字棚倉字宮下138", "P29_006": "3", "P29_007": "0", "P29_008": "00", "P29_009": null }, "geometry": { "type": "Point", "coordinates": [ 140.381421980771051, 37.029974846807569 ] } },
{ "type": "Feature", "properties": { "P29_001": "07481", "P29_002": "A107248110020", "P29_003": "16011", "P29_004": "棚倉町立近津幼稚園", "P29_005": "福島県東白川郡棚倉町大字下山本字久保田11-1", "P29_006": "3", "P29_007": "0", "P29_008": "00", "P29_009": null }, "geometry": { "type": "Point", "coordinates": [ 140.390542003391857, 36.999184004836863 ] } },
{ "type": "Feature", "properties": { "P29_001": "07481", "P29_002": "A107248110039", "P29_003": "16011", "P29_004": "棚倉町立社川幼稚園", "P29_005": "福島県東白川郡棚倉町大字逆川字山梨子山7-6", "P29_006": "3", "P29_007": "0", "P29_008": "00", "P29_009": null }, "geometry": { "type": "Point", "coordinates": [ 140.375704794326623, 37.055415382516465 ] } },
{ "type": "Feature", "properties": { "P29_001": "07482", "P29_002": "A107248210010", "P29_003": "16011", "P29_004": "矢祭町立やまつりこども園", "P29_005": "福島県東白川郡矢祭町大字東舘字柳町8", "P29_006": "3", "P29_007": "0", "P29_008": "00", "P29_009": null }, "geometry": { "type": "Point", "coordinates": [ 140.421969537598187, 36.873657777445118 ] } },
{ "type": "Feature", "properties": { "P29_001": "07483", "P29_002": "A107248310019", "P29_003": "16011", "P29_004": "塙町立笹原幼稚園", "P29_005": "福島県東白川郡塙町大字川上字馬場57", "P29_006": "3", "P29_007": "0", "P29_008": "00", "P29_009": null }, "geometry": { "type": "Point", "coordinates": [ 140.444671687031899, 36.940581111660194 ] } },
{ "type": "Feature", "properties": { "P29_001": "07483", "P29_002": "A107248310028", "P29_003": "16011", "P29_004": "塙町立はなわこども園", "P29_005": "福島県東白川郡塙町大字塙字材木町70-10", "P29_006": "3", "P29_007": "0", "P29_008": "00", "P29_009": null }, "geometry": { "type": "Point", "coordinates": [ 140.410611456183716, 36.960055740445199 ] } },
{ "type": "Feature", "properties": { "P29_001": "07504", "P29_002": "A107250420012", "P29_003": "16011", "P29_004": "浅川町立あさかわこども園", "P29_005": "福島県石川郡浅川町大字簑輪字坂前137", "P29_006": "3", "P29_007": "0", "P29_008": "00", "P29_009": null }, "geometry": { "type": "Point", "coordinates": [ 140.411728733193087, 37.072253318002474 ] } },
{ "type": "Feature", "properties": { "P29_001": "07521", "P29_002": "A107252110013", "P29_003": "16011", "P29_004": "三春町立岩江幼稚園", "P29_005": "福島県田村郡三春町上舞木字大谷ツ3-2", "P29_006": "3", "P29_007": "0", "P29_008": "00", "P29_009": null }, "geometry": { "type": "Point", "coordinates": [ 140.440124839013407, 37.422422377479691 ] } },
{ "type": "Feature", "properties": { "P29_001": "07521", "P29_002": "A107252110022", "P29_003": "16011", "P29_004": "三春町立中郷幼稚園", "P29_005": "福島県田村郡三春町柴原字神久保235", "P29_006": "3", "P29_007": "0", "P29_008": "00", "P29_009": null }, "geometry": { "type": "Point", "coordinates": [ 140.486412761556039, 37.41137434532525 ] } },
{ "type": "Feature", "properties": { "P29_001": "07521", "P29_002": "A107254310017", "P29_003": "16011", "P29_004": "富岡町立夜の森幼稚園", "P29_005": "福島県双葉郡富岡町大字本岡字王塚36", "P29_006": "3", "P29_007": "0", "P29_008": "00", "P29_009": null }, "geometry": { "type": "Point", "coordinates": [ 140.521531523429672, 37.441046461777034 ] } },
{ "type": "Feature", "properties": { "P29_001": "07204", "P29_002": "A107254610014", "P29_003": "16011", "P29_004": "双葉町立ふたば幼稚園", "P29_005": "福島県双葉郡双葉町長塚越田1-5", "P29_006": "3", "P29_007": "0", "P29_008": "00", "P29_009": null }, "geometry": { "type": "Point", "coordinates": [ 140.787851005146223, 36.912428002604756 ] } },
{ "type": "Feature", "properties": { "P29_001": "07548", "P29_002": "A107254810012", "P29_003": "16011", "P29_004": "双葉郡葛尾村立葛尾幼稚園", "P29_005": "福島県双葉郡葛尾村大字落合字西ノ内50", "P29_006": "3", "P29_007": "0", "P29_008": "00", "P29_009": null }, "geometry": { "type": "Point", "coordinates": [ 140.763519987380647, 37.50277647317241 ] } },
{ "type": "Feature", "properties": { "P29_001": "07201", "P29_002": "A107320111017", "P29_003": "16011", "P29_004": "桜の聖母学院幼稚園", "P29_005": "福島県福島市花園町3-6", "P29_006": "4", "P29_007": "0", "P29_008": "00", "P29_009": null }, "geometry": { "type": "Point", "coordinates": [ 140.472774138713163, 37.763028034054081 ] } },
{ "type": "Feature", "properties": { "P29_001": "07201", "P29_002": "A107320111026", "P29_003": "16011", "P29_004": "福島文化幼稚園", "P29_005": "福島県福島市宮町3-19", "P29_006": "4", "P29_007": "0", "P29_008": "00", "P29_009": null }, "geometry": { "type": "Point", "coordinates": [ 140.469756009465073, 37.757140053440075 ] } },
{ "type": "Feature", "properties": { "P29_001": "07201", "P29_002": "A107320111035", "P29_003": "16011", "P29_004": "福島文化瀬上幼稚園", "P29_005": "福島県福島市瀬上町字桜町1-7-3", "P29_006": "4", "P29_007": "0", "P29_008": "00", "P29_009": null }, "geometry": { "type": "Point", "coordinates": [ 140.496504864392477, 37.803476054177246 ] } },
{ "type": "Feature", "properties": { "P29_001": "07201", "P29_002": "A107320111044", "P29_003": "16011", "P29_004": "福島愛隣幼稚園", "P29_005": "福島県福島市荒井字弁天前12-1", "P29_006": "4", "P29_007": "0", "P29_008": "00", "P29_009": null }, "geometry": { "type": "Point", "coordinates": [ 140.383447155395288, 37.723138255114065 ] } },
{ "type": "Feature", "properties": { "P29_001": "07201", "P29_002": "A107320111053", "P29_003": "16011", "P29_004": "学校法人恵泉学園飯坂恵泉幼稚園", "P29_005": "福島県福島市飯坂町湯野字八卦下1-7", "P29_006": "4", "P29_007": "0", "P29_008": "00", "P29_009": null }, "geometry": { "type": "Point", "coordinates": [ 140.456162695692541, 37.826938432529232 ] } },
{ "type": "Feature", "properties": { "P29_001": "07201", "P29_002": "A107320111062", "P29_003": "16011", "P29_004": "福島めばえ幼稚園", "P29_005": "福島県福島市南矢野目字桜内41-4", "P29_006": "4", "P29_007": "0", "P29_008": "00", "P29_009": null }, "geometry": { "type": "Point", "coordinates": [ 140.461343541920257, 37.787340433293714 ] } },
{ "type": "Feature", "properties": { "P29_001": "07201", "P29_002": "A107320111071", "P29_003": "16011", "P29_004": "めばえ幼稚園", "P29_005": "福島県福島市南沢又字下番匠田11-3", "P29_006": "4", "P29_007": "0", "P29_008": "00", "P29_009": null }, "geometry": { "type": "Point", "coordinates": [ 140.438330079737341, 37.785456531249906 ] } },
{ "type": "Feature", "properties": { "P29_001": "07201", "P29_002": "A107320111099", "P29_003": "16011", "P29_004": "福島わかくさ幼稚園", "P29_005": "福島県福島市仁井田字中門11-1", "P29_006": "4", "P29_007": "0", "P29_008": "00", "P29_009": null }, "geometry": { "type": "Point", "coordinates": [ 140.424685742757589, 37.748956006584649 ] } },
{ "type": "Feature", "properties": { "P29_001": "07201", "P29_002": "A107320111106", "P29_003": "16011", "P29_004": "福島ルンビニー幼稚園", "P29_005": "福島県福島市大森字南中道47-1", "P29_006": "4", "P29_007": "0", "P29_008": "00", "P29_009": null }, "geometry": { "type": "Point", "coordinates": [ 140.441209995849022, 37.72609700080028 ] } },
{ "type": "Feature", "properties": { "P29_001": "07201", "P29_002": "A107320111115", "P29_003": "16011", "P29_004": "さくら幼稚園", "P29_005": "福島県福島市松川町字東長壇19-17", "P29_006": "4", "P29_007": "0", "P29_008": "00", "P29_009": null }, "geometry": { "type": "Point", "coordinates": [ 140.475390055390363, 37.656503078978076 ] } },
{ "type": "Feature", "properties": { "P29_001": "07201", "P29_002": "A107320111133", "P29_003": "16011", "P29_004": "学校法人みその幼稚園", "P29_005": "福島県福島市方木田字永樋15-11", "P29_006": "4", "P29_007": "0", "P29_008": "00", "P29_009": null }, "geometry": { "type": "Point", "coordinates": [ 140.446837736625326, 37.741656516525538 ] } },
{ "type": "Feature", "properties": { "P29_001": "07201", "P29_002": "A107320111142", "P29_003": "16011", "P29_004": "三育幼稚園", "P29_005": "福島県福島市山口字高森11", "P29_006": "4", "P29_007": "0", "P29_008": "00", "P29_009": null }, "geometry": { "type": "Point", "coordinates": [ 140.515793845816347, 37.768345982724171 ] } },
{ "type": "Feature", "properties": { "P29_001": "07201", "P29_002": "A107320111151", "P29_003": "16011", "P29_004": "西部三育幼稚園", "P29_005": "福島県福島市野田町字中ノ町117", "P29_006": "4", "P29_007": "0", "P29_008": "00", "P29_009": null }, "geometry": { "type": "Point", "coordinates": [ 140.44021759443379, 37.765935749072895 ] } },
{ "type": "Feature", "properties": { "P29_001": "07201", "P29_002": "A107320111160", "P29_003": "16011", "P29_004": "福島わかば幼稚園", "P29_005": "福島県福島市笹木野字中西裏19-11", "P29_006": "4", "P29_007": "0", "P29_008": "00", "P29_009": null }, "geometry": { "type": "Point", "coordinates": [ 140.418077609880555, 37.769821144042623 ] } },
{ "type": "Feature", "properties": { "P29_001": "07201", "P29_002": "A107320111179", "P29_003": "16011", "P29_004": "学校法人松韻学園蓬来もみじ幼稚園", "P29_005": "福島県福島市蓬莱町2-1-2", "P29_006": "4", "P29_007": "0", "P29_008": "00", "P29_009": null }, "geometry": { "type": "Point", "coordinates": [ 140.470892835845973, 37.699981779607235 ] } },
{ "type": "Feature", "properties": { "P29_001": "07201", "P29_002": "A107320111188", "P29_003": "16011", "P29_004": "認定こども園白百合幼稚園", "P29_005": "福島県福島市八木田字並柳141", "P29_006": "4", "P29_007": "0", "P29_008": "00", "P29_009": null }, "geometry": { "type": "Point", "coordinates": [ 140.448498789217922, 37.746264045018371 ] } },
{ "type": "Feature", "properties": { "P29_001": "07202", "P29_002": "A107320210026", "P29_003": "16011", "P29_004": "若松聖愛幼稚園", "P29_005": "福島県会津若松市馬場町3-8", "P29_006": "4", "P29_007": "0", "P29_008": "00", "P29_009": null }, "geometry": { "type": "Point", "coordinates": [ 139.932073298084163, 37.498599207396417 ] } },
{ "type": "Feature", "properties": { "P29_001": "07203", "P29_002": "A107320311015", "P29_003": "16011", "P29_004": "学校法人辻学園田村町つつみ幼稚園", "P29_005": "福島県郡山市田村町守山殿町20", "P29_006": "4", "P29_007": "0", "P29_008": "00", "P29_009": null }, "geometry": { "type": "Point", "coordinates": [ 140.410879699045921, 37.330259125348512 ] } },
{ "type": "Feature", "properties": { "P29_001": "07203", "P29_002": "A107320311024", "P29_003": "16011", "P29_004": "学校法人仲川学園安積町つつみ幼稚園", "P29_005": "福島県郡山市成山町104", "P29_006": "4", "P29_007": "0", "P29_008": "00", "P29_009": null }, "geometry": { "type": "Point", "coordinates": [ 140.358654002024053, 37.365123999274871 ] } },
{ "type": "Feature", "properties": { "P29_001": "07203", "P29_002": "A107320311033", "P29_003": "16011", "P29_004": "認定こども園こはらだ幼稚園", "P29_005": "福島県郡山市小原田2-20-15", "P29_006": "4", "P29_007": "0", "P29_008": "00", "P29_009": null }, "geometry": { "type": "Point", "coordinates": [ 140.389039749059663, 37.382550608968032 ] } },
{ "type": "Feature", "properties": { "P29_001": "07203", "P29_002": "A107320311042", "P29_003": "16011", "P29_004": "学校法人郡山開成学園郡山女子大学附属幼稚園", "P29_005": "福島県郡山市開成3-25-2", "P29_006": "4", "P29_007": "0", "P29_008": "00", "P29_009": null }, "geometry": { "type": "Point", "coordinates": [ 140.351337290799393, 37.397939745361398 ] } },
{ "type": "Feature", "properties": { "P29_001": "07203", "P29_002": "A107320311051", "P29_003": "16011", "P29_004": "学校法人安積国造学園安積幼稚園", "P29_005": "福島県郡山市清水台1-6-14", "P29_006": "4", "P29_007": "0", "P29_008": "00", "P29_009": null }, "geometry": { "type": "Point", "coordinates": [ 140.381605564219825, 37.399067809120091 ] } },
{ "type": "Feature", "properties": { "P29_001": "07203", "P29_002": "A107320311060", "P29_003": "16011", "P29_004": "学校法人たから学園たから幼稚園", "P29_005": "福島県郡山市堂前町1-7", "P29_006": "4", "P29_007": "0", "P29_008": "00", "P29_009": null }, "geometry": { "type": "Point", "coordinates": [ 140.378028102932717, 37.396060843734112 ] } },
{ "type": "Feature", "properties": { "P29_001": "07203", "P29_002": "A107320311079", "P29_003": "16011", "P29_004": "学校法人聖公会頌栄学園セントポール幼稚園", "P29_005": "福島県郡山市麓山2-11-9", "P29_006": "4", "P29_007": "0", "P29_008": "00", "P29_009": null }, "geometry": { "type": "Point", "coordinates": [ 140.36909713822655, 37.394826156204225 ] } },
{ "type": "Feature", "properties": { "P29_001": "07203", "P29_002": "A107320311088", "P29_003": "16011", "P29_004": "学校法人たちばな学園たちばな幼稚園", "P29_005": "福島県郡山市菜根3-5-7", "P29_006": "4", "P29_007": "0", "P29_008": "00", "P29_009": null }, "geometry": { "type": "Point", "coordinates": [ 140.368036010113656, 37.384776526167641 ] } },
{ "type": "Feature", "properties": { "P29_001": "07203", "P29_002": "A107320311097", "P29_003": "16011", "P29_004": "学校法人富久山学園富久山幼稚園", "P29_005": "福島県郡山市富久山町福原字福原170-1", "P29_006": "4", "P29_007": "0", "P29_008": "00", "P29_009": null }, "geometry": { "type": "Point", "coordinates": [ 140.389043725980287, 37.42102686291809 ] } },
{ "type": "Feature", "properties": { "P29_001": "07203", "P29_002": "A107320311113", "P29_003": "16011", "P29_004": "学校法人宮沢学園富田幼稚園", "P29_005": "福島県郡山市富田町字行人田15-2", "P29_006": "4", "P29_007": "0", "P29_008": "00", "P29_009": null }, "geometry": { "type": "Point", "coordinates": [ 140.357173680595594, 37.421998532965169 ] } },
{ "type": "Feature", "properties": { "P29_001": "07203", "P29_002": "A107320311122", "P29_003": "16011", "P29_004": "学校法人たちばな文化学園たちばな西幼稚園", "P29_005": "福島県郡山市台新2-23-8", "P29_006": "4", "P29_007": "0", "P29_008": "00", "P29_009": null }, "geometry": { "type": "Point", "coordinates": [ 140.343245492338355, 37.39006304494292 ] } },
{ "type": "Feature", "properties": { "P29_001": "07203", "P29_002": "A107320311131", "P29_003": "16011", "P29_004": "双葉幼稚園", "P29_005": "福島県郡山市富久山町久保田字石堂51", "P29_006": "4", "P29_007": "0", "P29_008": "00", "P29_009": null }, "geometry": { "type": "Point", "coordinates": [ 140.382561338589142, 37.408647749082462 ] } },
{ "type": "Feature", "properties": { "P29_001": "07203", "P29_002": "A107320311140", "P29_003": "16011", "P29_004": "学校法人ザベリオ学園郡山ザベリオ学園幼稚園", "P29_005": "福島県郡山市大槻町字古屋敷102", "P29_006": "4", "P29_007": "0", "P29_008": "00", "P29_009": null }, "geometry": { "type": "Point", "coordinates": [ 140.323977323456091, 37.400908983338326 ] } },
{ "type": "Feature", "properties": { "P29_001": "07203", "P29_002": "A107320311159", "P29_003": "16011", "P29_004": "大槻中央幼稚園", "P29_005": "福島県郡山市大槻町字下町39", "P29_006": "4", "P29_007": "0", "P29_008": "00", "P29_009": null }, "geometry": { "type": "Point", "coordinates": [ 140.32126152940188, 37.389345929215381 ] } },
{ "type": "Feature", "properties": { "P29_001": "07203", "P29_002": "A107320311168", "P29_003": "16011", "P29_004": "めぐみ幼稚園", "P29_005": "福島県郡山市富久山町久保田字愛宕77-1", "P29_006": "4", "P29_007": "0", "P29_008": "00", "P29_009": null }, "geometry": { "type": "Point", "coordinates": [ 140.386248834784965, 37.417199618678474 ] } },
{ "type": "Feature", "properties": { "P29_001": "07203", "P29_002": "A107320311177", "P29_003": "16011", "P29_004": "学校法人多田野学園多田野幼稚園", "P29_005": "福島県郡山市逢瀬町多田野字南大界45-2", "P29_006": "4", "P29_007": "0", "P29_008": "00", "P29_009": null }, "geometry": { "type": "Point", "coordinates": [ 140.273416653534667, 37.395093818951061 ] } },
{ "type": "Feature", "properties": { "P29_001": "07203", "P29_002": "A107320311186", "P29_003": "16011", "P29_004": "双葉第二幼稚園", "P29_005": "福島県郡山市名倉104", "P29_006": "4", "P29_007": "0", "P29_008": "00", "P29_009": null }, "geometry": { "type": "Point", "coordinates": [ 140.369735149590639, 37.376381355973933 ] } },
{ "type": "Feature", "properties": { "P29_001": "07203", "P29_002": "A107320311195", "P29_003": "16011", "P29_004": "学校法人浄徳学園みどり幼稚園", "P29_005": "福島県郡山市安積2-344", "P29_006": "4", "P29_007": "0", "P29_008": "00", "P29_009": null }, "geometry": { "type": "Point", "coordinates": [ 140.36368567885674, 37.359899530801869 ] } },
{ "type": "Feature", "properties": { "P29_001": "07203", "P29_002": "A107320311202", "P29_003": "16011", "P29_004": "学校法人小野寺学園小山田幼稚園", "P29_005": "福島県郡山市大槻町字小山田34-1", "P29_006": "4", "P29_007": "0", "P29_008": "00", "P29_009": null }, "geometry": { "type": "Point", "coordinates": [ 140.335311581467096, 37.40485224899615 ] } },
{ "type": "Feature", "properties": { "P29_001": "07203", "P29_002": "A107320311211", "P29_003": "16011", "P29_004": "学校法人吉野学園わかば幼稚園", "P29_005": "福島県郡山市安積町大森町34", "P29_006": "4", "P29_007": "0", "P29_008": "00", "P29_009": null }, "geometry": { "type": "Point", "coordinates": [ 140.343163149436208, 37.344376334878362 ] } },
{ "type": "Feature", "properties": { "P29_001": "07203", "P29_002": "A107320311220", "P29_003": "16011", "P29_004": "学校法人志賀学園並木幼稚園", "P29_005": "福島県郡山市並木5-14-53", "P29_006": "4", "P29_007": "0", "P29_008": "00", "P29_009": null }, "geometry": { "type": "Point", "coordinates": [ 140.36049695585001, 37.414241191357384 ] } },
{ "type": "Feature", "properties": { "P29_001": "07203", "P29_002": "A107320311239", "P29_003": "16011", "P29_004": "学校法人本田学園あけぼの幼稚園", "P29_005": "福島県郡山市小原田5-7-6", "P29_006": "4", "P29_007": "0", "P29_008": "00", "P29_009": null }, "geometry": { "type": "Point", "coordinates": [ 140.378170420165873, 37.377614637729202 ] } },
{ "type": "Feature", "properties": { "P29_001": "07203", "P29_002": "A107320311248", "P29_003": "16011", "P29_004": "学校法人尚志学園尚志幼稚園", "P29_005": "福島県郡山市横塚6-19-11", "P29_006": "4", "P29_007": "0", "P29_008": "00", "P29_009": null }, "geometry": { "type": "Point", "coordinates": [ 140.404282364354088, 37.391905548868024 ] } },
{ "type": "Feature", "properties": { "P29_001": "07203", "P29_002": "A107320311257", "P29_003": "16011", "P29_004": "学校法人佐藤学園開南幼稚園", "P29_005": "福島県郡山市開成5-26-13", "P29_006": "4", "P29_007": "0", "P29_008": "00", "P29_009": null }, "geometry": { "type": "Point", "coordinates": [ 140.34908752220602, 37.389847997027083 ] } },
{ "type": "Feature", "properties": { "P29_001": "07203", "P29_002": "A107320311266", "P29_003": "16011", "P29_004": "学校法人富久山学園富久山西幼稚園", "P29_005": "福島県郡山市八山田7-56", "P29_006": "4", "P29_007": "0", "P29_008": "00", "P29_009": null }, "geometry": { "type": "Point", "coordinates": [ 140.381424287189731, 37.422043370913535 ] } },
{ "type": "Feature", "properties": { "P29_001": "07203", "P29_002": "A107320311275", "P29_003": "16011", "P29_004": "東部朝風幼稚園", "P29_005": "福島県郡山市あぶくま台1-326", "P29_006": "4", "P29_007": "0", "P29_008": "00", "P29_009": null }, "geometry": { "type": "Point", "coordinates": [ 140.415659003812038, 37.398041999137156 ] } },
{ "type": "Feature", "properties": { "P29_001": "07203", "P29_002": "A107320311284", "P29_003": "16011", "P29_004": "学校法人本田学園柴宮幼稚園", "P29_005": "福島県郡山市安積町荒井字前田40-1", "P29_006": "4", "P29_007": "0", "P29_008": "00", "P29_009": null }, "geometry": { "type": "Point", "coordinates": [ 140.341632829596762, 37.372654528563039 ] } },
{ "type": "Feature", "properties": { "P29_001": "07203", "P29_002": "A107320311293", "P29_003": "16011", "P29_004": "学校法人智光学園大谷幼稚園", "P29_005": "福島県郡山市三穂田町大谷新田3", "P29_006": "4", "P29_007": "0", "P29_008": "00", "P29_009": null }, "geometry": { "type": "Point", "coordinates": [ 140.292673000227893, 37.374225000183252 ] } },
{ "type": "Feature", "properties": { "P29_001": "07203", "P29_002": "A107320311300", "P29_003": "16011", "P29_004": "学校法人尚志学園尚志緑ケ丘幼稚園", "P29_005": "福島県郡山市緑ヶ丘東4-32-1", "P29_006": "4", "P29_007": "0", "P29_008": "00", "P29_009": null }, "geometry": { "type": "Point", "coordinates": [ 140.436265087782573, 37.381715779567223 ] } },
{ "type": "Feature", "properties": { "P29_001": "07203", "P29_002": "A107320311319", "P29_003": "16011", "P29_004": "学校法人郡山私幼協学園みらい幼稚園", "P29_005": "福島県郡山市喜久田町堀之内字下河原7-2", "P29_006": "4", "P29_007": "0", "P29_008": "00", "P29_009": null }, "geometry": { "type": "Point", "coordinates": [ 140.343715210637214, 37.452934194455075 ] } },
{ "type": "Feature", "properties": { "P29_001": "07204", "P29_002": "A107320411014", "P29_003": "16011", "P29_004": "平みどり幼稚園", "P29_005": "福島県いわき市平下平窪字八木内11-1", "P29_006": "4", "P29_007": "0", "P29_008": "00", "P29_009": null }, "geometry": { "type": "Point", "coordinates": [ 140.880575003175011, 37.078953999420577 ] } },
{ "type": "Feature", "properties": { "P29_001": "07204", "P29_002": "A107320411032", "P29_003": "16011", "P29_004": "学校法人明徳舘明徳舘幼稚園", "P29_005": "福島県いわき市常磐関船町諏訪下7", "P29_006": "4", "P29_007": "0", "P29_008": "00", "P29_009": null }, "geometry": { "type": "Point", "coordinates": [ 140.851528553671727, 36.998875409712603 ] } },
{ "type": "Feature", "properties": { "P29_001": "07204", "P29_002": "A107320411041", "P29_003": "16011", "P29_004": "学校法人まこと学園まこと幼稚園", "P29_005": "福島県いわき市常盤湯本町宝海133-7", "P29_006": "4", "P29_007": "0", "P29_008": "00", "P29_009": null }, "geometry": { "type": "Point", "coordinates": [ 140.841366297883525, 37.013631182823218 ] } },
{ "type": "Feature", "properties": { "P29_001": "07204", "P29_002": "A107320411050", "P29_003": "16011", "P29_004": "学校法人さかえ学園さかえ幼稚園", "P29_005": "福島県いわき市内郷御台境町前田18-3", "P29_006": "4", "P29_007": "0", "P29_008": "00", "P29_009": null }, "geometry": { "type": "Point", "coordinates": [ 140.871755462676333, 37.053462152320805 ] } },
{ "type": "Feature", "properties": { "P29_001": "07204", "P29_002": "A107320411069", "P29_003": "16011", "P29_004": "学校法人福島聖心学園小名浜白百合幼稚園", "P29_005": "福島県いわき市小名浜花畑町13-1", "P29_006": "4", "P29_007": "0", "P29_008": "00", "P29_009": null }, "geometry": { "type": "Point", "coordinates": [ 140.90316550386288, 36.955662563349463 ] } },
{ "type": "Feature", "properties": { "P29_001": "07204", "P29_002": "A107320411078", "P29_003": "16011", "P29_004": "宗教法人聖テモテ幼稚園", "P29_005": "福島県いわき市小名浜愛宕町16-2", "P29_006": "4", "P29_007": "0", "P29_008": "00", "P29_009": null }, "geometry": { "type": "Point", "coordinates": [ 140.893660589337088, 36.952085220175135 ] } },
{ "type": "Feature", "properties": { "P29_001": "07204", "P29_002": "A107320411087", "P29_003": "16011", "P29_004": "学校法人宝徳学園ほうとく幼稚園", "P29_005": "福島県いわき市後田町石田34", "P29_006": "4", "P29_007": "0", "P29_008": "00", "P29_009": null }, "geometry": { "type": "Point", "coordinates": [ 140.791730501348525, 36.92351958820673 ] } },
{ "type": "Feature", "properties": { "P29_001": "07204", "P29_002": "A107320411096", "P29_003": "16011", "P29_004": "学校法人福島聖心学園勿来カトリック幼稚園", "P29_005": "福島県いわき市錦町竹の花76-1", "P29_006": "4", "P29_007": "0", "P29_008": "00", "P29_009": null }, "geometry": { "type": "Point", "coordinates": [ 140.789173507183051, 36.903200756561255 ] } },
{ "type": "Feature", "properties": { "P29_001": "07204", "P29_002": "A107320411103", "P29_003": "16011", "P29_004": "学校法人勿来中野学園勿来幼稚園", "P29_005": "福島県いわき市勿来町窪田伊賀屋敷58-2", "P29_006": "4", "P29_007": "0", "P29_008": "00", "P29_009": null }, "geometry": { "type": "Point", "coordinates": [ 140.76055592543733, 36.894962380974455 ] } },
{ "type": "Feature", "properties": { "P29_001": "07204", "P29_002": "A107320411112", "P29_003": "16011", "P29_004": "学校法人白ばら幼稚園", "P29_005": "福島県いわき市山田町林崎前15", "P29_006": "4", "P29_007": "0", "P29_008": "00", "P29_009": null }, "geometry": { "type": "Point", "coordinates": [ 140.772587571563861, 36.929485025153134 ] } },
{ "type": "Feature", "properties": { "P29_001": "07204", "P29_002": "A107320411130", "P29_003": "16011", "P29_004": "学校法人千鳥学園千鳥幼稚園", "P29_005": "福島県いわき市勿来町関田須賀1-32", "P29_006": "4", "P29_007": "0", "P29_008": "00", "P29_009": null }, "geometry": { "type": "Point", "coordinates": [ 140.789845627947585, 36.876785243874053 ] } },
{ "type": "Feature", "properties": { "P29_001": "07204", "P29_002": "A107320411149", "P29_003": "16011", "P29_004": "学校法人まこと学園遠野町まこと幼稚園", "P29_005": "福島県いわき市遠野町上遠野字風呂脇32", "P29_006": "4", "P29_007": "0", "P29_008": "00", "P29_009": null }, "geometry": { "type": "Point", "coordinates": [ 140.749616897025788, 37.009508411050916 ] } },
{ "type": "Feature", "properties": { "P29_001": "07204", "P29_002": "A107320411158", "P29_003": "16011", "P29_004": "学校法人寿幼稚園", "P29_005": "福島県いわき市好間町北好間字塊坪10-3", "P29_006": "4", "P29_007": "0", "P29_008": "00", "P29_009": null }, "geometry": { "type": "Point", "coordinates": [ 140.835236607705241, 37.069545974935693 ] } },
{ "type": "Feature", "properties": { "P29_001": "07204", "P29_002": "A107320411167", "P29_003": "16011", "P29_004": "学校法人志向学園かなや幼稚園", "P29_005": "福島県いわき市内郷高坂町四方木田153", "P29_006": "4", "P29_007": "0", "P29_008": "00", "P29_009": null }, "geometry": { "type": "Point", "coordinates": [ 140.865342919959147, 37.044237455670874 ] } },
{ "type": "Feature", "properties": { "P29_001": "07204", "P29_002": "A107320411176", "P29_003": "16011", "P29_004": "学校法人いわき幼稚園", "P29_005": "福島県いわき市平下荒川字川前12-1", "P29_006": "4", "P29_007": "0", "P29_008": "00", "P29_009": null }, "geometry": { "type": "Point", "coordinates": [ 140.905869005514035, 37.039199453244962 ] } },
{ "type": "Feature", "properties": { "P29_001": "07204", "P29_002": "A107320411185", "P29_003": "16011", "P29_004": "学校法人あかい幼稚園", "P29_005": "福島県いわき市平赤井字田中5", "P29_006": "4", "P29_007": "0", "P29_008": "00", "P29_009": null }, "geometry": { "type": "Point", "coordinates": [ 140.866468863493537, 37.08178183412911 ] } },
{ "type": "Feature", "properties": { "P29_001": "07204", "P29_002": "A107320411194", "P29_003": "16011", "P29_004": "学校法人はな幼稚園", "P29_005": "福島県いわき市平中神谷字北出口18", "P29_006": "4", "P29_007": "0", "P29_008": "00", "P29_009": null }, "geometry": { "type": "Point", "coordinates": [ 140.930233818826224, 37.063365457709722 ] } },
{ "type": "Feature", "properties": { "P29_001": "07204", "P29_002": "A107320411201", "P29_003": "16011", "P29_004": "学校法人新妻学園かしま幼稚園", "P29_005": "福島県いわき市鹿島町走熊字渡折19-1", "P29_006": "4", "P29_007": "0", "P29_008": "00", "P29_009": null }, "geometry": { "type": "Point", "coordinates": [ 140.912296072287859, 36.996292416194812 ] } },
{ "type": "Feature", "properties": { "P29_001": "07204", "P29_002": "A107320411210", "P29_003": "16011", "P29_004": "草野幼稚園", "P29_005": "福島県いわき市平泉崎字辻道54", "P29_006": "4", "P29_007": "0", "P29_008": "00", "P29_009": null }, "geometry": { "type": "Point", "coordinates": [ 140.946228230207396, 37.072307847255423 ] } },
{ "type": "Feature", "properties": { "P29_001": "07204", "P29_002": "A107320411229", "P29_003": "16011", "P29_004": "学校法人昌平黌いわき短期大学附属幼稚園", "P29_005": "福島県いわき市平鎌田字石名坂6", "P29_006": "4", "P29_007": "0", "P29_008": "00", "P29_009": null }, "geometry": { "type": "Point", "coordinates": [ 140.909986970667944, 37.060919138274031 ] } },
{ "type": "Feature", "properties": { "P29_001": "07204", "P29_002": "A107320411238", "P29_003": "16011", "P29_004": "学校法人明照学園九品寺附属平窪幼稚園", "P29_005": "福島県いわき市平中平窪字杉内27-2", "P29_006": "4", "P29_007": "0", "P29_008": "00", "P29_009": null }, "geometry": { "type": "Point", "coordinates": [ 140.879651545642787, 37.083959051815917 ] } },
{ "type": "Feature", "properties": { "P29_001": "07204", "P29_002": "A107320411247", "P29_003": "16011", "P29_004": "学校法人吉田学園はるな幼稚園", "P29_005": "福島県いわき市好間町今新田字畑合8", "P29_006": "4", "P29_007": "0", "P29_008": "00", "P29_009": null }, "geometry": { "type": "Point", "coordinates": [ 140.874983971731382, 37.064978245132394 ] } },
{ "type": "Feature", "properties": { "P29_001": "07204", "P29_002": "A107320411256", "P29_003": "16011", "P29_004": "学校法人まこと学園入遠野まこと幼稚園", "P29_005": "福島県いわき市遠野町上根本字上原田10-2", "P29_006": "4", "P29_007": "0", "P29_008": "00", "P29_009": null }, "geometry": { "type": "Point", "coordinates": [ 140.717846649839402, 37.03312780936816 ] } },
{ "type": "Feature", "properties": { "P29_001": "07204", "P29_002": "A107320411265", "P29_003": "16011", "P29_004": "学校法人小川幼稚園", "P29_005": "福島県いわき市小川町西小川字滝ノ作5", "P29_006": "4", "P29_007": "0", "P29_008": "00", "P29_009": null }, "geometry": { "type": "Point", "coordinates": [ 140.86114193957556, 37.103551940243349 ] } },
{ "type": "Feature", "properties": { "P29_001": "07204", "P29_002": "A107320411274", "P29_003": "16011", "P29_004": "学校法人ありす幼稚園", "P29_005": "福島県いわき市中央台鹿島1-50-1", "P29_006": "4", "P29_007": "0", "P29_008": "00", "P29_009": null }, "geometry": { "type": "Point", "coordinates": [ 140.915700002966304, 37.003903998092511 ] } },
{ "type": "Feature", "properties": { "P29_001": "07205", "P29_002": "A107320511013", "P29_003": "16011", "P29_004": "学校法人東北カトリック学園白河カトリック幼稚園", "P29_005": "福島県白河市道場小路88", "P29_006": "4", "P29_007": "0", "P29_008": "00", "P29_009": null }, "geometry": { "type": "Point", "coordinates": [ 140.209130949883019, 37.129088630970649 ] } },
{ "type": "Feature", "properties": { "P29_001": "07205", "P29_002": "A107320511022", "P29_003": "16011", "P29_004": "学校法人藤田幼児教育学園丘の上幼稚園", "P29_005": "福島県白河市立石山10-14", "P29_006": "4", "P29_007": "0", "P29_008": "00", "P29_009": null }, "geometry": { "type": "Point", "coordinates": [ 140.194477535259864, 37.127919509318303 ] } },
{ "type": "Feature", "properties": { "P29_001": "07207", "P29_002": "A107320711011", "P29_003": "16011", "P29_004": "学校法人長禄寺学園須賀川幼稚園", "P29_005": "福島県須賀川市北町5", "P29_006": "4", "P29_007": "0", "P29_008": "00", "P29_009": null }, "geometry": { "type": "Point", "coordinates": [ 140.374205968647829, 37.29358264425337 ] } },
{ "type": "Feature", "properties": { "P29_001": "07208", "P29_002": "A107320811010", "P29_003": "16011", "P29_004": "信愛幼稚園", "P29_005": "福島県喜多方市字扇田4914", "P29_006": "4", "P29_007": "0", "P29_008": "00", "P29_009": null }, "geometry": { "type": "Point", "coordinates": [ 139.868169317070738, 37.649409712850556 ] } },
{ "type": "Feature", "properties": { "P29_001": "07208", "P29_002": "A107320811029", "P29_003": "16011", "P29_004": "認定こども園喜多方教会付属いずみ幼稚園", "P29_005": "福島県喜多方市稲清水2374-4", "P29_006": "4", "P29_007": "0", "P29_008": "00", "P29_009": null }, "geometry": { "type": "Point", "coordinates": [ 139.876098995519953, 37.656754997624667 ] } },
{ "type": "Feature", "properties": { "P29_001": "07208", "P29_002": "A107320811038", "P29_003": "16011", "P29_004": "喜多方カトリック千草幼稚園", "P29_005": "福島県喜多方市字小田7534", "P29_006": "4", "P29_007": "0", "P29_008": "00", "P29_009": null }, "geometry": { "type": "Point", "coordinates": [ 139.873534999341928, 37.646598995792203 ] } },
{ "type": "Feature", "properties": { "P29_001": "07208", "P29_002": "A107320811047", "P29_003": "16011", "P29_004": "塩川幼稚園", "P29_005": "福島県喜多方市塩川町字東栄町2-4-2", "P29_006": "4", "P29_007": "0", "P29_008": "00", "P29_009": null }, "geometry": { "type": "Point", "coordinates": [ 139.891798581073459, 37.594695082273013 ] } },
{ "type": "Feature", "properties": { "P29_001": "07209", "P29_002": "A107320911019", "P29_003": "16011", "P29_004": "中村幼稚園", "P29_005": "福島県相馬市新沼字坪ヶ迫506-2", "P29_006": "4", "P29_007": "0", "P29_008": "00", "P29_009": null }, "geometry": { "type": "Point", "coordinates": [ 140.926098287073074, 37.814503699844721 ] } },
{ "type": "Feature", "properties": { "P29_001": "07209", "P29_002": "A107320911028", "P29_003": "16011", "P29_004": "原釜幼稚園", "P29_005": "福島県相馬市原釜字金草7-8", "P29_006": "4", "P29_007": "0", "P29_008": "00", "P29_009": null }, "geometry": { "type": "Point", "coordinates": [ 140.950815363122388, 37.82520998379082 ] } },
{ "type": "Feature", "properties": { "P29_001": "07210", "P29_002": "A107321011016", "P29_003": "16011", "P29_004": "学校法人同朋学園同朋幼稚園", "P29_005": "福島県二本松市竹田1-193", "P29_006": "4", "P29_007": "0", "P29_008": "00", "P29_009": null }, "geometry": { "type": "Point", "coordinates": [ 140.444267612200662, 37.598390714783491 ] } },
{ "type": "Feature", "properties": { "P29_001": "07210", "P29_002": "A107321011025", "P29_003": "16011", "P29_004": "学校法人福島聖心学園二本松カトリック幼稚園", "P29_005": "福島県二本松市若宮1-361", "P29_006": "4", "P29_007": "0", "P29_008": "00", "P29_009": null }, "geometry": { "type": "Point", "coordinates": [ 140.429323169235829, 37.590931315972028 ] } },
{ "type": "Feature", "properties": { "P29_001": "07210", "P29_002": "A107321011034", "P29_003": "16011", "P29_004": "学校法人二本松学園", "P29_005": "福島県二本松市亀谷1-28", "P29_006": "4", "P29_007": "0", "P29_008": "00", "P29_009": null }, "geometry": { "type": "Point", "coordinates": [ 140.440363523762358, 37.59336404808851 ] } },
{ "type": "Feature", "properties": { "P29_001": "07210", "P29_002": "A107321011043", "P29_003": "16011", "P29_004": "学校法人岩代学園岩代幼稚園", "P29_005": "福島県二本松市小浜字新町387", "P29_006": "4", "P29_007": "0", "P29_008": "00", "P29_009": null }, "geometry": { "type": "Point", "coordinates": [ 140.50700822077863, 37.562304808805777 ] } },
{ "type": "Feature", "properties": { "P29_001": "07212", "P29_002": "A107321211014", "P29_003": "16011", "P29_004": "学校法人さゆり幼稚園", "P29_005": "福島県南相馬市原町区橋本町1-15", "P29_006": "4", "P29_007": "0", "P29_008": "00", "P29_009": null }, "geometry": { "type": "Point", "coordinates": [ 140.960636272269852, 37.635484677681823 ] } },
{ "type": "Feature", "properties": { "P29_001": "07212", "P29_002": "A107321211023", "P29_003": "16011", "P29_004": "青葉幼稚園", "P29_005": "福島県南相馬市原町区二見町3-68-4", "P29_006": "4", "P29_007": "0", "P29_008": "00", "P29_009": null }, "geometry": { "type": "Point", "coordinates": [ 140.972088672136152, 37.632471440827729 ] } },
{ "type": "Feature", "properties": { "P29_001": "07212", "P29_002": "A107321211032", "P29_003": "16011", "P29_004": "原町みなみ幼稚園", "P29_005": "福島県南相馬市原町区国見町1-50", "P29_006": "4", "P29_007": "0", "P29_008": "00", "P29_009": null }, "geometry": { "type": "Point", "coordinates": [ 140.954406125107823, 37.630674076118034 ] } },
{ "type": "Feature", "properties": { "P29_001": "07212", "P29_002": "A107321211041", "P29_003": "16011", "P29_004": "小高教会幼稚園", "P29_005": "福島県南相馬市小高区本町1-47", "P29_006": "4", "P29_007": "0", "P29_008": "00", "P29_009": null }, "geometry": { "type": "Point", "coordinates": [ 140.991790830016583, 37.563475484219502 ] } },
{ "type": "Feature", "properties": { "P29_001": "07214", "P29_002": "A107321411012", "P29_003": "16011", "P29_004": "学校法人本宮幼稚園", "P29_005": "福島県本宮市本宮字東町2", "P29_006": "4", "P29_007": "0", "P29_008": "00", "P29_009": null }, "geometry": { "type": "Point", "coordinates": [ 140.405477026220609, 37.518388150635523 ] } },
{ "type": "Feature", "properties": { "P29_001": "07368", "P29_002": "A107336811016", "P29_003": "16011", "P29_004": "学校法人東北カトリック学園田島カトリック暁の星幼稚園", "P29_005": "福島県南会津郡南会津町田島字根小屋甲4242", "P29_006": "4", "P29_007": "0", "P29_008": "00", "P29_009": null }, "geometry": { "type": "Point", "coordinates": [ 139.770103712000179, 37.199544443379558 ] } },
{ "type": "Feature", "properties": { "P29_001": "07447", "P29_002": "A107344711011", "P29_003": "16011", "P29_004": "日本基督教団会津高田教会付属会津高田幼稚園", "P29_005": "福島県大沼郡会津美里町字法憧寺東甲3655-1", "P29_006": "4", "P29_007": "0", "P29_008": "00", "P29_009": null }, "geometry": { "type": "Point", "coordinates": [ 139.84187907748165, 37.459987287920093 ] } },
{ "type": "Feature", "properties": { "P29_001": "07461", "P29_002": "A107346111012", "P29_003": "16011", "P29_004": "学校法人西郷幼稚園", "P29_005": "福島県西白河郡西郷村大字小田倉字中島233", "P29_006": "4", "P29_007": "0", "P29_008": "00", "P29_009": null }, "geometry": { "type": "Point", "coordinates": [ 140.147966991995162, 37.131436115826467 ] } },
{ "type": "Feature", "properties": { "P29_001": "07202", "P29_002": "A107354311014", "P29_003": "16011", "P29_004": "学校法人堀内学園富岡幼稚園", "P29_005": "福島県会津若松市高野町大字上高野字村内127", "P29_006": "4", "P29_007": "0", "P29_008": "00", "P29_009": null }, "geometry": { "type": "Point", "coordinates": [ 139.907894004977578, 37.52747956287125 ] } },
{ "type": "Feature", "properties": { "P29_001": "07547", "P29_002": "A107354711010", "P29_003": "16011", "P29_004": "アスナロ幼稚園", "P29_005": "福島県双葉郡浪江町幾世橋田中前68", "P29_006": "4", "P29_007": "0", "P29_008": "00", "P29_009": null }, "geometry": { "type": "Point", "coordinates": [ 141.001915858942596, 37.493157824278299 ] } },
{ "type": "Feature", "properties": { "P29_001": "07547", "P29_002": "A107354711029", "P29_003": "16011", "P29_004": "浪江幼稚園", "P29_005": "福島県双葉郡浪江町大字権現堂字反町4", "P29_006": "4", "P29_007": "0", "P29_008": "00", "P29_009": null }, "geometry": { "type": "Point", "coordinates": [ 140.990819439190659, 37.49510097234122 ] } }
]
}
