{
"type": "FeatureCollection",
"name": "geo_07_各種学校",
"crs": { "type": "name", "properties": { "name": "urn:ogc:def:crs:EPSG::6668" } },
"features": [
{ "type": "Feature", "properties": { "P29_001": "07212", "P29_002": "H207254690011", "P29_003": "16015", "P29_004": "公立双葉准看護学院", "P29_005": "福島県双葉郡双葉町長塚字谷沢町31", "P29_006": "3", "P29_007": "0", "P29_008": "00", "P29_009": null }, "geometry": { "type": "Point", "coordinates": [ 140.994281930613965, 37.633076112788203 ] } },
{ "type": "Feature", "properties": { "P29_001": "07203", "P29_002": "H207320391012", "P29_003": "16015", "P29_004": "学校法人福島朝鮮学園福島朝鮮初中級学校", "P29_005": "福島県郡山市田村町金沢字豆田94-1", "P29_006": "4", "P29_007": "0", "P29_008": "00", "P29_009": null }, "geometry": { "type": "Point", "coordinates": [ 140.424079898244884, 37.332797318584419 ] } },
{ "type": "Feature", "properties": { "P29_001": "07203", "P29_002": "H207320391021", "P29_003": "16015", "P29_004": "学校法人尚志学園福島高等予備校", "P29_005": "福島県郡山市中町14-18", "P29_006": "4", "P29_007": "0", "P29_008": "00", "P29_009": null }, "geometry": { "type": "Point", "coordinates": [ 140.384742946540115, 37.395384476319144 ] } },
{ "type": "Feature", "properties": { "P29_001": "07203", "P29_002": "H207320391030", "P29_003": "16015", "P29_004": "駿優予備学校郡山校", "P29_005": "福島県郡山市駅前1-12-6", "P29_006": "4", "P29_007": "0", "P29_008": "00", "P29_009": null }, "geometry": { "type": "Point", "coordinates": [ 140.385889627557134, 37.394219692208559 ] } },
{ "type": "Feature", "properties": { "P29_001": "07204", "P29_002": "H207320491011", "P29_003": "16015", "P29_004": "平成人学校", "P29_005": "福島県いわき市平字白銀町3-1", "P29_006": "4", "P29_007": "0", "P29_008": "00", "P29_009": null }, "geometry": { "type": "Point", "coordinates": [ 140.894538712428641, 37.057115576559319 ] } },
{ "type": "Feature", "properties": { "P29_001": "07204", "P29_002": "H207320491020", "P29_003": "16015", "P29_004": "いわき市医師会附属いわき准看護学校", "P29_005": "福島県いわき市中央台飯野4-171-1", "P29_006": "4", "P29_007": "0", "P29_008": "00", "P29_009": null }, "geometry": { "type": "Point", "coordinates": [ 140.920720828571177, 37.016980063334131 ] } },
{ "type": "Feature", "properties": { "P29_001": "07204", "P29_002": "H207320491039", "P29_003": "16015", "P29_004": "日本太平自動車学校", "P29_005": "福島県いわき市平塩字古川1-1", "P29_006": "4", "P29_007": "0", "P29_008": "00", "P29_009": null }, "geometry": { "type": "Point", "coordinates": [ 140.919495627430251, 37.060573835874337 ] } },
{ "type": "Feature", "properties": { "P29_001": "07204", "P29_002": "H207320491048", "P29_003": "16015", "P29_004": "常磐音楽舞踊学院", "P29_005": "福島県いわき市常盤藤原町源内45-1", "P29_006": "4", "P29_007": "0", "P29_008": "00", "P29_009": null }, "geometry": { "type": "Point", "coordinates": [ 140.812263048754488, 36.996282475777114 ] } },
{ "type": "Feature", "properties": { "P29_001": "07210", "P29_002": "H207321091013", "P29_003": "16015", "P29_004": "修学館", "P29_005": "福島県二本松市竹田1-90-6", "P29_006": "4", "P29_007": "0", "P29_008": "00", "P29_009": null }, "geometry": { "type": "Point", "coordinates": [ 140.442770261787842, 37.598753298792587 ] } },
{ "type": "Feature", "properties": { "P29_001": "07466", "P29_002": "H207346691014", "P29_003": "16015", "P29_004": "矢吹和裁学校", "P29_005": "福島県西白河郡矢吹町白山838-3", "P29_006": "4", "P29_007": "0", "P29_008": "00", "P29_009": null }, "geometry": { "type": "Point", "coordinates": [ 140.370949567649376, 37.195001073794565 ] } }
]
}
