{
"type": "FeatureCollection",
"name": "geo_07_短期大学",
"crs": { "type": "name", "properties": { "name": "urn:ogc:def:crs:EPSG::6668" } },
"features": [
{ "type": "Feature", "properties": { "P29_001": "07202", "P29_002": "F207210101350", "P29_003": "16006", "P29_004": "会津大学短期大学部", "P29_005": "福島県会津若松市一箕町大字八幡字門田1-1", "P29_006": "3", "P29_007": "0", "P29_008": "00", "P29_009": null }, "geometry": { "type": "Point", "coordinates": [ 139.946014992108104, 37.506798572565913 ] } },
{ "type": "Feature", "properties": { "P29_001": "07203", "P29_002": "F207310101367", "P29_003": "16006", "P29_004": "郡山女子大学短期大学部", "P29_005": "福島県郡山市開成3-25-2", "P29_006": "4", "P29_007": "0", "P29_008": "00", "P29_009": null }, "geometry": { "type": "Point", "coordinates": [ 140.351683829011364, 37.397358620392069 ] } },
{ "type": "Feature", "properties": { "P29_001": "07201", "P29_002": "F207310101376", "P29_003": "16006", "P29_004": "桜の聖母短期大学", "P29_005": "福島県福島市花園町3-6", "P29_006": "4", "P29_007": "0", "P29_008": "00", "P29_009": null }, "geometry": { "type": "Point", "coordinates": [ 140.473187745527355, 37.763190933171309 ] } },
{ "type": "Feature", "properties": { "P29_001": "07204", "P29_002": "F207310101385", "P29_003": "16006", "P29_004": "いわき短期大学", "P29_005": "福島県いわき市平鎌田字寿金沢37", "P29_006": "4", "P29_007": "0", "P29_008": "00", "P29_009": null }, "geometry": { "type": "Point", "coordinates": [ 140.906890003788874, 37.056989998002727 ] } },
{ "type": "Feature", "properties": { "P29_001": "07201", "P29_002": "F207310101394", "P29_003": "16006", "P29_004": "福島学院大学短期大学部", "P29_005": "福島県福島市宮代字乳児池1-1", "P29_006": "4", "P29_007": "0", "P29_008": "00", "P29_009": null }, "geometry": { "type": "Point", "coordinates": [ 140.487382471908262, 37.799724977710774 ] } }
]
}
