{
"type": "FeatureCollection",
"name": "geo_07_義務教育学校",
"crs": { "type": "name", "properties": { "name": "urn:ogc:def:crs:EPSG::6668" } },
"features": [
{ "type": "Feature", "properties": { "P29_001": "07202", "P29_002": "C207220250015", "P29_003": "16014", "P29_004": "会津若松市立河東学園", "P29_005": "福島県会津若松市河東町南高野字金剛田1", "P29_006": "3", "P29_007": "1", "P29_008": "00", "P29_009": null }, "geometry": { "type": "Point", "coordinates": [ 139.929090956905753, 37.555369211798208 ] } },
{ "type": "Feature", "properties": { "P29_001": "07203", "P29_002": "C207220350014", "P29_003": "16014", "P29_004": "郡山市立西田学園義務教育学校", "P29_005": "福島県郡山市西田町鬼生田字杉内734-1", "P29_006": "3", "P29_007": "1", "P29_008": "00", "P29_009": null }, "geometry": { "type": "Point", "coordinates": [ 140.443838560236685, 37.460160541254496 ] } },
{ "type": "Feature", "properties": { "P29_001": "07203", "P29_002": "C207220350023", "P29_003": "16014", "P29_004": "郡山市立湖南小中学校", "P29_005": "福島県郡山市湖南町三代字京塚581-1", "P29_006": "3", "P29_007": "1", "P29_008": "00", "P29_009": null }, "geometry": { "type": "Point", "coordinates": [ 140.11360769036861, 37.382344273422753 ] } },
{ "type": "Feature", "properties": { "P29_001": "07207", "P29_002": "C207220750010", "P29_003": "16014", "P29_004": "須賀川市立義務教育学校稲田学園", "P29_005": "福島県須賀川市岩渕字岡谷地1", "P29_006": "3", "P29_007": "1", "P29_008": "00", "P29_009": null }, "geometry": { "type": "Point", "coordinates": [ 140.322277197588448, 37.262614627614468 ] } },
{ "type": "Feature", "properties": { "P29_001": "07544", "P29_002": "C207254450012", "P29_003": "16014", "P29_004": "川内村立川内小中学園", "P29_005": "福島県双葉郡川内村大字上川内字沼畑125", "P29_006": "3", "P29_007": "1", "P29_008": "00", "P29_009": null }, "geometry": { "type": "Point", "coordinates": [ 140.802903602740741, 37.343558208647586 ] } },
{ "type": "Feature", "properties": { "P29_001": "07545", "P29_002": "C207254550011", "P29_003": "16014", "P29_004": "大熊町立学び舎ゆめの森", "P29_005": "福島県双葉郡大熊町大字大川原字南平1920-1", "P29_006": "3", "P29_007": "1", "P29_008": "00", "P29_009": null }, "geometry": { "type": "Point", "coordinates": [ 140.964676073249848, 37.381378294262639 ] } },
{ "type": "Feature", "properties": { "P29_001": "07564", "P29_002": "C207256450017", "P29_003": "16014", "P29_004": "飯舘村立いいたて希望の里学園", "P29_005": "福島県相馬郡飯舘村伊丹沢字山田380", "P29_006": "3", "P29_007": "1", "P29_008": "00", "P29_009": null }, "geometry": { "type": "Point", "coordinates": [ 140.737837521411024, 37.676776727331152 ] } }
]
}
