{
"type": "FeatureCollection",
"name": "geo_07_短期入所生活介護",
"crs": { "type": "name", "properties": { "name": "urn:ogc:def:crs:OGC:1.3:CRS84" } },
"features": [
{ "type": "Feature", "properties": { "内容": "特別養護老人ホーム　生愛ガーデン短期入所生活介護事業所【短期入所生活介護】福島県福島市大笹生字向平12番地", "url2": "https://www.kaigokensaku.mhlw.go.jp/07/index.php?action_kouhyou_detail_004_kani=true&JigyosyoCd=0770102820-00&ServiceCd=210&Type=search" }, "geometry": { "type": "Point", "coordinates": [ 140.3923317, 37.7966947 ] } },
{ "type": "Feature", "properties": { "内容": "短期入所施設飯野ふるさと村【短期入所生活介護】福島県福島市飯野町大久保字古枝41番1", "url2": "https://www.kaigokensaku.mhlw.go.jp/07/index.php?action_kouhyou_detail_004_kani=true&JigyosyoCd=0770105047-00&ServiceCd=210&Type=search" }, "geometry": { "type": "Point", "coordinates": [ 140.536729899999955, 37.6714723 ] } },
{ "type": "Feature", "properties": { "内容": "特別養護老人ホーム　万葉の郷【短期入所生活介護】松川町字南諏訪原6-4", "url2": "https://www.kaigokensaku.mhlw.go.jp/07/index.php?action_kouhyou_detail_004_kani=true&JigyosyoCd=0770103810-00&ServiceCd=210&Type=search" }, "geometry": { "type": "Point", "coordinates": [ 140.465913169450374, 37.655348092293593 ] } },
{ "type": "Feature", "properties": { "内容": "すこやかの里ショートステイ【短期入所生活介護】福島県福島市沖高字中島１４番地の１", "url2": "https://www.kaigokensaku.mhlw.go.jp/07/index.php?action_kouhyou_detail_004_kani=true&JigyosyoCd=0770101764-00&ServiceCd=210&Type=search" }, "geometry": { "type": "Point", "coordinates": [ 140.47133830000007, 37.7998744 ] } },
{ "type": "Feature", "properties": { "内容": "さわやかふくしまの里ショートステイ【短期入所生活介護】福島県福島市黒岩八郎内7-1", "url2": "https://www.kaigokensaku.mhlw.go.jp/07/index.php?action_kouhyou_detail_004_kani=true&JigyosyoCd=0770106037-00&ServiceCd=210&Type=search" }, "geometry": { "type": "Point", "coordinates": [ 140.4719062, 37.7250193 ] } },
{ "type": "Feature", "properties": { "内容": "ショートステイ　ふじの里【短期入所生活介護】福島県福島市在庭坂字檀ノ前９番地１", "url2": "https://www.kaigokensaku.mhlw.go.jp/07/index.php?action_kouhyou_detail_004_kani=true&JigyosyoCd=0770102838-00&ServiceCd=210&Type=search" }, "geometry": { "type": "Point", "coordinates": [ 140.3704722, 37.7579236 ] } },
{ "type": "Feature", "properties": { "内容": "福島県飯坂ホーム【短期入所生活介護】福島県福島市飯坂町字上原２６番１", "url2": "https://www.kaigokensaku.mhlw.go.jp/07/index.php?action_kouhyou_detail_004_kani=true&JigyosyoCd=0770101046-00&ServiceCd=210&Type=search" }, "geometry": { "type": "Point", "coordinates": [ 140.444869278886017, 37.837766026735274 ] } },
{ "type": "Feature", "properties": { "内容": "ロング・ライフ【短期入所生活介護】福島県福島市松川町字産子内１番地の１", "url2": "https://www.kaigokensaku.mhlw.go.jp/07/index.php?action_kouhyou_detail_004_kani=true&JigyosyoCd=0770101145-00&ServiceCd=210&Type=search" }, "geometry": { "type": "Point", "coordinates": [ 140.478043399999933, 37.6672997 ] } },
{ "type": "Feature", "properties": { "内容": "ショートステイ　みず和の郷【短期入所生活介護】福島県福島市松川町水原字神明山25－2", "url2": "https://www.kaigokensaku.mhlw.go.jp/07/index.php?action_kouhyou_detail_004_kani=true&JigyosyoCd=0770102705-00&ServiceCd=210&Type=search" }, "geometry": { "type": "Point", "coordinates": [ 140.4355746, 37.6620379 ] } },
{ "type": "Feature", "properties": { "内容": "愛日荘園指定短期入所生活介護センター【短期入所生活介護】福島県福島市大波字熊野山１番地特別養護老人ホーム愛日荘園", "url2": "https://www.kaigokensaku.mhlw.go.jp/07/index.php?action_kouhyou_detail_004_kani=true&JigyosyoCd=0770100998-00&ServiceCd=210&Type=search" }, "geometry": { "type": "Point", "coordinates": [ 140.531704399999967, 37.7523944 ] } },
{ "type": "Feature", "properties": { "内容": "特別養護老人ホーム「聖・輝きの郷」【短期入所生活介護】福島県福島市山口字七口13-1", "url2": "https://www.kaigokensaku.mhlw.go.jp/07/index.php?action_kouhyou_detail_004_kani=true&JigyosyoCd=0770101301-00&ServiceCd=210&Type=search" }, "geometry": { "type": "Point", "coordinates": [ 140.512499599999956, 37.7648788 ] } },
{ "type": "Feature", "properties": { "内容": "ショートステイ　エルタ【短期入所生活介護】福島県福島市東浜町10-16", "url2": "https://www.kaigokensaku.mhlw.go.jp/07/index.php?action_kouhyou_detail_004_kani=true&JigyosyoCd=0770106102-00&ServiceCd=210&Type=search" }, "geometry": { "type": "Point", "coordinates": [ 140.486691500000035, 37.763227 ] } },
{ "type": "Feature", "properties": { "内容": "特別養護老人ホーム「聖・星の郷」【短期入所生活介護】福島県福島市山口字四至田15-1", "url2": "https://www.kaigokensaku.mhlw.go.jp/07/index.php?action_kouhyou_detail_004_kani=true&JigyosyoCd=0770106078-00&ServiceCd=210&Type=search" }, "geometry": { "type": "Point", "coordinates": [ 140.5136805, 37.76471 ] } },
{ "type": "Feature", "properties": { "内容": "特別養護老人ホーム　陽光園【短期入所生活介護】福島県福島市南沢又字水門下160-3陽光園介護支援センター", "url2": "https://www.kaigokensaku.mhlw.go.jp/07/index.php?action_kouhyou_detail_004_kani=true&JigyosyoCd=0770101285-00&ServiceCd=210&Type=search" }, "geometry": { "type": "Point", "coordinates": [ 140.411344399999962, 37.78223 ] } },
{ "type": "Feature", "properties": { "内容": "ショートステイ　まちなか宝生園【短期入所生活介護】福島県福島市本町4番23号", "url2": "https://www.kaigokensaku.mhlw.go.jp/07/index.php?action_kouhyou_detail_004_kani=true&JigyosyoCd=0770102739-00&ServiceCd=210&Type=search" }, "geometry": { "type": "Point", "coordinates": [ 140.465096, 37.7523705 ] } },
{ "type": "Feature", "properties": { "内容": "短期入所生活介護さわやかアイリス【短期入所生活介護】福島県福島市在庭坂字志津山６番地の１", "url2": "https://www.kaigokensaku.mhlw.go.jp/07/index.php?action_kouhyou_detail_004_kani=true&JigyosyoCd=0770100915-00&ServiceCd=210&Type=search" }, "geometry": { "type": "Point", "coordinates": [ 140.366511299999956, 37.75974 ] } },
{ "type": "Feature", "properties": { "内容": "短期入所生活介護さわやかアイリス【短期入所生活介護】福島県福島市在庭坂字志津山６番地の１", "url2": "https://www.kaigokensaku.mhlw.go.jp/07/index.php?action_kouhyou_detail_004_kani=true&JigyosyoCd=0770106441-00&ServiceCd=210&Type=search" }, "geometry": { "type": "Point", "coordinates": [ 140.3665126, 37.7600285 ] } },
{ "type": "Feature", "properties": { "内容": "特別養護老人ホーム　アリヴァーレ宝生園【短期入所生活介護】福島県福島市上名倉玉ノ木１９－４", "url2": "https://www.kaigokensaku.mhlw.go.jp/07/index.php?action_kouhyou_detail_004_kani=true&JigyosyoCd=0770101608-00&ServiceCd=210&Type=search" }, "geometry": { "type": "Point", "coordinates": [ 140.372320899999977, 37.7248411 ] } },
{ "type": "Feature", "properties": { "内容": "ショートステイ　信夫の里【短期入所生活介護】福島県福島市仁井田字下川原17番地", "url2": "https://www.kaigokensaku.mhlw.go.jp/07/index.php?action_kouhyou_detail_004_kani=true&JigyosyoCd=0770102879-00&ServiceCd=210&Type=search" }, "geometry": { "type": "Point", "coordinates": [ 140.438073499999973, 37.7533837 ] } },
{ "type": "Feature", "properties": { "内容": "ハッピー愛ランド【短期入所生活介護】福島県福島市南矢野目字才ノ後6－2", "url2": "https://www.kaigokensaku.mhlw.go.jp/07/index.php?action_kouhyou_detail_004_kani=true&JigyosyoCd=0770100469-00&ServiceCd=210&Type=search" }, "geometry": { "type": "Point", "coordinates": [ 140.472330199999988, 37.788631 ] } },
{ "type": "Feature", "properties": { "内容": "特別養護老人ホーム　はなしのぶ【短期入所生活介護】福島県福島市平石字堰ノ上３番地", "url2": "https://www.kaigokensaku.mhlw.go.jp/07/index.php?action_kouhyou_detail_004_kani=true&JigyosyoCd=0770102069-00&ServiceCd=210&Type=search" }, "geometry": { "type": "Point", "coordinates": [ 140.446754899999974, 37.7140081 ] } },
{ "type": "Feature", "properties": { "内容": "渡利ケアセンターそよ風【短期入所生活介護】福島県福島市渡利字番匠町58-1", "url2": "https://www.kaigokensaku.mhlw.go.jp/07/index.php?action_kouhyou_detail_004_kani=true&JigyosyoCd=0770105971-00&ServiceCd=210&Type=search" }, "geometry": { "type": "Point", "coordinates": [ 140.479500351589962, 37.748000497384375 ] } },
{ "type": "Feature", "properties": { "内容": "短期入所生活介護グリーンライト【短期入所生活介護】福島市飯坂町湯野字簗尻1-1", "url2": "https://www.kaigokensaku.mhlw.go.jp/07/index.php?action_kouhyou_detail_004_kani=true&JigyosyoCd=0770101244-00&ServiceCd=210&Type=search" }, "geometry": { "type": "Point", "coordinates": [ 140.45638779442686, 37.822568486102789 ] } },
{ "type": "Feature", "properties": { "内容": "特別養護老人ホーム　ひまわり苑【短期入所生活介護】福島県福島市田沢字入２０番地", "url2": "https://www.kaigokensaku.mhlw.go.jp/07/index.php?action_kouhyou_detail_004_kani=true&JigyosyoCd=0770100709-00&ServiceCd=210&Type=search" }, "geometry": { "type": "Point", "coordinates": [ 140.491273800000045, 37.7014405 ] } },
{ "type": "Feature", "properties": { "内容": "ショートステイなごみの郷【短期入所生活介護】福島県福島市太平寺字町ノ内３０", "url2": "https://www.kaigokensaku.mhlw.go.jp/07/index.php?action_kouhyou_detail_004_kani=true&JigyosyoCd=0770103695-00&ServiceCd=210&Type=search" }, "geometry": { "type": "Point", "coordinates": [ 140.457994500000041, 37.7322811 ] } },
{ "type": "Feature", "properties": { "内容": "ハッピー愛ランドおおもり【短期入所生活介護】福島県福島市大森字下原田45-1", "url2": "https://www.kaigokensaku.mhlw.go.jp/07/index.php?action_kouhyou_detail_004_kani=true&JigyosyoCd=0770104917-00&ServiceCd=210&Type=search" }, "geometry": { "type": "Point", "coordinates": [ 140.44459950000001, 37.7256263 ] } },
{ "type": "Feature", "properties": { "内容": "ショートステイ　輝楽里【短期入所生活介護】福島県福島市泉字弐斗蒔17-1特別養護老人ホームいずみの郷", "url2": "https://www.kaigokensaku.mhlw.go.jp/07/index.php?action_kouhyou_detail_004_kani=true&JigyosyoCd=0770104222-00&ServiceCd=210&Type=search" }, "geometry": { "type": "Point", "coordinates": [ 140.451160139346996, 37.774405284407194 ] } },
{ "type": "Feature", "properties": { "内容": "特別養護老人ホーム会津みどりホーム【短期入所生活介護】福島県会津若松市神指町大字北四合字伊丹堂55番地1", "url2": "https://www.kaigokensaku.mhlw.go.jp/07/index.php?action_kouhyou_detail_004_kani=true&JigyosyoCd=0770201234-00&ServiceCd=210&Type=search" }, "geometry": { "type": "Point", "coordinates": [ 139.8857294, 37.5247772 ] } },
{ "type": "Feature", "properties": { "内容": "ツクイ・サンシャイン会津若松【短期入所生活介護】福島県会津若松市金川町9番1号ツクイ・サンシャイン会津若松", "url2": "https://www.kaigokensaku.mhlw.go.jp/07/index.php?action_kouhyou_detail_004_kani=true&JigyosyoCd=0770202414-00&ServiceCd=210&Type=search" }, "geometry": { "type": "Point", "coordinates": [ 139.920051300000011, 37.5030425 ] } },
{ "type": "Feature", "properties": { "内容": "特別養護老人ホーム会津敬愛苑【短期入所生活介護】福島県会津若松市北会津町東小松字南古川１番", "url2": "https://www.kaigokensaku.mhlw.go.jp/07/index.php?action_kouhyou_detail_004_kani=true&JigyosyoCd=0770201333-00&ServiceCd=210&Type=search" }, "geometry": { "type": "Point", "coordinates": [ 139.89197, 37.4725955 ] } },
{ "type": "Feature", "properties": { "内容": "特別養護老人ホーム　枝雪零苑　短期入所生活介護【短期入所生活介護】福島県会津若松市一箕町松長下長原１５２", "url2": "https://www.kaigokensaku.mhlw.go.jp/07/index.php?action_kouhyou_detail_004_kani=true&JigyosyoCd=0770200350-00&ServiceCd=210&Type=search" }, "geometry": { "type": "Point", "coordinates": [ 139.95337870000003, 37.5237439 ] } },
{ "type": "Feature", "properties": { "内容": "ショートステイエスプリ【短期入所生活介護】福島県会津若松市門田町黒岩石高194-2", "url2": "https://www.kaigokensaku.mhlw.go.jp/07/index.php?action_kouhyou_detail_004_kani=true&JigyosyoCd=0770201580-00&ServiceCd=210&Type=search" }, "geometry": { "type": "Point", "coordinates": [ 139.9341101, 37.4722662 ] } },
{ "type": "Feature", "properties": { "内容": "ショートステー絆【短期入所生活介護】福島県会津若松市湊町大字共和字西田面180", "url2": "https://www.kaigokensaku.mhlw.go.jp/07/index.php?action_kouhyou_detail_004_kani=true&JigyosyoCd=0770200848-00&ServiceCd=210&Type=search" }, "geometry": { "type": "Point", "coordinates": [ 140.0094014, 37.4682617 ] } },
{ "type": "Feature", "properties": { "内容": "株式会社　ケアネット　ショートステイ会津【短期入所生活介護】福島県会津若松市門田町工業団地３７－１", "url2": "https://www.kaigokensaku.mhlw.go.jp/07/index.php?action_kouhyou_detail_004_kani=true&JigyosyoCd=0770201515-00&ServiceCd=210&Type=search" }, "geometry": { "type": "Point", "coordinates": [ 139.912651200000028, 37.4644442 ] } },
{ "type": "Feature", "properties": { "内容": "芦ノ牧ホーム指定短期入所生活介護事業所【短期入所生活介護】福島県会津若松市大戸町大字芦牧字壇ノ下845番地", "url2": "https://www.kaigokensaku.mhlw.go.jp/07/index.php?action_kouhyou_detail_004_kani=true&JigyosyoCd=0770200228-00&ServiceCd=210&Type=search" }, "geometry": { "type": "Point", "coordinates": [ 139.910704099999947, 37.3652674 ] } },
{ "type": "Feature", "properties": { "内容": "健康倶楽部あいづ　ショートステイ「鶴成館」【短期入所生活介護】福島県会津若松市飯寺南三丁目2番22号", "url2": "https://www.kaigokensaku.mhlw.go.jp/07/index.php?action_kouhyou_detail_004_kani=true&JigyosyoCd=0770200921-00&ServiceCd=210&Type=search" }, "geometry": { "type": "Point", "coordinates": [ 139.908443001852447, 37.476455242779615 ] } },
{ "type": "Feature", "properties": { "内容": "ショートステイしなのき西七日町【短期入所生活介護】福島県会津若松氏市西七日町6-12しなのき西七日町", "url2": "https://www.kaigokensaku.mhlw.go.jp/07/index.php?action_kouhyou_detail_004_kani=true&JigyosyoCd=0770202075-00&ServiceCd=210&Type=search" }, "geometry": { "type": "Point", "coordinates": [ 139.915274, 37.5041326 ] } },
{ "type": "Feature", "properties": { "内容": "地域密着型特別養護老人ホーム　第二笑風苑【短期入所生活介護】福島県郡山市喜久田町字菖蒲池6-1", "url2": "https://www.kaigokensaku.mhlw.go.jp/07/index.php?action_kouhyou_detail_004_kani=true&JigyosyoCd=0770303790-00&ServiceCd=210&Type=search" }, "geometry": { "type": "Point", "coordinates": [ 140.3393902, 37.4351777 ] } },
{ "type": "Feature", "properties": { "内容": "ショートステイ夢楽【短期入所生活介護】福島県郡山市八山田西4丁目150番地K-fit倶楽部　郡山", "url2": "https://www.kaigokensaku.mhlw.go.jp/07/index.php?action_kouhyou_detail_004_kani=true&JigyosyoCd=0770305282-00&ServiceCd=210&Type=search" }, "geometry": { "type": "Point", "coordinates": [ 140.367955230024705, 37.429082622314226 ] } },
{ "type": "Feature", "properties": { "内容": "地域密着型特別養護老人ホーム　逢瀬町ただの紀行【短期入所生活介護】福島県郡山市逢瀬町多田野字山田原8番地1", "url2": "https://www.kaigokensaku.mhlw.go.jp/07/index.php?action_kouhyou_detail_004_kani=true&JigyosyoCd=0770305563-00&ServiceCd=210&Type=search" }, "geometry": { "type": "Point", "coordinates": [ 140.246059159771676, 37.392603847318647 ] } },
{ "type": "Feature", "properties": { "内容": "短期入所うねめの里【短期入所生活介護】福島県郡山市片平町字妙見舘１番地２", "url2": "https://www.kaigokensaku.mhlw.go.jp/07/index.php?action_kouhyou_detail_004_kani=true&JigyosyoCd=0770301661-00&ServiceCd=210&Type=search" }, "geometry": { "type": "Point", "coordinates": [ 140.317506289024351, 37.434567684750384 ] } },
{ "type": "Feature", "properties": { "内容": "ショートステイなりた【短期入所生活介護】郡山市安積町牛庭一丁目98番地", "url2": "https://www.kaigokensaku.mhlw.go.jp/07/index.php?action_kouhyou_detail_004_kani=true&JigyosyoCd=0770304004-00&ServiceCd=210&Type=search" }, "geometry": { "type": "Point", "coordinates": [ 140.33275294481362, 37.351372307783485 ] } },
{ "type": "Feature", "properties": { "内容": "特別養護老人ホーム　イル・ヴィラージュ【短期入所生活介護】福島県郡山市島1丁目19-1", "url2": "https://www.kaigokensaku.mhlw.go.jp/07/index.php?action_kouhyou_detail_004_kani=true&JigyosyoCd=0770305480-00&ServiceCd=210&Type=search" }, "geometry": { "type": "Point", "coordinates": [ 140.3462184, 37.3992815 ] } },
{ "type": "Feature", "properties": { "内容": "特別養護老人ホーム　笑風苑【短期入所生活介護】福島県郡山市喜久田町前田沢字小室山5－45", "url2": "https://www.kaigokensaku.mhlw.go.jp/07/index.php?action_kouhyou_detail_004_kani=true&JigyosyoCd=0770303063-00&ServiceCd=210&Type=search" }, "geometry": { "type": "Point", "coordinates": [ 140.34245820000001, 37.4753171 ] } },
{ "type": "Feature", "properties": { "内容": "ヴィラ　きみかげ荘【短期入所生活介護】福島県郡山市安積町成田字車川原37番地", "url2": "https://www.kaigokensaku.mhlw.go.jp/07/index.php?action_kouhyou_detail_004_kani=true&JigyosyoCd=0770302701-00&ServiceCd=210&Type=search" }, "geometry": { "type": "Point", "coordinates": [ 140.336385, 37.3585247 ] } },
{ "type": "Feature", "properties": { "内容": "特別養護老人ホーム小春日和【短期入所生活介護】福島県郡山市安積町荒井字柴宮山55番5", "url2": "https://www.kaigokensaku.mhlw.go.jp/07/index.php?action_kouhyou_detail_004_kani=true&JigyosyoCd=0770305936-00&ServiceCd=210&Type=search" }, "geometry": { "type": "Point", "coordinates": [ 140.340120500000012, 37.376082 ] } },
{ "type": "Feature", "properties": { "内容": "医療法人むつき会　ショートステイ「コスモスの家」【短期入所生活介護】福島県郡山市中野2-54", "url2": "https://www.kaigokensaku.mhlw.go.jp/07/index.php?action_kouhyou_detail_004_kani=true&JigyosyoCd=0770303576-00&ServiceCd=210&Type=search" }, "geometry": { "type": "Point", "coordinates": [ 140.332454950926149, 37.388878769361575 ] } },
{ "type": "Feature", "properties": { "内容": "特別養護老人ホームさくら【短期入所生活介護】福島県郡山市田村町岩作字梅木平１２番地", "url2": "https://www.kaigokensaku.mhlw.go.jp/07/index.php?action_kouhyou_detail_004_kani=true&JigyosyoCd=0770303345-00&ServiceCd=210&Type=search" }, "geometry": { "type": "Point", "coordinates": [ 140.41070220000006, 37.3197609 ] } },
{ "type": "Feature", "properties": { "内容": "郡山ケアセンターそよ風【短期入所生活介護】福島県郡山市大槻町字弥八池南１４－１", "url2": "https://www.kaigokensaku.mhlw.go.jp/07/index.php?action_kouhyou_detail_004_kani=true&JigyosyoCd=0770300846-00&ServiceCd=210&Type=search" }, "geometry": { "type": "Point", "coordinates": [ 140.3443079, 37.3865774 ] } },
{ "type": "Feature", "properties": { "内容": "特別養護老人ホーム　ハーモニーみどりヶ丘【短期入所生活介護】福島県郡山市緑ヶ丘東六丁目２６番地２", "url2": "https://www.kaigokensaku.mhlw.go.jp/07/index.php?action_kouhyou_detail_004_kani=true&JigyosyoCd=0770302792-00&ServiceCd=210&Type=search" }, "geometry": { "type": "Point", "coordinates": [ 140.439352800000052, 37.3853049 ] } },
{ "type": "Feature", "properties": { "内容": "特別養護老人ホーム　光の森の丘【短期入所生活介護】福島県郡山市安原町字谷津１７１－１", "url2": "https://www.kaigokensaku.mhlw.go.jp/07/index.php?action_kouhyou_detail_004_kani=true&JigyosyoCd=0770302453-00&ServiceCd=210&Type=search" }, "geometry": { "type": "Point", "coordinates": [ 140.416240099999982, 37.3960671 ] } },
{ "type": "Feature", "properties": { "内容": "さかえ　マイハート希望【短期入所生活介護】福島県郡山市横塚２－１８－５", "url2": "https://www.kaigokensaku.mhlw.go.jp/07/index.php?action_kouhyou_detail_004_kani=true&JigyosyoCd=0770304640-00&ServiceCd=210&Type=search" }, "geometry": { "type": "Point", "coordinates": [ 140.400516299999907, 37.3971499 ] } },
{ "type": "Feature", "properties": { "内容": "特別養護老人ホーム玉川ホーム【短期入所生活介護】福島県郡山市熱海町玉川字阿曽沢11番地1", "url2": "https://www.kaigokensaku.mhlw.go.jp/07/index.php?action_kouhyou_detail_004_kani=true&JigyosyoCd=0770300432-00&ServiceCd=210&Type=search" }, "geometry": { "type": "Point", "coordinates": [ 140.286326700000018, 37.482779 ] } },
{ "type": "Feature", "properties": { "内容": "特別養護老人ホームあたみホーム【短期入所生活介護】福島県郡山市熱海町玉川字阿曽沢1番地30", "url2": "https://www.kaigokensaku.mhlw.go.jp/07/index.php?action_kouhyou_detail_004_kani=true&JigyosyoCd=0770300457-00&ServiceCd=210&Type=search" }, "geometry": { "type": "Point", "coordinates": [ 140.285437900000034, 37.48349 ] } },
{ "type": "Feature", "properties": { "内容": "特別養護老人ホームみほた【短期入所生活介護】福島県郡山市三穂田町鍋山字前原250番地の2", "url2": "https://www.kaigokensaku.mhlw.go.jp/07/index.php?action_kouhyou_detail_004_kani=true&JigyosyoCd=0770302172-00&ServiceCd=210&Type=search" }, "geometry": { "type": "Point", "coordinates": [ 140.281364, 37.3384887 ] } },
{ "type": "Feature", "properties": { "内容": "医療法人むつき会　ショートステイ「さくらの家」【短期入所生活介護】福島県郡山市桜木1丁目1－9", "url2": "https://www.kaigokensaku.mhlw.go.jp/07/index.php?action_kouhyou_detail_004_kani=true&JigyosyoCd=0770304038-00&ServiceCd=210&Type=search" }, "geometry": { "type": "Point", "coordinates": [ 140.374285, 37.4079758 ] } },
{ "type": "Feature", "properties": { "内容": "ショートステイ逢座【短期入所生活介護】福島県郡山市大町一丁目13番地14号", "url2": "https://www.kaigokensaku.mhlw.go.jp/07/index.php?action_kouhyou_detail_004_kani=true&JigyosyoCd=0770304673-00&ServiceCd=210&Type=search" }, "geometry": { "type": "Point", "coordinates": [ 140.386039699999969, 37.4015157 ] } },
{ "type": "Feature", "properties": { "内容": "特別養護老人ホーム　おおつき　短期入所生活介護【短期入所生活介護】福島県郡山市大槻町字西勝ノ木5番地の１", "url2": "https://www.kaigokensaku.mhlw.go.jp/07/index.php?action_kouhyou_detail_004_kani=true&JigyosyoCd=0770300937-00&ServiceCd=210&Type=search" }, "geometry": { "type": "Point", "coordinates": [ 140.306289399999969, 37.3934809 ] } },
{ "type": "Feature", "properties": { "内容": "特別養護老人ホーム　下亀田紀行【短期入所生活介護】福島県郡山市字下亀田３番地の１", "url2": "https://www.kaigokensaku.mhlw.go.jp/07/index.php?action_kouhyou_detail_004_kani=true&JigyosyoCd=0770303758-00&ServiceCd=210&Type=search" }, "geometry": { "type": "Point", "coordinates": [ 140.349367700000016, 37.4110443 ] } },
{ "type": "Feature", "properties": { "内容": "ショートステイカーサ・ミッレ【短期入所生活介護】福島県郡山市安積町笹川字西宿77特別養護老人ホームカーサ・ミッレ内", "url2": "https://www.kaigokensaku.mhlw.go.jp/07/index.php?action_kouhyou_detail_004_kani=true&JigyosyoCd=0770300853-00&ServiceCd=210&Type=search" }, "geometry": { "type": "Point", "coordinates": [ 140.363750540336554, 37.349759724967697 ] } },
{ "type": "Feature", "properties": { "内容": "ショートステイ雪月花【短期入所生活介護】福島県郡山市東原1-258", "url2": "https://www.kaigokensaku.mhlw.go.jp/07/index.php?action_kouhyou_detail_004_kani=true&JigyosyoCd=0770304632-00&ServiceCd=210&Type=search" }, "geometry": { "type": "Point", "coordinates": [ 140.351174602284829, 37.430739458834559 ] } },
{ "type": "Feature", "properties": { "内容": "スプリングガーデンあさか　短期入所生活介護事業所【短期入所生活介護】福島県郡山市安積町笹川字目光池西１０－１", "url2": "https://www.kaigokensaku.mhlw.go.jp/07/index.php?action_kouhyou_detail_004_kani=true&JigyosyoCd=0770300929-00&ServiceCd=210&Type=search" }, "geometry": { "type": "Point", "coordinates": [ 140.361721799999941, 37.3498872 ] } },
{ "type": "Feature", "properties": { "内容": "社会福祉法人愛星福祉会特別養護老人ホーム星ヶ丘ホーム【短期入所生活介護】福島県郡山市片平町字妙見舘１－１", "url2": "https://www.kaigokensaku.mhlw.go.jp/07/index.php?action_kouhyou_detail_004_kani=true&JigyosyoCd=0770300648-00&ServiceCd=210&Type=search" }, "geometry": { "type": "Point", "coordinates": [ 140.318458599999985, 37.4355939 ] } },
{ "type": "Feature", "properties": { "内容": "郡山南ショートステイそよ風【短期入所生活介護】福島県郡山市図景二丁目11-23", "url2": "https://www.kaigokensaku.mhlw.go.jp/07/index.php?action_kouhyou_detail_004_kani=true&JigyosyoCd=0770305225-00&ServiceCd=210&Type=search" }, "geometry": { "type": "Point", "coordinates": [ 140.37546272645875, 37.377650970780358 ] } },
{ "type": "Feature", "properties": { "内容": "南東北ロイヤルライフ館【短期入所生活介護】福島県郡山市日和田町梅沢字丹波山3-2", "url2": "https://www.kaigokensaku.mhlw.go.jp/07/index.php?action_kouhyou_detail_004_kani=true&JigyosyoCd=0770300796-00&ServiceCd=210&Type=search" }, "geometry": { "type": "Point", "coordinates": [ 140.414329899999984, 37.4575858 ] } },
{ "type": "Feature", "properties": { "内容": "うねめの里はるひめショートステイ【短期入所生活介護】福島県郡山市片平町字妙見舘10番地1", "url2": "https://www.kaigokensaku.mhlw.go.jp/07/index.php?action_kouhyou_detail_004_kani=true&JigyosyoCd=0770304939-00&ServiceCd=210&Type=search" }, "geometry": { "type": "Point", "coordinates": [ 140.316518340336586, 37.434848147395002 ] } },
{ "type": "Feature", "properties": { "内容": "ショートステイひかり【短期入所生活介護】福島県郡山市御前南三丁目１９９番地", "url2": "https://www.kaigokensaku.mhlw.go.jp/07/index.php?action_kouhyou_detail_004_kani=true&JigyosyoCd=0770302610-00&ServiceCd=210&Type=search" }, "geometry": { "type": "Point", "coordinates": [ 140.329701500000027, 37.3794556 ] } },
{ "type": "Feature", "properties": { "内容": "南東北グランプラス八山田【短期入所生活介護】福島県郡山市富久山町八山田字土布池55－1", "url2": "https://www.kaigokensaku.mhlw.go.jp/07/index.php?action_kouhyou_detail_004_kani=true&JigyosyoCd=0770304772-00&ServiceCd=210&Type=search" }, "geometry": { "type": "Point", "coordinates": [ 140.384390647746272, 37.425920974412456 ] } },
{ "type": "Feature", "properties": { "内容": "介護老人福祉施設望洋荘【短期入所生活介護】福島県いわき市平豊間字合磯３９番地", "url2": "https://www.kaigokensaku.mhlw.go.jp/07/index.php?action_kouhyou_detail_004_kani=true&JigyosyoCd=0770402105-00&ServiceCd=210&Type=search" }, "geometry": { "type": "Point", "coordinates": [ 140.9616188, 36.9786917 ] } },
{ "type": "Feature", "properties": { "内容": "特別養護老人ホームいわさき荘【短期入所生活介護】福島県いわき市常磐上湯長谷町上ノ台８８－１", "url2": "https://www.kaigokensaku.mhlw.go.jp/07/index.php?action_kouhyou_detail_004_kani=true&JigyosyoCd=0770400356-00&ServiceCd=210&Type=search" }, "geometry": { "type": "Point", "coordinates": [ 140.8384886, 37.0035059 ] } },
{ "type": "Feature", "properties": { "内容": "楽寿荘短期入所生活介護事業所【短期入所生活介護】福島県いわき市四倉町上仁井田字横川74-1", "url2": "https://www.kaigokensaku.mhlw.go.jp/07/index.php?action_kouhyou_detail_004_kani=true&JigyosyoCd=0770400398-00&ServiceCd=210&Type=search" }, "geometry": { "type": "Point", "coordinates": [ 140.97879439999997, 37.0904809 ] } },
{ "type": "Feature", "properties": { "内容": "ゆ・の・あショートステイ【短期入所生活介護】福島県いわき市勿来町白米酒井原116番1", "url2": "https://www.kaigokensaku.mhlw.go.jp/07/index.php?action_kouhyou_detail_004_kani=true&JigyosyoCd=0770407872-00&ServiceCd=210&Type=search" }, "geometry": { "type": "Point", "coordinates": [ 140.74228370000003, 36.8958161 ] } },
{ "type": "Feature", "properties": { "内容": "社会福祉法人祐寿会【短期入所生活介護】福島県いわき市常磐湯本町日渡74-13", "url2": "https://www.kaigokensaku.mhlw.go.jp/07/index.php?action_kouhyou_detail_004_kani=true&JigyosyoCd=0770406874-00&ServiceCd=210&Type=search" }, "geometry": { "type": "Point", "coordinates": [ 140.8405521, 37.0178122 ] } },
{ "type": "Feature", "properties": { "内容": "ショートステイ　りゅうじん【短期入所生活介護】洋向台１丁目３９－２", "url2": "https://www.kaigokensaku.mhlw.go.jp/07/index.php?action_kouhyou_detail_004_kani=true&JigyosyoCd=0770407179-00&ServiceCd=210&Type=search" }, "geometry": { "type": "Point", "coordinates": [ 140.939678053967356, 36.968832189581441 ] } },
{ "type": "Feature", "properties": { "内容": "特別養護老人ホームせんだん【短期入所生活介護】いわき市錦町江栗馬場9番地1", "url2": "https://www.kaigokensaku.mhlw.go.jp/07/index.php?action_kouhyou_detail_004_kani=true&JigyosyoCd=0773200621-00&ServiceCd=210&Type=search" }, "geometry": { "type": "Point", "coordinates": [ 140.7769939, 36.910067800000014 ] } },
{ "type": "Feature", "properties": { "内容": "特別養護老人ホーム　翠祥園【短期入所生活介護】福島県いわき市久之浜町末続字深谷３３－１", "url2": "https://www.kaigokensaku.mhlw.go.jp/07/index.php?action_kouhyou_detail_004_kani=true&JigyosyoCd=0770400570-00&ServiceCd=210&Type=search" }, "geometry": { "type": "Point", "coordinates": [ 140.999514699999963, 37.1667593 ] } },
{ "type": "Feature", "properties": { "内容": "せいざん荘【短期入所生活介護】福島県いわき市植田町堂ノ作49番地の12", "url2": "https://www.kaigokensaku.mhlw.go.jp/07/index.php?action_kouhyou_detail_004_kani=true&JigyosyoCd=0770400331-00&ServiceCd=210&Type=search" }, "geometry": { "type": "Point", "coordinates": [ 140.791641900000059, 36.9305692 ] } },
{ "type": "Feature", "properties": { "内容": "ショートステイよしま【短期入所生活介護】福島県いわき市好間町北好間字外川原33番地の1", "url2": "https://www.kaigokensaku.mhlw.go.jp/07/index.php?action_kouhyou_detail_004_kani=true&JigyosyoCd=0770406056-00&ServiceCd=210&Type=search" }, "geometry": { "type": "Point", "coordinates": [ 140.856637781614722, 37.064980441656616 ] } },
{ "type": "Feature", "properties": { "内容": "ショートステイ未来　月見台【短期入所生活介護】金山町月見台1-1", "url2": "https://www.kaigokensaku.mhlw.go.jp/07/index.php?action_kouhyou_detail_004_kani=true&JigyosyoCd=0770407435-00&ServiceCd=210&Type=search" }, "geometry": { "type": "Point", "coordinates": [ 140.824392020237724, 36.925823637493281 ] } },
{ "type": "Feature", "properties": { "内容": "ハートフルなこそ居宅介護事業所【短期入所生活介護】福島県いわき市勿来町白米長沢8番", "url2": "https://www.kaigokensaku.mhlw.go.jp/07/index.php?action_kouhyou_detail_004_kani=true&JigyosyoCd=0770400273-00&ServiceCd=210&Type=search" }, "geometry": { "type": "Point", "coordinates": [ 140.741615133190862, 36.896205646908967 ] } },
{ "type": "Feature", "properties": { "内容": "ひまわり荘短期入所生活介護事業所【短期入所生活介護】福島県いわき市平上片寄字上ノ内193", "url2": "https://www.kaigokensaku.mhlw.go.jp/07/index.php?action_kouhyou_detail_004_kani=true&JigyosyoCd=0770400679-00&ServiceCd=210&Type=search" }, "geometry": { "type": "Point", "coordinates": [ 140.915185299999962, 37.0804717 ] } },
{ "type": "Feature", "properties": { "内容": "高砂荘ショートステイ【短期入所生活介護】福島県いわき市遠野町上遠野字沢繋16番地の17", "url2": "https://www.kaigokensaku.mhlw.go.jp/07/index.php?action_kouhyou_detail_004_kani=true&JigyosyoCd=0770400315-00&ServiceCd=210&Type=search" }, "geometry": { "type": "Point", "coordinates": [ 140.783328200000028, 37.0058156 ] } },
{ "type": "Feature", "properties": { "内容": "幸寿苑【短期入所生活介護】福島県いわき市平上平窪字原田１３番地の１", "url2": "https://www.kaigokensaku.mhlw.go.jp/07/index.php?action_kouhyou_detail_004_kani=true&JigyosyoCd=0770400414-00&ServiceCd=210&Type=search" }, "geometry": { "type": "Point", "coordinates": [ 140.8738727, 37.1005847 ] } },
{ "type": "Feature", "properties": { "内容": "くらしの郷ミドル＆ショートステイ【短期入所生活介護】福島県いわき市中央台鹿島三丁目1番7", "url2": "https://www.kaigokensaku.mhlw.go.jp/07/index.php?action_kouhyou_detail_004_kani=true&JigyosyoCd=0770405769-00&ServiceCd=210&Type=search" }, "geometry": { "type": "Point", "coordinates": [ 140.916655499999933, 37.0064735 ] } },
{ "type": "Feature", "properties": { "内容": "葵会短期入所生活介護　寿限無【短期入所生活介護】いわき市泉町本谷字大田23-1", "url2": "https://www.kaigokensaku.mhlw.go.jp/07/index.php?action_kouhyou_detail_004_kani=true&JigyosyoCd=0770405900-00&ServiceCd=210&Type=search" }, "geometry": { "type": "Point", "coordinates": [ 140.871644100000026, 36.9684927 ] } },
{ "type": "Feature", "properties": { "内容": "葵会短期入所生活介護　寿楽【短期入所生活介護】福島県いわき市泉町本谷字大田7-1", "url2": "https://www.kaigokensaku.mhlw.go.jp/07/index.php?action_kouhyou_detail_004_kani=true&JigyosyoCd=0770407054-00&ServiceCd=210&Type=search" }, "geometry": { "type": "Point", "coordinates": [ 140.8705923, 36.967271 ] } },
{ "type": "Feature", "properties": { "内容": "短期入所生活介護事業所　パライソごしき【短期入所生活介護】福島県いわき市鹿島町久保字仲田10の1", "url2": "https://www.kaigokensaku.mhlw.go.jp/07/index.php?action_kouhyou_detail_004_kani=true&JigyosyoCd=0770404218-00&ServiceCd=210&Type=search" }, "geometry": { "type": "Point", "coordinates": [ 140.908095199999906, 36.9914587 ] } },
{ "type": "Feature", "properties": { "内容": "特別養護老人ホーム　聖徳荘【短期入所生活介護】福島県いわき市内郷宮町金坂184番地の3", "url2": "https://www.kaigokensaku.mhlw.go.jp/07/index.php?action_kouhyou_detail_004_kani=true&JigyosyoCd=0770401537-00&ServiceCd=210&Type=search" }, "geometry": { "type": "Point", "coordinates": [ 140.846247299999959, 37.0439655 ] } },
{ "type": "Feature", "properties": { "内容": "亀齢荘ショートステイ【短期入所生活介護】福島県いわき市平山崎字熊ノ宮３０番地", "url2": "https://www.kaigokensaku.mhlw.go.jp/07/index.php?action_kouhyou_detail_004_kani=true&JigyosyoCd=0770400638-00&ServiceCd=210&Type=search" }, "geometry": { "type": "Point", "coordinates": [ 140.940052799999989, 37.056976 ] } },
{ "type": "Feature", "properties": { "内容": "ミドル&ショートステイ　ヴィラ白鳥【短期入所生活介護】福島県いわき市常磐白鳥町壱丁田23番地1", "url2": "https://www.kaigokensaku.mhlw.go.jp/07/index.php?action_kouhyou_detail_004_kani=true&JigyosyoCd=0770406866-00&ServiceCd=210&Type=search" }, "geometry": { "type": "Point", "coordinates": [ 140.844407899999965, 36.9859334 ] } },
{ "type": "Feature", "properties": { "内容": "ショートステイにじの郷【短期入所生活介護】福島県いわき市小名浜岡小名字山ノ神27番1地域密着型特別養護老人ホームにじの郷", "url2": "https://www.kaigokensaku.mhlw.go.jp/07/index.php?action_kouhyou_detail_004_kani=true&JigyosyoCd=0770408326-00&ServiceCd=210&Type=search" }, "geometry": { "type": "Point", "coordinates": [ 140.910353900000018, 36.9711864 ] } },
{ "type": "Feature", "properties": { "内容": "養生会　かしま【短期入所生活介護】福島県いわき市鹿島町下蔵持字中沢目２４", "url2": "https://www.kaigokensaku.mhlw.go.jp/07/index.php?action_kouhyou_detail_004_kani=true&JigyosyoCd=0770400299-00&ServiceCd=210&Type=search" }, "geometry": { "type": "Point", "coordinates": [ 140.9106137, 36.992466 ] } },
{ "type": "Feature", "properties": { "内容": "短期入所生活介護事業所サニーポート小名浜【短期入所生活介護】福島県いわき市小名浜字神成塚133番地の1", "url2": "https://www.kaigokensaku.mhlw.go.jp/07/index.php?action_kouhyou_detail_004_kani=true&JigyosyoCd=0770407542-00&ServiceCd=210&Type=search" }, "geometry": { "type": "Point", "coordinates": [ 140.884052, 36.951515600000015 ] } },
{ "type": "Feature", "properties": { "内容": "オンフール双葉短期入所生活介護【短期入所生活介護】福島県いわき市平荒田目字中田40", "url2": "https://www.kaigokensaku.mhlw.go.jp/07/index.php?action_kouhyou_detail_004_kani=true&JigyosyoCd=0773200175-00&ServiceCd=210&Type=search" }, "geometry": { "type": "Point", "coordinates": [ 140.949416843516474, 37.054304503116576 ] } },
{ "type": "Feature", "properties": { "内容": "短期入所生活介護　はなまる共和国【短期入所生活介護】福島県いわき市平上荒川字林作207番地５", "url2": "https://www.kaigokensaku.mhlw.go.jp/07/index.php?action_kouhyou_detail_004_kani=true&JigyosyoCd=0770402758-00&ServiceCd=210&Type=search" }, "geometry": { "type": "Point", "coordinates": [ 140.8790854, 37.0242383 ] } },
{ "type": "Feature", "properties": { "内容": "医和生会ショートステイ【短期入所生活介護】福島県いわき市平谷川瀬一丁目19-7", "url2": "https://www.kaigokensaku.mhlw.go.jp/07/index.php?action_kouhyou_detail_004_kani=true&JigyosyoCd=0770404473-00&ServiceCd=210&Type=search" }, "geometry": { "type": "Point", "coordinates": [ 140.892544272105368, 37.046588581458479 ] } },
{ "type": "Feature", "properties": { "内容": "特別養護老人ホーム　リアンヴェール新白河【短期入所生活介護】福島県白河市立石180番地１", "url2": "https://www.kaigokensaku.mhlw.go.jp/07/index.php?action_kouhyou_detail_004_kani=true&JigyosyoCd=0770501492-00&ServiceCd=210&Type=search" }, "geometry": { "type": "Point", "coordinates": [ 140.1973587, 37.1285254 ] } },
{ "type": "Feature", "properties": { "内容": "グリーンシャトー遊歩【短期入所生活介護】福島県白河市白坂三輪台20-1", "url2": "https://www.kaigokensaku.mhlw.go.jp/07/index.php?action_kouhyou_detail_004_kani=true&JigyosyoCd=0770500833-00&ServiceCd=210&Type=search" }, "geometry": { "type": "Point", "coordinates": [ 140.19386170000007, 37.1004479 ] } },
{ "type": "Feature", "properties": { "内容": "特別養護老人ホーム表郷「聖・オリーブの郷」【短期入所生活介護】福島県白河市表郷堀之内字堀ノ内1-1", "url2": "https://www.kaigokensaku.mhlw.go.jp/07/index.php?action_kouhyou_detail_004_kani=true&JigyosyoCd=0770501377-00&ServiceCd=210&Type=search" }, "geometry": { "type": "Point", "coordinates": [ 140.3195399, 37.0688403 ] } },
{ "type": "Feature", "properties": { "内容": "特別養護老人ホーム　小峰苑【短期入所生活介護】福島県白河市新夏梨1番地2", "url2": "https://www.kaigokensaku.mhlw.go.jp/07/index.php?action_kouhyou_detail_004_kani=true&JigyosyoCd=0770500114-00&ServiceCd=210&Type=search" }, "geometry": { "type": "Point", "coordinates": [ 140.227589699999953, 37.0897947 ] } },
{ "type": "Feature", "properties": { "内容": "特別養護老人ホーム　大信「聖・虹の郷」【短期入所生活介護】白河市大信増見字八幡山55-3", "url2": "https://www.kaigokensaku.mhlw.go.jp/07/index.php?action_kouhyou_detail_004_kani=true&JigyosyoCd=0770500866-00&ServiceCd=210&Type=search" }, "geometry": { "type": "Point", "coordinates": [ 140.240779400000065, 37.2033346 ] } },
{ "type": "Feature", "properties": { "内容": "特別養護老人ホーム　大信「聖・虹の郷」【短期入所生活介護】福島県白河市大信増見字八幡山55-3", "url2": "https://www.kaigokensaku.mhlw.go.jp/07/index.php?action_kouhyou_detail_004_kani=true&JigyosyoCd=0772800561-00&ServiceCd=210&Type=search" }, "geometry": { "type": "Point", "coordinates": [ 140.240779400000065, 37.2033346 ] } },
{ "type": "Feature", "properties": { "内容": "ショートステイ　しらかわの里【短期入所生活介護】福島県白河市萱根金ヶ入10番１", "url2": "https://www.kaigokensaku.mhlw.go.jp/07/index.php?action_kouhyou_detail_004_kani=true&JigyosyoCd=0770500338-00&ServiceCd=210&Type=search" }, "geometry": { "type": "Point", "coordinates": [ 140.242495, 37.1466883 ] } },
{ "type": "Feature", "properties": { "内容": "ショートステイいわせ長寿苑【短期入所生活介護】福島県須賀川市矢沢字明池158番地", "url2": "https://www.kaigokensaku.mhlw.go.jp/07/index.php?action_kouhyou_detail_004_kani=true&JigyosyoCd=0770700912-00&ServiceCd=210&Type=search" }, "geometry": { "type": "Point", "coordinates": [ 140.2858728, 37.3146444 ] } },
{ "type": "Feature", "properties": { "内容": "シオンの園【短期入所生活介護】福島県須賀川市下小山田字月夜田２０６", "url2": "https://www.kaigokensaku.mhlw.go.jp/07/index.php?action_kouhyou_detail_004_kani=true&JigyosyoCd=0770700276-00&ServiceCd=210&Type=search" }, "geometry": { "type": "Point", "coordinates": [ 140.4379801, 37.2789634 ] } },
{ "type": "Feature", "properties": { "内容": "エルピスショートステイ【短期入所生活介護】福島県須賀川市和田字沓掛４８番地１", "url2": "https://www.kaigokensaku.mhlw.go.jp/07/index.php?action_kouhyou_detail_004_kani=true&JigyosyoCd=0770700391-00&ServiceCd=210&Type=search" }, "geometry": { "type": "Point", "coordinates": [ 140.3793997, 37.2676733 ] } },
{ "type": "Feature", "properties": { "内容": "特別養護老人ホーム　長沼ホーム【短期入所生活介護】福島県須賀川市志茂字末津久保1-2", "url2": "https://www.kaigokensaku.mhlw.go.jp/07/index.php?action_kouhyou_detail_004_kani=true&JigyosyoCd=0772200150-00&ServiceCd=210&Type=search" }, "geometry": { "type": "Point", "coordinates": [ 140.247377699999987, 37.2933405 ] } },
{ "type": "Feature", "properties": { "内容": "森宿ショートステイそよ風【短期入所生活介護】福島県須賀川市森宿字ヒジリ田47-4", "url2": "https://www.kaigokensaku.mhlw.go.jp/07/index.php?action_kouhyou_detail_004_kani=true&JigyosyoCd=0770701472-00&ServiceCd=210&Type=search" }, "geometry": { "type": "Point", "coordinates": [ 140.367603303179919, 37.310796880558357 ] } },
{ "type": "Feature", "properties": { "内容": "ゆう遊館ショートステイ【短期入所生活介護】福島県須賀川市滑川字関ノ上26番地１", "url2": "https://www.kaigokensaku.mhlw.go.jp/07/index.php?action_kouhyou_detail_004_kani=true&JigyosyoCd=0770700987-00&ServiceCd=210&Type=search" }, "geometry": { "type": "Point", "coordinates": [ 140.3651609, 37.3251133 ] } },
{ "type": "Feature", "properties": { "内容": "特別養護老人ホーム愛寿園【短期入所生活介護】福島県須賀川市吉美根字土橋１２１番地", "url2": "https://www.kaigokensaku.mhlw.go.jp/07/index.php?action_kouhyou_detail_004_kani=true&JigyosyoCd=0770700227-00&ServiceCd=210&Type=search" }, "geometry": { "type": "Point", "coordinates": [ 140.343609499999957, 37.3033114 ] } },
{ "type": "Feature", "properties": { "内容": "特別養護老人ホームほほえみ【短期入所生活介護】福島県喜多方市塩川町字藤の木１１番地１", "url2": "https://www.kaigokensaku.mhlw.go.jp/07/index.php?action_kouhyou_detail_004_kani=true&JigyosyoCd=0770801009-00&ServiceCd=210&Type=search" }, "geometry": { "type": "Point", "coordinates": [ 139.8895429, 37.5973396 ] } },
{ "type": "Feature", "properties": { "内容": "特別養護老人ホームしょうぶ苑【短期入所生活介護】福島県喜多方市岩月町大都字菖蒲沢3610番地1", "url2": "https://www.kaigokensaku.mhlw.go.jp/07/index.php?action_kouhyou_detail_004_kani=true&JigyosyoCd=0770800241-00&ServiceCd=210&Type=search" }, "geometry": { "type": "Point", "coordinates": [ 139.8915989, 37.6908078 ] } },
{ "type": "Feature", "properties": { "内容": "特別養護老人ホームけいわ苑【短期入所生活介護】福島県喜多方市塩川町字下前田21番地", "url2": "https://www.kaigokensaku.mhlw.go.jp/07/index.php?action_kouhyou_detail_004_kani=true&JigyosyoCd=0770801025-00&ServiceCd=210&Type=search" }, "geometry": { "type": "Point", "coordinates": [ 139.888305226398671, 37.599222 ] } },
{ "type": "Feature", "properties": { "内容": "特別養護老人ホーム　北原荘【短期入所生活介護】福島県喜多方市松山町村松字北原3656-11", "url2": "https://www.kaigokensaku.mhlw.go.jp/07/index.php?action_kouhyou_detail_004_kani=true&JigyosyoCd=0770800282-00&ServiceCd=210&Type=search" }, "geometry": { "type": "Point", "coordinates": [ 139.86910510000007, 37.6827927 ] } },
{ "type": "Feature", "properties": { "内容": "特別養護老人ホーム　ハッピーランドあいかわ【短期入所生活介護】福島県喜多方市山都町相川字鶴巻田甲978-4", "url2": "https://www.kaigokensaku.mhlw.go.jp/07/index.php?action_kouhyou_detail_004_kani=true&JigyosyoCd=0770800969-00&ServiceCd=210&Type=search" }, "geometry": { "type": "Point", "coordinates": [ 139.7931796, 37.6794007 ] } },
{ "type": "Feature", "properties": { "内容": "短期入所生活介護　暖ノ奏ときわ台【短期入所生活介護】福島県喜多方市字常盤台13番3", "url2": "https://www.kaigokensaku.mhlw.go.jp/07/index.php?action_kouhyou_detail_004_kani=true&JigyosyoCd=0770801041-00&ServiceCd=210&Type=search" }, "geometry": { "type": "Point", "coordinates": [ 139.871925673016307, 37.666355854040447 ] } },
{ "type": "Feature", "properties": { "内容": "特別養護老人ホーム　ハッピーランドやまと【短期入所生活介護】福島県喜多方市山都町木幡字下村道下丁1537-1特別養護老人ホーム", "url2": "https://www.kaigokensaku.mhlw.go.jp/07/index.php?action_kouhyou_detail_004_kani=true&JigyosyoCd=0772500377-00&ServiceCd=210&Type=search" }, "geometry": { "type": "Point", "coordinates": [ 139.775440500000059, 37.6543683 ] } },
{ "type": "Feature", "properties": { "内容": "ショートステイ　まごころ【短期入所生活介護】石上字南蛯沢　405-1", "url2": "https://www.kaigokensaku.mhlw.go.jp/07/index.php?action_kouhyou_detail_004_kani=true&JigyosyoCd=0770900637-00&ServiceCd=210&Type=search" }, "geometry": { "type": "Point", "coordinates": [ 140.910280161376932, 37.817543850648704 ] } },
{ "type": "Feature", "properties": { "内容": "特別養護老人ホーム相馬ホーム【短期入所生活介護】福島県相馬市小泉字高池７１８番地", "url2": "https://www.kaigokensaku.mhlw.go.jp/07/index.php?action_kouhyou_detail_004_kani=true&JigyosyoCd=0770900595-00&ServiceCd=210&Type=search" }, "geometry": { "type": "Point", "coordinates": [ 140.9174054, 37.8106115 ] } },
{ "type": "Feature", "properties": { "内容": "特別養護老人ホーム相馬ホーム【短期入所生活介護】福島県相馬市小泉字高池７１８番地", "url2": "https://www.kaigokensaku.mhlw.go.jp/07/index.php?action_kouhyou_detail_004_kani=true&JigyosyoCd=0770900108-00&ServiceCd=210&Type=search" }, "geometry": { "type": "Point", "coordinates": [ 140.917352599999958, 37.8106087 ] } },
{ "type": "Feature", "properties": { "内容": "特別養護老人ホーム　二本松いわしろ紀行【短期入所生活介護】福島県二本松市西勝田字杉内10番地", "url2": "https://www.kaigokensaku.mhlw.go.jp/07/index.php?action_kouhyou_detail_004_kani=true&JigyosyoCd=0771000569-00&ServiceCd=210&Type=search" }, "geometry": { "type": "Point", "coordinates": [ 140.501089800000045, 37.5598036 ] } },
{ "type": "Feature", "properties": { "内容": "羽山荘【短期入所生活介護】福島県二本松市太田荻ノ田３５番地１", "url2": "https://www.kaigokensaku.mhlw.go.jp/07/index.php?action_kouhyou_detail_004_kani=true&JigyosyoCd=0772100111-00&ServiceCd=210&Type=search" }, "geometry": { "type": "Point", "coordinates": [ 140.529452499999934, 37.5896285 ] } },
{ "type": "Feature", "properties": { "内容": "ハッピー愛ランドあだち短期入所生活介護【短期入所生活介護】福島県二本松市油井字下中ノ内33番地2", "url2": "https://www.kaigokensaku.mhlw.go.jp/07/index.php?action_kouhyou_detail_004_kani=true&JigyosyoCd=0771000627-00&ServiceCd=210&Type=search" }, "geometry": { "type": "Point", "coordinates": [ 140.467074599999933, 37.6111973 ] } },
{ "type": "Feature", "properties": { "内容": "地域密着型特別養護老人ホームハッピー愛ランドあだち【短期入所生活介護】二本松市油井字下中ノ内３３－２ハッピー愛ランドあだち", "url2": "https://www.kaigokensaku.mhlw.go.jp/07/index.php?action_kouhyou_detail_004_kani=true&JigyosyoCd=0771000635-00&ServiceCd=210&Type=search" }, "geometry": { "type": "Point", "coordinates": [ 140.467062, 37.6109745 ] } },
{ "type": "Feature", "properties": { "内容": "特別養護老人ホーム　みどりの郷【短期入所生活介護】福島県二本松市木幡字東和代65番１", "url2": "https://www.kaigokensaku.mhlw.go.jp/07/index.php?action_kouhyou_detail_004_kani=true&JigyosyoCd=0771000445-00&ServiceCd=210&Type=search" }, "geometry": { "type": "Point", "coordinates": [ 140.526748099999963, 37.6289464 ] } },
{ "type": "Feature", "properties": { "内容": "特別養護老人ホーム　うつくしの丘【短期入所生活介護】福島県二本松市上葉木坂２番地３", "url2": "https://www.kaigokensaku.mhlw.go.jp/07/index.php?action_kouhyou_detail_004_kani=true&JigyosyoCd=0771000213-00&ServiceCd=210&Type=search" }, "geometry": { "type": "Point", "coordinates": [ 140.373897, 37.6168112 ] } },
{ "type": "Feature", "properties": { "内容": "安達ヶ原あだたら荘【短期入所生活介護】福島県二本松市安達ヶ原一丁目２９１番地１", "url2": "https://www.kaigokensaku.mhlw.go.jp/07/index.php?action_kouhyou_detail_004_kani=true&JigyosyoCd=0771000064-00&ServiceCd=210&Type=search" }, "geometry": { "type": "Point", "coordinates": [ 140.459370900000067, 37.5852918 ] } },
{ "type": "Feature", "properties": { "内容": "特別養護老人ホームハッピー愛ランドたむら【短期入所生活介護】福島県田村市船引字椚山字池ノ辺1-1", "url2": "https://www.kaigokensaku.mhlw.go.jp/07/index.php?action_kouhyou_detail_004_kani=true&JigyosyoCd=0771100419-00&ServiceCd=210&Type=search" }, "geometry": { "type": "Point", "coordinates": [ 140.5889553, 37.4091954 ] } },
{ "type": "Feature", "properties": { "内容": "特別養護老人ホーム　ときわ荘【短期入所生活介護】福島県田村市常葉町常葉字長縄5番地1", "url2": "https://www.kaigokensaku.mhlw.go.jp/07/index.php?action_kouhyou_detail_004_kani=true&JigyosyoCd=0771100237-00&ServiceCd=210&Type=search" }, "geometry": { "type": "Point", "coordinates": [ 140.645019100000013, 37.4359983 ] } },
{ "type": "Feature", "properties": { "内容": "特別養護老人ホーム都路まどか荘【短期入所生活介護】福島県田村市都路町古道字寺下60番地都路まどか荘", "url2": "https://www.kaigokensaku.mhlw.go.jp/07/index.php?action_kouhyou_detail_004_kani=true&JigyosyoCd=0773100144-00&ServiceCd=210&Type=search" }, "geometry": { "type": "Point", "coordinates": [ 140.791416300000037, 37.434145 ] } },
{ "type": "Feature", "properties": { "内容": "特別養護老人ホーム船引こぶし荘【短期入所生活介護】福島県田村市船引町船引字源次郎131", "url2": "https://www.kaigokensaku.mhlw.go.jp/07/index.php?action_kouhyou_detail_004_kani=true&JigyosyoCd=0773100375-00&ServiceCd=210&Type=search" }, "geometry": { "type": "Point", "coordinates": [ 140.581930495631411, 37.453218944610306 ] } },
{ "type": "Feature", "properties": { "内容": "特別養護老人ホームショートステイ花音【短期入所生活介護】福島県田村市船引町船引字下大平105番地1", "url2": "https://www.kaigokensaku.mhlw.go.jp/07/index.php?action_kouhyou_detail_004_kani=true&JigyosyoCd=0771100302-00&ServiceCd=210&Type=search" }, "geometry": { "type": "Point", "coordinates": [ 140.570636635370306, 37.446516097490253 ] } },
{ "type": "Feature", "properties": { "内容": "特別養護老人ホームさくらの里【短期入所生活介護】福島県田村市滝根町菅谷字大子堂153番地25", "url2": "https://www.kaigokensaku.mhlw.go.jp/07/index.php?action_kouhyou_detail_004_kani=true&JigyosyoCd=0771100385-00&ServiceCd=210&Type=search" }, "geometry": { "type": "Point", "coordinates": [ 140.647580155680885, 37.353812466094745 ] } },
{ "type": "Feature", "properties": { "内容": "特別養護老人ホーム万葉園【短期入所生活介護】福島県南相馬市鹿島区西町三丁目3番地", "url2": "https://www.kaigokensaku.mhlw.go.jp/07/index.php?action_kouhyou_detail_004_kani=true&JigyosyoCd=0773300181-00&ServiceCd=210&Type=search" }, "geometry": { "type": "Point", "coordinates": [ 140.960342699999956, 37.7093258 ] } },
{ "type": "Feature", "properties": { "内容": "ショートステイさくらの園【短期入所生活介護】福島県南相馬市鹿島区寺内字鷹巣15", "url2": "https://www.kaigokensaku.mhlw.go.jp/07/index.php?action_kouhyou_detail_004_kani=true&JigyosyoCd=0781200027-00&ServiceCd=210&Type=search" }, "geometry": { "type": "Point", "coordinates": [ 140.944947655449369, 37.693390760268358 ] } },
{ "type": "Feature", "properties": { "内容": "特別養護老人ホーム梅の香【短期入所生活介護】福島県南相馬市小高区小高字金谷前81", "url2": "https://www.kaigokensaku.mhlw.go.jp/07/index.php?action_kouhyou_detail_004_kani=true&JigyosyoCd=0771200607-00&ServiceCd=210&Type=search" }, "geometry": { "type": "Point", "coordinates": [ 140.994661599999972, 37.56851 ] } },
{ "type": "Feature", "properties": { "内容": "特別養護老人ホーム　竹水園【短期入所生活介護】福島県南相馬市原町区長野字南原４１番", "url2": "https://www.kaigokensaku.mhlw.go.jp/07/index.php?action_kouhyou_detail_004_kani=true&JigyosyoCd=0771200227-00&ServiceCd=210&Type=search" }, "geometry": { "type": "Point", "coordinates": [ 140.942582300000026, 37.6516871 ] } },
{ "type": "Feature", "properties": { "内容": "特別養護老人ホーム長寿荘【短期入所生活介護】福島県南相馬市原町区小川町４０９番地", "url2": "https://www.kaigokensaku.mhlw.go.jp/07/index.php?action_kouhyou_detail_004_kani=true&JigyosyoCd=0770600153-00&ServiceCd=210&Type=search" }, "geometry": { "type": "Point", "coordinates": [ 140.960275200000069, 37.6486325 ] } },
{ "type": "Feature", "properties": { "内容": "特別養護老人ホーム福寿園【短期入所生活介護】福島県南相馬市原町区高見町２－７０", "url2": "https://www.kaigokensaku.mhlw.go.jp/07/index.php?action_kouhyou_detail_004_kani=true&JigyosyoCd=0770600120-00&ServiceCd=210&Type=search" }, "geometry": { "type": "Point", "coordinates": [ 140.984937299999956, 37.6358122 ] } },
{ "type": "Feature", "properties": { "内容": "特別養護老人ホーム万葉園【短期入所生活介護】福島県南相馬市鹿島区西町3-3", "url2": "https://www.kaigokensaku.mhlw.go.jp/07/index.php?action_kouhyou_detail_004_kani=true&JigyosyoCd=0771200474-00&ServiceCd=210&Type=search" }, "geometry": { "type": "Point", "coordinates": [ 140.958233, 37.7099838 ] } },
{ "type": "Feature", "properties": { "内容": "ハッピー愛ランドほばら・いずみ【短期入所生活介護】福島県伊達市保原町字泉町9-1", "url2": "https://www.kaigokensaku.mhlw.go.jp/07/index.php?action_kouhyou_detail_004_kani=true&JigyosyoCd=0771300779-00&ServiceCd=210&Type=search" }, "geometry": { "type": "Point", "coordinates": [ 140.5463928, 37.8243137 ] } },
{ "type": "Feature", "properties": { "内容": "地域密着型特別養護老人ホームとみのホーム【短期入所生活介護】福島県伊達市梁川町舟生字沢石20", "url2": "https://www.kaigokensaku.mhlw.go.jp/07/index.php?action_kouhyou_detail_004_kani=true&JigyosyoCd=0771300944-00&ServiceCd=210&Type=search" }, "geometry": { "type": "Point", "coordinates": [ 140.634921, 37.87801 ] } },
{ "type": "Feature", "properties": { "内容": "特別養護老人ホーム　ファミーユ指定短期入所生活介護事業所【短期入所生活介護】福島県伊達市保原町上保原字遍照原8-8", "url2": "https://www.kaigokensaku.mhlw.go.jp/07/index.php?action_kouhyou_detail_004_kani=true&JigyosyoCd=0772000956-00&ServiceCd=210&Type=search" }, "geometry": { "type": "Point", "coordinates": [ 140.533635600000025, 37.8050115 ] } },
{ "type": "Feature", "properties": { "内容": "ショートステイ　だて緑風園【短期入所生活介護】福島県伊達市馬場口36-1", "url2": "https://www.kaigokensaku.mhlw.go.jp/07/index.php?action_kouhyou_detail_004_kani=true&JigyosyoCd=0771300894-00&ServiceCd=210&Type=search" }, "geometry": { "type": "Point", "coordinates": [ 140.5021561, 37.822665 ] } },
{ "type": "Feature", "properties": { "内容": "特別養護老人ホーム孝の郷指定短期入所生活介護事業所【短期入所生活介護】福島県伊達市霊山町掛田字明正寺２１－１", "url2": "https://www.kaigokensaku.mhlw.go.jp/07/index.php?action_kouhyou_detail_004_kani=true&JigyosyoCd=0771300399-00&ServiceCd=210&Type=search" }, "geometry": { "type": "Point", "coordinates": [ 140.591793, 37.7777242 ] } },
{ "type": "Feature", "properties": { "内容": "梁川ホーム【短期入所生活介護】福島県伊達市梁川町字東土橋６５番地１", "url2": "https://www.kaigokensaku.mhlw.go.jp/07/index.php?action_kouhyou_detail_004_kani=true&JigyosyoCd=0772000550-00&ServiceCd=210&Type=search" }, "geometry": { "type": "Point", "coordinates": [ 140.593143599999962, 37.8466254 ] } },
{ "type": "Feature", "properties": { "内容": "ハッピー愛ランドほばら短期入所【短期入所生活介護】福島県伊達市保原町字泉町1番地１号", "url2": "https://www.kaigokensaku.mhlw.go.jp/07/index.php?action_kouhyou_detail_004_kani=true&JigyosyoCd=0771300597-00&ServiceCd=210&Type=search" }, "geometry": { "type": "Point", "coordinates": [ 140.546945400000027, 37.824918 ] } },
{ "type": "Feature", "properties": { "内容": "伊達すりかみ荘【短期入所生活介護】福島県伊達市一本松64番地", "url2": "https://www.kaigokensaku.mhlw.go.jp/07/index.php?action_kouhyou_detail_004_kani=true&JigyosyoCd=0772000634-00&ServiceCd=210&Type=search" }, "geometry": { "type": "Point", "coordinates": [ 140.491955400000052, 37.8135318 ] } },
{ "type": "Feature", "properties": { "内容": "特別養護老人ホームラスール伊達【短期入所生活介護】福島県伊達市梁川町字東塩野川56-1", "url2": "https://www.kaigokensaku.mhlw.go.jp/07/index.php?action_kouhyou_detail_004_kani=true&JigyosyoCd=0771300563-00&ServiceCd=210&Type=search" }, "geometry": { "type": "Point", "coordinates": [ 140.608174100000014, 37.8644549 ] } },
{ "type": "Feature", "properties": { "内容": "社会福祉法人慈仁会　老人短期入所事業所星風苑【短期入所生活介護】福島県伊達市月舘町御代田字月崎山１番７", "url2": "https://www.kaigokensaku.mhlw.go.jp/07/index.php?action_kouhyou_detail_004_kani=true&JigyosyoCd=0772001053-00&ServiceCd=210&Type=search" }, "geometry": { "type": "Point", "coordinates": [ 140.602713699999981, 37.7519246 ] } },
{ "type": "Feature", "properties": { "内容": "しらさわ有寿園短期入所事業所【短期入所生活介護】福島県本宮市和田字戸ノ内158番地３", "url2": "https://www.kaigokensaku.mhlw.go.jp/07/index.php?action_kouhyou_detail_004_kani=true&JigyosyoCd=0772100475-00&ServiceCd=210&Type=search" }, "geometry": { "type": "Point", "coordinates": [ 140.426786357672057, 37.518001328626831 ] } },
{ "type": "Feature", "properties": { "内容": "ぼたん荘【短期入所生活介護】福島県本宮市本宮字上千束3番地", "url2": "https://www.kaigokensaku.mhlw.go.jp/07/index.php?action_kouhyou_detail_004_kani=true&JigyosyoCd=0772100442-00&ServiceCd=210&Type=search" }, "geometry": { "type": "Point", "coordinates": [ 140.392382199999929, 37.5181612 ] } },
{ "type": "Feature", "properties": { "内容": "あつかし荘Ｓ．Ｓ【短期入所生活介護】福島県伊達郡桑折町大字北半田字一本木前5-2", "url2": "https://www.kaigokensaku.mhlw.go.jp/07/index.php?action_kouhyou_detail_004_kani=true&JigyosyoCd=0772000659-00&ServiceCd=210&Type=search" }, "geometry": { "type": "Point", "coordinates": [ 140.539141100000052, 37.8718068 ] } },
{ "type": "Feature", "properties": { "内容": "ショートステイ　コクーン【短期入所生活介護】福島県伊達郡桑折町字桑島四　9-4", "url2": "https://www.kaigokensaku.mhlw.go.jp/07/index.php?action_kouhyou_detail_004_kani=true&JigyosyoCd=0772001038-00&ServiceCd=210&Type=search" }, "geometry": { "type": "Point", "coordinates": [ 140.514780200000018, 37.844987 ] } },
{ "type": "Feature", "properties": { "内容": "短期入所生活介護事業所「国見の里」【短期入所生活介護】福島県伊達郡国見町小坂南3番地", "url2": "https://www.kaigokensaku.mhlw.go.jp/07/index.php?action_kouhyou_detail_004_kani=true&JigyosyoCd=0772001426-00&ServiceCd=210&Type=search" }, "geometry": { "type": "Point", "coordinates": [ 140.529386, 37.886002 ] } },
{ "type": "Feature", "properties": { "内容": "川俣ホーム【短期入所生活介護】福島県伊達郡川俣町大字鶴沢字川端２－１", "url2": "https://www.kaigokensaku.mhlw.go.jp/07/index.php?action_kouhyou_detail_004_kani=true&JigyosyoCd=0772000782-00&ServiceCd=210&Type=search" }, "geometry": { "type": "Point", "coordinates": [ 140.595710899999972, 37.6637164 ] } },
{ "type": "Feature", "properties": { "内容": "特別養護老人ホームはなづか【短期入所生活介護】福島県伊達郡川俣町字五百田20-1", "url2": "https://www.kaigokensaku.mhlw.go.jp/07/index.php?action_kouhyou_detail_004_kani=true&JigyosyoCd=0772001335-00&ServiceCd=210&Type=search" }, "geometry": { "type": "Point", "coordinates": [ 140.599116099999947, 37.6659941 ] } },
{ "type": "Feature", "properties": { "内容": "南東北シルクロード館【短期入所生活介護】福島県伊達郡川俣町大字鶴沢字池ノ上30-1", "url2": "https://www.kaigokensaku.mhlw.go.jp/07/index.php?action_kouhyou_detail_004_kani=true&JigyosyoCd=0772001004-00&ServiceCd=210&Type=search" }, "geometry": { "type": "Point", "coordinates": [ 140.574677, 37.6644111 ] } },
{ "type": "Feature", "properties": { "内容": "特別養護老人ホーム　陽だまりの里【短期入所生活介護】福島県安達郡大玉村玉井字台９番地１", "url2": "https://www.kaigokensaku.mhlw.go.jp/07/index.php?action_kouhyou_detail_004_kani=true&JigyosyoCd=0772100657-00&ServiceCd=210&Type=search" }, "geometry": { "type": "Point", "coordinates": [ 140.37052540000002, 37.5327644 ] } },
{ "type": "Feature", "properties": { "内容": "特別養護老人ホーム　牧場の朝【短期入所生活介護】福島県岩瀬郡鏡石町桜町２２５番地１５", "url2": "https://www.kaigokensaku.mhlw.go.jp/07/index.php?action_kouhyou_detail_004_kani=true&JigyosyoCd=0772200259-00&ServiceCd=210&Type=search" }, "geometry": { "type": "Point", "coordinates": [ 140.365065380302269, 37.254412770571037 ] } },
{ "type": "Feature", "properties": { "内容": "特別養護老人ホーム　　　鏡石ホーム【短期入所生活介護】福島県岩瀬郡鏡石町鏡田かげ沼町１３９番地の１", "url2": "https://www.kaigokensaku.mhlw.go.jp/07/index.php?action_kouhyou_detail_004_kani=true&JigyosyoCd=0772200119-00&ServiceCd=210&Type=search" }, "geometry": { "type": "Point", "coordinates": [ 140.346324200000026, 37.2684424 ] } },
{ "type": "Feature", "properties": { "内容": "特別養護老人ホーム　天栄ホーム【短期入所生活介護】福島県岩瀬郡天栄村大字飯豊字新田前21-1", "url2": "https://www.kaigokensaku.mhlw.go.jp/07/index.php?action_kouhyou_detail_004_kani=true&JigyosyoCd=0772200192-00&ServiceCd=210&Type=search" }, "geometry": { "type": "Point", "coordinates": [ 140.284403800000064, 37.2458998 ] } },
{ "type": "Feature", "properties": { "内容": "社会福祉法人明智福祉会特別養護老人ホーム　レジデンスふじの郷【短期入所生活介護】福島県南会津郡下郷町大字塩生字前原５０２－１", "url2": "https://www.kaigokensaku.mhlw.go.jp/07/index.php?action_kouhyou_detail_004_kani=true&JigyosyoCd=0772300695-00&ServiceCd=210&Type=search" }, "geometry": { "type": "Point", "coordinates": [ 139.867512300000044, 37.2526746 ] } },
{ "type": "Feature", "properties": { "内容": "社会福祉法人南会津会　下郷ホームショートステイ【短期入所生活介護】福島県南会津郡下郷町大字沢田字若林甲1572番地", "url2": "https://www.kaigokensaku.mhlw.go.jp/07/index.php?action_kouhyou_detail_004_kani=true&JigyosyoCd=0772300257-00&ServiceCd=210&Type=search" }, "geometry": { "type": "Point", "coordinates": [ 139.865901399999984, 37.2487223 ] } },
{ "type": "Feature", "properties": { "内容": "只見ホームショートステイ【短期入所生活介護】福島県南会津郡只見町大字長浜字久保田１番地", "url2": "https://www.kaigokensaku.mhlw.go.jp/07/index.php?action_kouhyou_detail_004_kani=true&JigyosyoCd=0772300406-00&ServiceCd=210&Type=search" }, "geometry": { "type": "Point", "coordinates": [ 139.376495, 37.3039067 ] } },
{ "type": "Feature", "properties": { "内容": "ショートステイ　優雅【短期入所生活介護】福島県南会津郡南会津町田島字北下原１１１番", "url2": "https://www.kaigokensaku.mhlw.go.jp/07/index.php?action_kouhyou_detail_004_kani=true&JigyosyoCd=0772300661-00&ServiceCd=210&Type=search" }, "geometry": { "type": "Point", "coordinates": [ 139.7880801, 37.2078332 ] } },
{ "type": "Feature", "properties": { "内容": "田島ホームショートステイ【短期入所生活介護】福島県南会津郡南会津町永田字風下３-１", "url2": "https://www.kaigokensaku.mhlw.go.jp/07/index.php?action_kouhyou_detail_004_kani=true&JigyosyoCd=0772300240-00&ServiceCd=210&Type=search" }, "geometry": { "type": "Point", "coordinates": [ 139.759997399999946, 37.2046494 ] } },
{ "type": "Feature", "properties": { "内容": "特別養護老人ホーム伊南ホーム【短期入所生活介護】福島県南会津郡南会津町古町字太子堂１８６－１", "url2": "https://www.kaigokensaku.mhlw.go.jp/07/index.php?action_kouhyou_detail_004_kani=true&JigyosyoCd=0772300265-00&ServiceCd=210&Type=search" }, "geometry": { "type": "Point", "coordinates": [ 139.5273929, 37.186105 ] } },
{ "type": "Feature", "properties": { "内容": "南郷ホームショートステイ【短期入所生活介護】福島県南会津郡南会津町片貝字中田97番地", "url2": "https://www.kaigokensaku.mhlw.go.jp/07/index.php?action_kouhyou_detail_004_kani=true&JigyosyoCd=0772300273-00&ServiceCd=210&Type=search" }, "geometry": { "type": "Point", "coordinates": [ 139.5299377, 37.27399 ] } },
{ "type": "Feature", "properties": { "内容": "さゆりの園ショートステイ指定短期入所生活介護事業所【短期入所生活介護】福島県耶麻郡西会津町登世島字田畑乙２０４２－７１", "url2": "https://www.kaigokensaku.mhlw.go.jp/07/index.php?action_kouhyou_detail_004_kani=true&JigyosyoCd=0772500146-00&ServiceCd=210&Type=search" }, "geometry": { "type": "Point", "coordinates": [ 139.6391949, 37.5970886 ] } },
{ "type": "Feature", "properties": { "内容": "いなわしろホーム指定短期入所生活介護事業所【短期入所生活介護】福島県耶麻郡猪苗代町大字三郷字寺南7962番地1", "url2": "https://www.kaigokensaku.mhlw.go.jp/07/index.php?action_kouhyou_detail_004_kani=true&JigyosyoCd=0772500187-00&ServiceCd=210&Type=search" }, "geometry": { "type": "Point", "coordinates": [ 140.1386344, 37.5633738 ] } },
{ "type": "Feature", "properties": { "内容": "特別養護老人ホーム　咲楽の里【短期入所生活介護】福島県耶麻郡猪苗代町字程塚2789番", "url2": "https://www.kaigokensaku.mhlw.go.jp/07/index.php?action_kouhyou_detail_004_kani=true&JigyosyoCd=0772500435-00&ServiceCd=210&Type=search" }, "geometry": { "type": "Point", "coordinates": [ 140.117344799999955, 37.5714449 ] } },
{ "type": "Feature", "properties": { "内容": "会津寿楽荘指定短期入所生活介護事業所【短期入所生活介護】福島県河沼郡会津坂下町大字塔寺字北原６４５", "url2": "https://www.kaigokensaku.mhlw.go.jp/07/index.php?action_kouhyou_detail_004_kani=true&JigyosyoCd=0772600078-00&ServiceCd=210&Type=search" }, "geometry": { "type": "Point", "coordinates": [ 139.800163600000019, 37.57832 ] } },
{ "type": "Feature", "properties": { "内容": "特別養護老人ホームラスール坂下【短期入所生活介護】福島県河沼郡会津坂下町上口488-1", "url2": "https://www.kaigokensaku.mhlw.go.jp/07/index.php?action_kouhyou_detail_004_kani=true&JigyosyoCd=0772600565-00&ServiceCd=210&Type=search" }, "geometry": { "type": "Point", "coordinates": [ 139.827414099999942, 37.5648029 ] } },
{ "type": "Feature", "properties": { "内容": "特別養護老人ホームいちょうの木【短期入所生活介護】福島県河沼郡湯川村大字佐野目字佐野北43", "url2": "https://www.kaigokensaku.mhlw.go.jp/07/index.php?action_kouhyou_detail_004_kani=true&JigyosyoCd=0772600516-00&ServiceCd=210&Type=search" }, "geometry": { "type": "Point", "coordinates": [ 139.866107933204603, 37.553779861570334 ] } },
{ "type": "Feature", "properties": { "内容": "特別養護老人ホーム　福柳苑【短期入所生活介護】福島県河沼郡柳津町大字飯谷字前林甲370", "url2": "https://www.kaigokensaku.mhlw.go.jp/07/index.php?action_kouhyou_detail_004_kani=true&JigyosyoCd=0772600326-00&ServiceCd=210&Type=search" }, "geometry": { "type": "Point", "coordinates": [ 139.710665799999987, 37.522468 ] } },
{ "type": "Feature", "properties": { "内容": "桐寿苑ショートステイ【短期入所生活介護】福島県大沼郡三島町大字宮下字坂ノ下６５９番地", "url2": "https://www.kaigokensaku.mhlw.go.jp/07/index.php?action_kouhyou_detail_004_kani=true&JigyosyoCd=0772700324-00&ServiceCd=210&Type=search" }, "geometry": { "type": "Point", "coordinates": [ 139.64601289999996, 37.4736462 ] } },
{ "type": "Feature", "properties": { "内容": "かねやまホーム短期入所生活介護事業所【短期入所生活介護】福島県大沼郡金山町大字中川字沖根原1324番地", "url2": "https://www.kaigokensaku.mhlw.go.jp/07/index.php?action_kouhyou_detail_004_kani=true&JigyosyoCd=0772700415-00&ServiceCd=210&Type=search" }, "geometry": { "type": "Point", "coordinates": [ 139.529466, 37.4745462 ] } },
{ "type": "Feature", "properties": { "内容": "特別養護老人ホーム昭和ホーム【短期入所生活介護】福島県大沼郡昭和村大字小中津川字石仏１９３０番地", "url2": "https://www.kaigokensaku.mhlw.go.jp/07/index.php?action_kouhyou_detail_004_kani=true&JigyosyoCd=0772700431-00&ServiceCd=210&Type=search" }, "geometry": { "type": "Point", "coordinates": [ 139.6192982, 37.331417200000018 ] } },
{ "type": "Feature", "properties": { "内容": "にいつるホーム短期入所生活介護【短期入所生活介護】福島県大沼郡会津美里町新屋敷字上深田甲１５０２番地", "url2": "https://www.kaigokensaku.mhlw.go.jp/07/index.php?action_kouhyou_detail_004_kani=true&JigyosyoCd=0772700423-00&ServiceCd=210&Type=search" }, "geometry": { "type": "Point", "coordinates": [ 139.8293041, 37.5188018 ] } },
{ "type": "Feature", "properties": { "内容": "特別養護老人ホームリアンヴェール美里【短期入所生活介護】福島県大沼郡会津美里町荻窪字上野１８６番１", "url2": "https://www.kaigokensaku.mhlw.go.jp/07/index.php?action_kouhyou_detail_004_kani=true&JigyosyoCd=0772700563-00&ServiceCd=210&Type=search" }, "geometry": { "type": "Point", "coordinates": [ 139.8098033, 37.4509733 ] } },
{ "type": "Feature", "properties": { "内容": "特別養護老人ホーム宮川荘【短期入所生活介護】福島県大沼郡会津美里町字高田道上2969-1", "url2": "https://www.kaigokensaku.mhlw.go.jp/07/index.php?action_kouhyou_detail_004_kani=true&JigyosyoCd=0772700241-00&ServiceCd=210&Type=search" }, "geometry": { "type": "Point", "coordinates": [ 139.8480548, 37.4675336 ] } },
{ "type": "Feature", "properties": { "内容": "特別養護老人ホーム　ハーモニーハウス【短期入所生活介護】福島県大沼郡会津美里町大石字下川原１番地１", "url2": "https://www.kaigokensaku.mhlw.go.jp/07/index.php?action_kouhyou_detail_004_kani=true&JigyosyoCd=0772700373-00&ServiceCd=210&Type=search" }, "geometry": { "type": "Point", "coordinates": [ 139.904747600000064, 37.4414412 ] } },
{ "type": "Feature", "properties": { "内容": "福島県やまぶき荘【短期入所生活介護】福島県西白河郡西郷村大字小田倉字上野原452-1", "url2": "https://www.kaigokensaku.mhlw.go.jp/07/index.php?action_kouhyou_detail_004_kani=true&JigyosyoCd=0772800355-00&ServiceCd=210&Type=search" }, "geometry": { "type": "Point", "coordinates": [ 140.1488798, 37.118264 ] } },
{ "type": "Feature", "properties": { "内容": "福島県さつき荘【短期入所生活介護】福島県西白河郡西郷村大字真船字芝原３４１－６", "url2": "https://www.kaigokensaku.mhlw.go.jp/07/index.php?action_kouhyou_detail_004_kani=true&JigyosyoCd=0772800363-00&ServiceCd=210&Type=search" }, "geometry": { "type": "Point", "coordinates": [ 140.1214872, 37.135521 ] } },
{ "type": "Feature", "properties": { "内容": "特別養護老人ホーム　リアンヴェール西郷【短期入所生活介護】福島県西白河郡西郷村大字小田倉字小田倉原1-134", "url2": "https://www.kaigokensaku.mhlw.go.jp/07/index.php?action_kouhyou_detail_004_kani=true&JigyosyoCd=0772801130-00&ServiceCd=210&Type=search" }, "geometry": { "type": "Point", "coordinates": [ 140.165214364989765, 37.124451530936682 ] } },
{ "type": "Feature", "properties": { "内容": "地域密着型特別養護老人ホームさつきの郷【短期入所生活介護】福島県西白河郡大字泉崎字笹立山7-1", "url2": "https://www.kaigokensaku.mhlw.go.jp/07/index.php?action_kouhyou_detail_004_kani=true&JigyosyoCd=0772801007-00&ServiceCd=210&Type=search" }, "geometry": { "type": "Point", "coordinates": [ 140.313966, 37.157391 ] } },
{ "type": "Feature", "properties": { "内容": "特別養護老人ホーム　ケアハウス泉崎【短期入所生活介護】福島県西白河郡泉崎村大字太田川字金山34番地", "url2": "https://www.kaigokensaku.mhlw.go.jp/07/index.php?action_kouhyou_detail_004_kani=true&JigyosyoCd=0772800165-00&ServiceCd=210&Type=search" }, "geometry": { "type": "Point", "coordinates": [ 140.265773, 37.179121100000039 ] } },
{ "type": "Feature", "properties": { "内容": "ショートステイひかりの里【短期入所生活介護】福島県西白河郡中島村大字滑津字宿裏１０番地１", "url2": "https://www.kaigokensaku.mhlw.go.jp/07/index.php?action_kouhyou_detail_004_kani=true&JigyosyoCd=0772800934-00&ServiceCd=210&Type=search" }, "geometry": { "type": "Point", "coordinates": [ 140.361430599999949, 37.1533367 ] } },
{ "type": "Feature", "properties": { "内容": "特別養護老人ホーム寿光園【短期入所生活介護】福島県西白河郡矢吹町滝八幡159番地2", "url2": "https://www.kaigokensaku.mhlw.go.jp/07/index.php?action_kouhyou_detail_004_kani=true&JigyosyoCd=0772800058-00&ServiceCd=210&Type=search" }, "geometry": { "type": "Point", "coordinates": [ 140.31903740000007, 37.2143592 ] } },
{ "type": "Feature", "properties": { "内容": "特別養護老人ホーム　エルピスやぶきショートステイ【短期入所生活介護】福島県西白河郡矢吹町一本木140番地1", "url2": "https://www.kaigokensaku.mhlw.go.jp/07/index.php?action_kouhyou_detail_004_kani=true&JigyosyoCd=0772801080-00&ServiceCd=210&Type=search" }, "geometry": { "type": "Point", "coordinates": [ 140.341826171723852, 37.202800706683107 ] } },
{ "type": "Feature", "properties": { "内容": "ショートステイほたるの里【短期入所生活介護】福島県東白川郡棚倉町大字関口字豊郷103", "url2": "https://www.kaigokensaku.mhlw.go.jp/07/index.php?action_kouhyou_detail_004_kani=true&JigyosyoCd=0772900411-00&ServiceCd=210&Type=search" }, "geometry": { "type": "Point", "coordinates": [ 140.393786200000022, 37.023937 ] } },
{ "type": "Feature", "properties": { "内容": "寿恵園(短期入所生活介護サービス）【短期入所生活介護】福島県東白川郡棚倉町大字棚倉字舘ヶ丘７９番地", "url2": "https://www.kaigokensaku.mhlw.go.jp/07/index.php?action_kouhyou_detail_004_kani=true&JigyosyoCd=0772900080-00&ServiceCd=210&Type=search" }, "geometry": { "type": "Point", "coordinates": [ 140.376423899999963, 37.0222757 ] } },
{ "type": "Feature", "properties": { "内容": "特別養護老人ホーム　藤井ハイム矢祭【短期入所生活介護】福島県東白川郡矢祭町大字東舘字柳町５２番地", "url2": "https://www.kaigokensaku.mhlw.go.jp/07/index.php?action_kouhyou_detail_004_kani=true&JigyosyoCd=0772900312-00&ServiceCd=210&Type=search" }, "geometry": { "type": "Point", "coordinates": [ 140.42048049999994, 36.8746689 ] } },
{ "type": "Feature", "properties": { "内容": "ユーアイホームショートステイ【短期入所生活介護】福島県東白川郡矢祭町大字東舘字蔵屋敷122", "url2": "https://www.kaigokensaku.mhlw.go.jp/07/index.php?action_kouhyou_detail_004_kani=true&JigyosyoCd=0772900072-00&ServiceCd=210&Type=search" }, "geometry": { "type": "Point", "coordinates": [ 140.41887250000002, 36.8704804 ] } },
{ "type": "Feature", "properties": { "内容": "特別養護老人ホーム藤井ハイムはなわ【短期入所生活介護】福島県東白川郡塙町大字伊香字中妻２４１番地１", "url2": "https://www.kaigokensaku.mhlw.go.jp/07/index.php?action_kouhyou_detail_004_kani=true&JigyosyoCd=0772900320-00&ServiceCd=210&Type=search" }, "geometry": { "type": "Point", "coordinates": [ 140.4012272, 36.9401307 ] } },
{ "type": "Feature", "properties": { "内容": "鮫川村介護事業所「ひだまり荘」【短期入所生活介護】福島県東白川郡鮫川村大字赤坂中野字宿ノ入35", "url2": "https://www.kaigokensaku.mhlw.go.jp/07/index.php?action_kouhyou_detail_004_kani=true&JigyosyoCd=0782900013-00&ServiceCd=210&Type=search" }, "geometry": { "type": "Point", "coordinates": [ 140.4989337, 37.0438107 ] } },
{ "type": "Feature", "properties": { "内容": "特別養護老人ホームさめがわ【短期入所生活介護】福島県東白川郡鮫川村西山字水口31番地", "url2": "https://www.kaigokensaku.mhlw.go.jp/07/index.php?action_kouhyou_detail_004_kani=true&JigyosyoCd=0772900338-00&ServiceCd=210&Type=search" }, "geometry": { "type": "Point", "coordinates": [ 140.4834888, 37.0694346 ] } },
{ "type": "Feature", "properties": { "内容": "特別養護老人ホーム「さくら荘」【短期入所生活介護】福島県石川郡石川町大字南山形字中野沢５４", "url2": "https://www.kaigokensaku.mhlw.go.jp/07/index.php?action_kouhyou_detail_004_kani=true&JigyosyoCd=0773000237-00&ServiceCd=210&Type=search" }, "geometry": { "type": "Point", "coordinates": [ 140.4689674, 37.1157561 ] } },
{ "type": "Feature", "properties": { "内容": "特別養護老人ホームたまかわ荘【短期入所生活介護】福島県石川郡玉川村大字中字入山59", "url2": "https://www.kaigokensaku.mhlw.go.jp/07/index.php?action_kouhyou_detail_004_kani=true&JigyosyoCd=0773000310-00&ServiceCd=210&Type=search" }, "geometry": { "type": "Point", "coordinates": [ 140.410838099999978, 37.2160052 ] } },
{ "type": "Feature", "properties": { "内容": "特別養護老人ホームよもぎ荘【短期入所生活介護】福島県石川郡平田村大字永田字広町３１番地", "url2": "https://www.kaigokensaku.mhlw.go.jp/07/index.php?action_kouhyou_detail_004_kani=true&JigyosyoCd=0773000286-00&ServiceCd=210&Type=search" }, "geometry": { "type": "Point", "coordinates": [ 140.569965799999977, 37.2170275 ] } },
{ "type": "Feature", "properties": { "内容": "特別養護老人ホームさぎそう【短期入所生活介護】福島県石川郡浅川町大字浅川字背戸谷地１７７－６", "url2": "https://www.kaigokensaku.mhlw.go.jp/07/index.php?action_kouhyou_detail_004_kani=true&JigyosyoCd=0773000187-00&ServiceCd=210&Type=search" }, "geometry": { "type": "Point", "coordinates": [ 140.405357500000036, 37.0797502 ] } },
{ "type": "Feature", "properties": { "内容": "特別養護老人ホームふるどの荘【短期入所生活介護】福島県石川郡古殿町大字松川字林４－１", "url2": "https://www.kaigokensaku.mhlw.go.jp/07/index.php?action_kouhyou_detail_004_kani=true&JigyosyoCd=0773000393-00&ServiceCd=210&Type=search" }, "geometry": { "type": "Point", "coordinates": [ 140.551321499999972, 37.0902089 ] } },
{ "type": "Feature", "properties": { "内容": "特別養護老人ホームあぶくま荘【短期入所生活介護】福島県田村郡三春町字六升蒔６８番地", "url2": "https://www.kaigokensaku.mhlw.go.jp/07/index.php?action_kouhyou_detail_004_kani=true&JigyosyoCd=0773100128-00&ServiceCd=210&Type=search" }, "geometry": { "type": "Point", "coordinates": [ 140.494495799999982, 37.4468802 ] } },
{ "type": "Feature", "properties": { "内容": "特別養護老人ホーム　さくら【短期入所生活介護】福島県田村郡小野町大字小野新町字団子田36番地1", "url2": "https://www.kaigokensaku.mhlw.go.jp/07/index.php?action_kouhyou_detail_004_kani=true&JigyosyoCd=0773100771-00&ServiceCd=210&Type=search" }, "geometry": { "type": "Point", "coordinates": [ 140.634404099999983, 37.2857425 ] } },
{ "type": "Feature", "properties": { "内容": "特別養護老人ホームこまち荘【短期入所生活介護】福島県田村郡小野町大字小野新町字美売57番地", "url2": "https://www.kaigokensaku.mhlw.go.jp/07/index.php?action_kouhyou_detail_004_kani=true&JigyosyoCd=0773100086-00&ServiceCd=210&Type=search" }, "geometry": { "type": "Point", "coordinates": [ 140.618383399999971, 37.2924857 ] } },
{ "type": "Feature", "properties": { "内容": "リリー園【短期入所生活介護】福島県双葉郡楢葉町大字井出字上ノ原２８番地", "url2": "https://www.kaigokensaku.mhlw.go.jp/07/index.php?action_kouhyou_detail_004_kani=true&JigyosyoCd=0773200522-00&ServiceCd=210&Type=search" }, "geometry": { "type": "Point", "coordinates": [ 141.013210100000038, 37.2717729 ] } },
{ "type": "Feature", "properties": { "内容": "特別養護老人ホーム桜の園【短期入所生活介護】福島県双葉郡富岡町大字本岡字王塚36", "url2": "https://www.kaigokensaku.mhlw.go.jp/07/index.php?action_kouhyou_detail_004_kani=true&JigyosyoCd=0773200902-00&ServiceCd=210&Type=search" }, "geometry": { "type": "Point", "coordinates": [ 140.99582430000001, 37.3542677 ] } },
{ "type": "Feature", "properties": { "内容": "特別養護老人ホームかわうち【短期入所生活介護】福島県双葉郡川内村上川内字迎原78番地", "url2": "https://www.kaigokensaku.mhlw.go.jp/07/index.php?action_kouhyou_detail_004_kani=true&JigyosyoCd=0773200845-00&ServiceCd=210&Type=search" }, "geometry": { "type": "Point", "coordinates": [ 140.7926546, 37.3542408 ] } },
{ "type": "Feature", "properties": { "内容": "特別養護老人ホーム新地ホーム【短期入所生活介護】福島県相馬郡新地町小川字川向１８", "url2": "https://www.kaigokensaku.mhlw.go.jp/07/index.php?action_kouhyou_detail_004_kani=true&JigyosyoCd=0773300066-00&ServiceCd=210&Type=search" }, "geometry": { "type": "Point", "coordinates": [ 140.9177502, 37.8637108 ] } },
{ "type": "Feature", "properties": { "内容": "特別養護老人ホーム　なごみの里福田【短期入所生活介護】福島県相馬郡新地町大字福田字清水175番地", "url2": "https://www.kaigokensaku.mhlw.go.jp/07/index.php?action_kouhyou_detail_004_kani=true&JigyosyoCd=0773300322-00&ServiceCd=210&Type=search" }, "geometry": { "type": "Point", "coordinates": [ 140.898358899999948, 37.8898438 ] } }
]
}
