{
"type": "FeatureCollection",
"name": "geo_07_訪問看護",
"crs": { "type": "name", "properties": { "name": "urn:ogc:def:crs:OGC:1.3:CRS84" } },
"features": [
{ "type": "Feature", "properties": { "内容": "訪問看護ステーション　明日の樹【訪問看護】福島市南矢野目字中江10-12", "url": "https://www.kaigokensaku.mhlw.go.jp/07/index.php?action_kouhyou_detail_004_kani=true&JigyosyoCd=0770105781-00&ServiceCd=130&Type=search", "url2": null }, "geometry": { "type": "Point", "coordinates": [ 140.4541491, 37.7870031 ] } },
{ "type": "Feature", "properties": { "内容": "福島赤十字訪問看護ステーション【訪問看護】福島県福島市八島町７－７", "url": "https://www.kaigokensaku.mhlw.go.jp/07/index.php?action_kouhyou_detail_004_kani=true&JigyosyoCd=0760190140-00&ServiceCd=130&Type=search", "url2": "http://www.fukushima-med-jrc.jp/" }, "geometry": { "type": "Point", "coordinates": [ 140.483999056375097, 37.76905313282176 ] } },
{ "type": "Feature", "properties": { "内容": "ニチイケアセンター鎌田　訪問看護ステーション【訪問看護】福島市丸子字町頭14-1", "url": "https://www.kaigokensaku.mhlw.go.jp/07/index.php?action_kouhyou_detail_004_kani=true&JigyosyoCd=0760190264-00&ServiceCd=130&Type=search", "url2": "hstA65＠nichiigakkan.co.jp" }, "geometry": { "type": "Point", "coordinates": [ 140.476552099999907, 37.7852287 ] } },
{ "type": "Feature", "properties": { "内容": "セントケア訪問看護ステーション福島中央【訪問看護】太田町31-9Fテナント", "url": "https://www.kaigokensaku.mhlw.go.jp/07/index.php?action_kouhyou_detail_004_kani=true&JigyosyoCd=0760190397-00&ServiceCd=130&Type=search", "url2": "https://www.saint-care.com/tohokumiyagi/" }, "geometry": { "type": "Point", "coordinates": [ 139.18385090000001, 36.3231742 ] } },
{ "type": "Feature", "properties": { "内容": "訪問看護ステーション　デューン福島【訪問看護】福島県福島市松木町9番11号松木町共栄ビル5階", "url": "https://www.kaigokensaku.mhlw.go.jp/07/index.php?action_kouhyou_detail_004_kani=true&JigyosyoCd=0770105534-00&ServiceCd=130&Type=search", "url2": null }, "geometry": { "type": "Point", "coordinates": [ 140.472500599999989, 37.7602782 ] } },
{ "type": "Feature", "properties": { "内容": "エルダーランド訪問看護ステーション【訪問看護】福島県福島市吉倉字谷地36-1エルダーランド地域包括ケアステーション", "url": "https://www.kaigokensaku.mhlw.go.jp/07/index.php?action_kouhyou_detail_004_kani=true&JigyosyoCd=0760190173-00&ServiceCd=130&Type=search", "url2": null }, "geometry": { "type": "Point", "coordinates": [ 140.4455002, 37.743074900000018 ] } },
{ "type": "Feature", "properties": { "内容": "大原訪問看護ステーション【訪問看護】福島県福島市鎌田字中江33", "url": "https://www.kaigokensaku.mhlw.go.jp/07/index.php?action_kouhyou_detail_004_kani=true&JigyosyoCd=0760190066-00&ServiceCd=130&Type=search", "url2": "http://www.ohara-hp.or.jp" }, "geometry": { "type": "Point", "coordinates": [ 140.477534833948823, 37.796552670889 ] } },
{ "type": "Feature", "properties": { "内容": "訪問看護ステーションあゆみ【訪問看護】福島県福島市在庭坂字松原１１番地の５２", "url": "https://www.kaigokensaku.mhlw.go.jp/07/index.php?action_kouhyou_detail_004_kani=true&JigyosyoCd=0760190280-00&ServiceCd=130&Type=search", "url2": null }, "geometry": { "type": "Point", "coordinates": [ 140.3607044, 37.7641168 ] } },
{ "type": "Feature", "properties": { "内容": "はなまる訪問看護ステーション【訪問看護】福島県福島市五老内町8-1五老内大内ビル101", "url": "https://www.kaigokensaku.mhlw.go.jp/07/index.php?action_kouhyou_detail_004_kani=true&JigyosyoCd=0760190413-00&ServiceCd=130&Type=search", "url2": "https://hanamaru-houmon.jp" }, "geometry": { "type": "Point", "coordinates": [ 140.4754474, 37.759497 ] } },
{ "type": "Feature", "properties": { "内容": "ソフィア訪問看護ステーション福島【訪問看護】福島県福島市方木田字北白家１０番地１リバーハイツ方木田Ｂー１０７", "url": "https://www.kaigokensaku.mhlw.go.jp/07/index.php?action_kouhyou_detail_004_kani=true&JigyosyoCd=0760190470-00&ServiceCd=130&Type=search", "url2": "https://www.sophiahoukan.net/" }, "geometry": { "type": "Point", "coordinates": [ 140.452592993254086, 37.746332929706739 ] } },
{ "type": "Feature", "properties": { "内容": "かかりつけ訪問看護リハビリステーションnanairo【訪問看護】福島県福島市松山町５５－１ファミール松山A303", "url": "https://www.kaigokensaku.mhlw.go.jp/07/index.php?action_kouhyou_detail_004_kani=true&JigyosyoCd=0760190421-00&ServiceCd=130&Type=search", "url2": null }, "geometry": { "type": "Point", "coordinates": [ 140.4837994, 37.7745574 ] } },
{ "type": "Feature", "properties": { "内容": "済生会福島訪問看護ステーション【訪問看護】福島県福島市大森字下原田　２５番地", "url": "https://www.kaigokensaku.mhlw.go.jp/07/index.php?action_kouhyou_detail_004_kani=true&JigyosyoCd=0760190090-00&ServiceCd=130&Type=search", "url2": "http://www.saisei.ecnet.jp/" }, "geometry": { "type": "Point", "coordinates": [ 140.444546299999956, 37.7235458 ] } },
{ "type": "Feature", "properties": { "内容": "しあわせ訪問看護リハビリステーション丸子【訪問看護】福島県福島市丸子字富塚34-62F　A号", "url": "https://www.kaigokensaku.mhlw.go.jp/07/index.php?action_kouhyou_detail_004_kani=true&JigyosyoCd=0760190330-00&ServiceCd=130&Type=search", "url2": null }, "geometry": { "type": "Point", "coordinates": [ 140.47118135092623, 37.784959193798734 ] } },
{ "type": "Feature", "properties": { "内容": "指定訪問看護アットリハ笹谷【訪問看護】福島県福島市笹谷中條17番3ケアホスピス笹谷", "url": "https://www.kaigokensaku.mhlw.go.jp/07/index.php?action_kouhyou_detail_004_kani=true&JigyosyoCd=0760190447-00&ServiceCd=130&Type=search", "url2": "https://reha.at-care.co.jp/" }, "geometry": { "type": "Point", "coordinates": [ 140.4285008, 37.7901575 ] } },
{ "type": "Feature", "properties": { "内容": "訪問看護ステーションしみず【訪問看護】福島県福島市北沢又字番匠田５", "url": "https://www.kaigokensaku.mhlw.go.jp/07/index.php?action_kouhyou_detail_004_kani=true&JigyosyoCd=0760190033-00&ServiceCd=130&Type=search", "url2": "http://www.kirari-hcoop.com/" }, "geometry": { "type": "Point", "coordinates": [ 140.434064949718021, 37.785356551485229 ] } },
{ "type": "Feature", "properties": { "内容": "医心館訪問看護ステーション福島【訪問看護】福島県福島市野田町5丁目1番37号", "url": "https://www.kaigokensaku.mhlw.go.jp/07/index.php?action_kouhyou_detail_004_kani=true&JigyosyoCd=0770106003-00&ServiceCd=130&Type=search", "url2": null }, "geometry": { "type": "Point", "coordinates": [ 140.4470244, 37.7574926 ] } },
{ "type": "Feature", "properties": { "内容": "池田医院【訪問看護】福島県福島市飯坂町字若葉町5番地1", "url": "https://www.kaigokensaku.mhlw.go.jp/07/index.php?action_kouhyou_detail_004_kani=true&JigyosyoCd=0710117896-00&ServiceCd=130&Type=search", "url2": "http://www.ikedaiin-iizaka.com" }, "geometry": { "type": "Point", "coordinates": [ 140.453943500000037, 37.832486799999984 ] } },
{ "type": "Feature", "properties": { "内容": "訪問看護ステーション回生【訪問看護】福島県福島市大森字高畑31-1", "url": "https://www.kaigokensaku.mhlw.go.jp/07/index.php?action_kouhyou_detail_004_kani=true&JigyosyoCd=0760190108-00&ServiceCd=130&Type=search", "url2": "hoyukai0@crest.ocn.nejp" }, "geometry": { "type": "Point", "coordinates": [ 140.433315399999969, 37.7586273 ] } },
{ "type": "Feature", "properties": { "内容": "訪問看護ステーションささや【訪問看護】福島県福島市北沢又字成出16番地の2", "url": "https://www.kaigokensaku.mhlw.go.jp/07/index.php?action_kouhyou_detail_004_kani=true&JigyosyoCd=0760190165-00&ServiceCd=130&Type=search", "url2": "http://www.daiichihosp.jp/houmon/" }, "geometry": { "type": "Point", "coordinates": [ 140.437583681303522, 37.786271746239215 ] } },
{ "type": "Feature", "properties": { "内容": "ロング・ライフ訪問看護ステーション【訪問看護】福島県福島市吉倉字谷地７３番地の１", "url": "https://www.kaigokensaku.mhlw.go.jp/07/index.php?action_kouhyou_detail_004_kani=true&JigyosyoCd=0760190249-00&ServiceCd=130&Type=search", "url2": "http://www.life-time-fukushima.jp/" }, "geometry": { "type": "Point", "coordinates": [ 140.444852404545117, 37.741395017189639 ] } },
{ "type": "Feature", "properties": { "内容": "訪問看護ステーション　ゆとり【訪問看護】福島県福島市清明町1番10号サンファスト福島", "url": "https://www.kaigokensaku.mhlw.go.jp/07/index.php?action_kouhyou_detail_004_kani=true&JigyosyoCd=0760190256-00&ServiceCd=130&Type=search", "url2": "http://care-net.biz/07/puipui/" }, "geometry": { "type": "Point", "coordinates": [ 140.4612492, 37.7470183 ] } },
{ "type": "Feature", "properties": { "内容": "南東北福島　訪問看護ステーション　結【訪問看護】福島県福島市南沢又字曲堀東２３－２", "url": "https://www.kaigokensaku.mhlw.go.jp/07/index.php?action_kouhyou_detail_004_kani=true&JigyosyoCd=0760190199-00&ServiceCd=130&Type=search", "url2": "http://www.minamitohoku.or.jp/" }, "geometry": { "type": "Point", "coordinates": [ 140.439320341142235, 37.772811648073251 ] } },
{ "type": "Feature", "properties": { "内容": "訪問看護ステーションたゆたふ【訪問看護】福島県福島市森合字屋敷中15-8", "url": "https://www.kaigokensaku.mhlw.go.jp/07/index.php?action_kouhyou_detail_004_kani=true&JigyosyoCd=0770105476-00&ServiceCd=130&Type=search", "url2": "http://www.maru-kita.co.jp/" }, "geometry": { "type": "Point", "coordinates": [ 140.456007799999952, 37.764551 ] } },
{ "type": "Feature", "properties": { "内容": "ヘルパーステーションくるみ【訪問看護】福島県福島市永井川字壇ノ腰2-2F・フェアリー105", "url": "https://www.kaigokensaku.mhlw.go.jp/07/index.php?action_kouhyou_detail_004_kani=true&JigyosyoCd=0770105807-00&ServiceCd=130&Type=search", "url2": null }, "geometry": { "type": "Point", "coordinates": [ 140.4564723, 37.7246124 ] } },
{ "type": "Feature", "properties": { "内容": "ふくしま在宅緩和ケアクリニック【訪問看護】福島県福島市郷野目字宝来町21-3", "url": "https://www.kaigokensaku.mhlw.go.jp/07/index.php?action_kouhyou_detail_004_kani=true&JigyosyoCd=0710117458-00&ServiceCd=130&Type=search", "url2": "https://soshukai.jp/" }, "geometry": { "type": "Point", "coordinates": [ 140.4613271, 37.7394852 ] } },
{ "type": "Feature", "properties": { "内容": "ひまわり訪問看護ステーション【訪問看護】福島県福島市大森字柳下10番地の1", "url": "https://www.kaigokensaku.mhlw.go.jp/07/index.php?action_kouhyou_detail_004_kani=true&JigyosyoCd=0760190074-00&ServiceCd=130&Type=search", "url2": "http://www.azumanh.or.jp" }, "geometry": { "type": "Point", "coordinates": [ 140.4446177, 37.7381442 ] } },
{ "type": "Feature", "properties": { "内容": "訪問看護ステーションすかわ【訪問看護】福島県福島市野田町１丁目１３－５８", "url": "https://www.kaigokensaku.mhlw.go.jp/07/index.php?action_kouhyou_detail_004_kani=true&JigyosyoCd=0760190082-00&ServiceCd=130&Type=search", "url2": "http://www．kirari-hcoop.com" }, "geometry": { "type": "Point", "coordinates": [ 140.449536099999932, 37.7547672 ] } },
{ "type": "Feature", "properties": { "内容": "福島医療生協　訪問看護ほほえみステーション【訪問看護】福島県福島市渡利字中江町40-1サービス付き高齢者向け住宅ひだまり", "url": "https://www.kaigokensaku.mhlw.go.jp/07/index.php?action_kouhyou_detail_004_kani=true&JigyosyoCd=0760190181-00&ServiceCd=130&Type=search", "url2": null }, "geometry": { "type": "Point", "coordinates": [ 140.4434076, 37.7936575 ] } },
{ "type": "Feature", "properties": { "内容": "リブレ松川訪問看護リハビリステーション【訪問看護】福島県福島市松川町美郷4－13－8", "url": "https://www.kaigokensaku.mhlw.go.jp/07/index.php?action_kouhyou_detail_004_kani=true&JigyosyoCd=0770105575-00&ServiceCd=130&Type=search", "url2": "http://www.libre-lifesupport.jp/" }, "geometry": { "type": "Point", "coordinates": [ 140.4728719, 37.6657277 ] } },
{ "type": "Feature", "properties": { "内容": "訪問看護ステーション　南東北福島【訪問看護】福島県福島市荒井北３丁目１－１３", "url": "https://www.kaigokensaku.mhlw.go.jp/07/index.php?action_kouhyou_detail_004_kani=true&JigyosyoCd=0760190322-00&ServiceCd=130&Type=search", "url2": "https://www.f-str.jp/homecareStation.html" }, "geometry": { "type": "Point", "coordinates": [ 140.386986127508521, 37.725865153901566 ] } },
{ "type": "Feature", "properties": { "内容": "しゃくなげ訪問看護ステーション【訪問看護】福島県福島市渡利字七社宮111番地福島県総合社会福祉センター　1F", "url": "https://www.kaigokensaku.mhlw.go.jp/07/index.php?action_kouhyou_detail_004_kani=true&JigyosyoCd=0760190017-00&ServiceCd=130&Type=search", "url2": "https://www.fna.or.jp" }, "geometry": { "type": "Point", "coordinates": [ 140.474478800000043, 37.7490099 ] } },
{ "type": "Feature", "properties": { "内容": "ハッピー愛ランド訪問看護ステーション【訪問看護】福島県福島市南矢野目字才ノ後6-2", "url": "https://www.kaigokensaku.mhlw.go.jp/07/index.php?action_kouhyou_detail_004_kani=true&JigyosyoCd=0760190207-00&ServiceCd=130&Type=search", "url2": "http://www.happyisland.org/" }, "geometry": { "type": "Point", "coordinates": [ 140.472313563554394, 37.788633225464253 ] } },
{ "type": "Feature", "properties": { "内容": "なごみケア訪問看護ステーション　花もも支店【訪問看護】福島県福島市大森字本町裏52番地の5", "url": "https://www.kaigokensaku.mhlw.go.jp/07/index.php?action_kouhyou_detail_004_kani=true&JigyosyoCd=0760190389-00&ServiceCd=130&Type=search", "url2": "https://nagomicare.net/" }, "geometry": { "type": "Point", "coordinates": [ 140.439379349073818, 37.727208739014287 ] } },
{ "type": "Feature", "properties": { "内容": "訪問看護ステーションかしの木【訪問看護】福島県福島市泉字清水3-4", "url": "https://www.kaigokensaku.mhlw.go.jp/07/index.php?action_kouhyou_detail_004_kani=true&JigyosyoCd=0770105666-00&ServiceCd=130&Type=search", "url2": "https://shimizunosato.com" }, "geometry": { "type": "Point", "coordinates": [ 140.4456088, 37.7750912 ] } },
{ "type": "Feature", "properties": { "内容": "訪問看護ステーションあい【訪問看護】福島県福島市鎌田字御仮家７６番地スタービル３Ｆ", "url": "https://www.kaigokensaku.mhlw.go.jp/07/index.php?action_kouhyou_detail_004_kani=true&JigyosyoCd=0760190371-00&ServiceCd=130&Type=search", "url2": "https://www.houkan-ai.com" }, "geometry": { "type": "Point", "coordinates": [ 140.481793, 37.7976907 ] } },
{ "type": "Feature", "properties": { "内容": "たより訪問看護ステーション福島【訪問看護】堀河町1-7102", "url": "https://www.kaigokensaku.mhlw.go.jp/07/index.php?action_kouhyou_detail_004_kani=true&JigyosyoCd=0760190439-00&ServiceCd=130&Type=search", "url2": "https://yori-i.jp/" }, "geometry": { "type": "Point", "coordinates": [ 140.486940324508936, 37.767730491294579 ] } },
{ "type": "Feature", "properties": { "内容": "訪問看護ステーション百寿【訪問看護】福島県会津若松市明和町5-5", "url": "https://www.kaigokensaku.mhlw.go.jp/07/index.php?action_kouhyou_detail_004_kani=true&JigyosyoCd=0760290114-00&ServiceCd=130&Type=search", "url2": "http://yumeweb21.web.fc2.com/" }, "geometry": { "type": "Point", "coordinates": [ 139.927515966270448, 37.478462666110701 ] } },
{ "type": "Feature", "properties": { "内容": "ウィル訪問看護ステーション会津【訪問看護】福島県会津若松市旭町6-27", "url": "https://www.kaigokensaku.mhlw.go.jp/07/index.php?action_kouhyou_detail_004_kani=true&JigyosyoCd=0760290171-00&ServiceCd=130&Type=search", "url2": "wyl.co.jp" }, "geometry": { "type": "Point", "coordinates": [ 139.9393523, 37.5014197 ] } },
{ "type": "Feature", "properties": { "内容": "訪問看護なないろステーション【訪問看護】福島県会津若松市東千石1丁目2番17号", "url": "https://www.kaigokensaku.mhlw.go.jp/07/index.php?action_kouhyou_detail_004_kani=true&JigyosyoCd=0760290049-00&ServiceCd=130&Type=search", "url2": "http://aizu-health.coop/" }, "geometry": { "type": "Point", "coordinates": [ 139.944701925795016, 37.496349039141691 ] } },
{ "type": "Feature", "properties": { "内容": "訪問看護かえりえ北青木【訪問看護】福島県会津若松市北青木1-10", "url": "https://www.kaigokensaku.mhlw.go.jp/07/index.php?action_kouhyou_detail_004_kani=true&JigyosyoCd=0760290189-00&ServiceCd=130&Type=search", "url2": "https://search.yasashiite.com/detail/houmonkango_kitaaoki/" }, "geometry": { "type": "Point", "coordinates": [ 139.9374416, 37.4816269 ] } },
{ "type": "Feature", "properties": { "内容": "穴澤訪問看護ステーション【訪問看護】福島県会津若松市宮町１番１号", "url": "https://www.kaigokensaku.mhlw.go.jp/07/index.php?action_kouhyou_detail_004_kani=true&JigyosyoCd=0760290072-00&ServiceCd=130&Type=search", "url2": "https://anazawa.or.jp/" }, "geometry": { "type": "Point", "coordinates": [ 139.933787, 37.4947612 ] } },
{ "type": "Feature", "properties": { "内容": "会津中央訪問看護ステーション【訪問看護】福島県会津若松市東山町大字石山字院内171", "url": "https://www.kaigokensaku.mhlw.go.jp/07/index.php?action_kouhyou_detail_004_kani=true&JigyosyoCd=0760290106-00&ServiceCd=130&Type=search", "url2": "https://www.onchikai.jp/" }, "geometry": { "type": "Point", "coordinates": [ 139.953532651403776, 37.484229733231246 ] } },
{ "type": "Feature", "properties": { "内容": "竹田訪問看護ステーション【訪問看護】福島県会津若松市本町2-60へるすぷらざ山鹿2号館", "url": "https://www.kaigokensaku.mhlw.go.jp/07/index.php?action_kouhyou_detail_004_kani=true&JigyosyoCd=0760290023-00&ServiceCd=130&Type=search", "url2": "http://www.takeda.or.jp" }, "geometry": { "type": "Point", "coordinates": [ 139.921368700000016, 37.4916586 ] } },
{ "type": "Feature", "properties": { "内容": "会津西訪問看護ステーション【訪問看護】福島県会津若松市北会津町東小松2335番地", "url": "https://www.kaigokensaku.mhlw.go.jp/07/index.php?action_kouhyou_detail_004_kani=true&JigyosyoCd=0762490019-00&ServiceCd=130&Type=search", "url2": "http://www.meisei-kai.or.jp" }, "geometry": { "type": "Point", "coordinates": [ 139.890495200000032, 37.4736176 ] } },
{ "type": "Feature", "properties": { "内容": "訪問看護ステーション・エフズ【訪問看護】福島県郡山市鳴神3丁目73番地", "url": "https://www.kaigokensaku.mhlw.go.jp/07/index.php?action_kouhyou_detail_004_kani=true&JigyosyoCd=0760390427-00&ServiceCd=130&Type=search", "url2": "www.fscompany.jp" }, "geometry": { "type": "Point", "coordinates": [ 140.333772443441006, 37.394883926964397 ] } },
{ "type": "Feature", "properties": { "内容": "訪問看護ステーションあやめ郡山南【訪問看護】福島県郡山市安積町日出山字一本松47安積ヒルズ401号室", "url": "https://www.kaigokensaku.mhlw.go.jp/07/index.php?action_kouhyou_detail_004_kani=true&JigyosyoCd=0760390625-00&ServiceCd=130&Type=search", "url2": "https://firstnurse.co.jp/" }, "geometry": { "type": "Point", "coordinates": [ 140.3871054, 37.3654008 ] } },
{ "type": "Feature", "properties": { "内容": "訪問看護ステーションあやめ郡山西【訪問看護】福島県郡山市大槻町字御花畑28番地アパートメントハウス101号室", "url": "https://www.kaigokensaku.mhlw.go.jp/07/index.php?action_kouhyou_detail_004_kani=true&JigyosyoCd=0760390674-00&ServiceCd=130&Type=search", "url2": "https://firstnurse.co.jp/" }, "geometry": { "type": "Point", "coordinates": [ 140.318172299999986, 37.394521 ] } },
{ "type": "Feature", "properties": { "内容": "医療法人　むつき会　むつき訪問看護ステーション【訪問看護】福島県郡山市亀田1-51-12　3F", "url": "https://www.kaigokensaku.mhlw.go.jp/07/index.php?action_kouhyou_detail_004_kani=true&JigyosyoCd=0760390385-00&ServiceCd=130&Type=search", "url2": "http://mutuskikai.com/" }, "geometry": { "type": "Point", "coordinates": [ 140.342718600000012, 37.4009618 ] } },
{ "type": "Feature", "properties": { "内容": "看護クラーク郡山【訪問看護】並木3丁目6-2", "url": "https://www.kaigokensaku.mhlw.go.jp/07/index.php?action_kouhyou_detail_004_kani=true&JigyosyoCd=0760390658-00&ServiceCd=130&Type=search", "url2": "https://cuc-hospice.com/rehope/" }, "geometry": { "type": "Point", "coordinates": [ 139.7065146, 35.8179075 ] } },
{ "type": "Feature", "properties": { "内容": "訪問看護ステーション亀田【訪問看護】福島県郡山市亀田西６７番地", "url": "https://www.kaigokensaku.mhlw.go.jp/07/index.php?action_kouhyou_detail_004_kani=true&JigyosyoCd=0760390286-00&ServiceCd=130&Type=search", "url2": "gc-bridge.jp" }, "geometry": { "type": "Point", "coordinates": [ 140.342226799999906, 37.4051696 ] } },
{ "type": "Feature", "properties": { "内容": "訪問看護ステーション銀のつばさ【訪問看護】福島県郡山市菜根4丁目17番11号", "url": "https://www.kaigokensaku.mhlw.go.jp/07/index.php?action_kouhyou_detail_004_kani=true&JigyosyoCd=0760390716-00&ServiceCd=130&Type=search", "url2": "https//www.ginnotsubasa.net" }, "geometry": { "type": "Point", "coordinates": [ 140.3644562, 37.3814582 ] } },
{ "type": "Feature", "properties": { "内容": "訪問看護ステーションこころえ【訪問看護】福島県郡山市方八町2丁目10-12サンコーポ201号室", "url": "https://www.kaigokensaku.mhlw.go.jp/07/index.php?action_kouhyou_detail_004_kani=true&JigyosyoCd=0760390641-00&ServiceCd=130&Type=search", "url2": "https://enuzu-medicalcare.hp.peraichi.com" }, "geometry": { "type": "Point", "coordinates": [ 140.393638900000013, 37.3930253 ] } },
{ "type": "Feature", "properties": { "内容": "ベル訪問看護ステーション【訪問看護】福島県郡山市大槻町字中野5-1", "url": "https://www.kaigokensaku.mhlw.go.jp/07/index.php?action_kouhyou_detail_004_kani=true&JigyosyoCd=0760390526-00&ServiceCd=130&Type=search", "url2": null }, "geometry": { "type": "Point", "coordinates": [ 140.3275629, 37.3905395 ] } },
{ "type": "Feature", "properties": { "内容": "にじいろ訪問看護リハビリステーション【訪問看護】福島県郡山市安積北井1丁目50番地ボナンザビル106", "url": "https://www.kaigokensaku.mhlw.go.jp/07/index.php?action_kouhyou_detail_004_kani=true&JigyosyoCd=0760390542-00&ServiceCd=130&Type=search", "url2": "https://nijiiro-hokan.com/" }, "geometry": { "type": "Point", "coordinates": [ 140.35555260000001, 37.371231 ] } },
{ "type": "Feature", "properties": { "内容": "訪問看護ステーションおはな【訪問看護】福島県郡山市桑野2丁目9-3", "url": "https://www.kaigokensaku.mhlw.go.jp/07/index.php?action_kouhyou_detail_004_kani=true&JigyosyoCd=0760390476-00&ServiceCd=130&Type=search", "url2": null }, "geometry": { "type": "Point", "coordinates": [ 140.356722600000012, 37.4032402 ] } },
{ "type": "Feature", "properties": { "内容": "ちいきステーションtoivo【訪問看護】福島県郡山市富田町字中ノ目41", "url": "https://www.kaigokensaku.mhlw.go.jp/07/index.php?action_kouhyou_detail_004_kani=true&JigyosyoCd=0760390500-00&ServiceCd=130&Type=search", "url2": "https://toivo-e.com/" }, "geometry": { "type": "Point", "coordinates": [ 140.336795200000012, 37.4211248 ] } },
{ "type": "Feature", "properties": { "内容": "ピースフルライフ訪問看護リハビリステーション【訪問看護】福島県郡山市静町29番7号", "url": "https://www.kaigokensaku.mhlw.go.jp/07/index.php?action_kouhyou_detail_004_kani=true&JigyosyoCd=0760390708-00&ServiceCd=130&Type=search", "url2": "http://hp.kaipoke.biz/t0w/" }, "geometry": { "type": "Point", "coordinates": [ 140.3369553, 37.3893192 ] } },
{ "type": "Feature", "properties": { "内容": "ナースステーション　いぐばい【訪問看護】福島県郡山市三穂田町富岡字本郷14", "url": "https://www.kaigokensaku.mhlw.go.jp/07/index.php?action_kouhyou_detail_004_kani=true&JigyosyoCd=0760390492-00&ServiceCd=130&Type=search", "url2": "http://hp.kaipoke,biz/hrw/" }, "geometry": { "type": "Point", "coordinates": [ 140.274322899999987, 37.3498691 ] } },
{ "type": "Feature", "properties": { "内容": "訪問看護ステーションみづは【訪問看護】福島県郡山市安積北井２丁目370番地フロール荒井101号", "url": "https://www.kaigokensaku.mhlw.go.jp/07/index.php?action_kouhyou_detail_004_kani=true&JigyosyoCd=0760390559-00&ServiceCd=130&Type=search", "url2": "https://gc-bridge.jp" }, "geometry": { "type": "Point", "coordinates": [ 140.3630637, 37.3729165 ] } },
{ "type": "Feature", "properties": { "内容": "訪問看護ステーションlife【訪問看護】福島県郡山市久留米4丁目１４８番地の１コーポＨＡＳＨＩＭＯＴＯ２Ａ１階", "url": "https://www.kaigokensaku.mhlw.go.jp/07/index.php?action_kouhyou_detail_004_kani=true&JigyosyoCd=0760390534-00&ServiceCd=130&Type=search", "url2": "https://lifepiece.jp/" }, "geometry": { "type": "Point", "coordinates": [ 140.35674835648345, 37.37969068098257 ] } },
{ "type": "Feature", "properties": { "内容": "せいしんかほうもんかんごすてーしょんふれあ【訪問看護】福島県郡山市富久山町久保田字太郎殿前113アーバン21　402号", "url": "https://www.kaigokensaku.mhlw.go.jp/07/index.php?action_kouhyou_detail_004_kani=true&JigyosyoCd=0760390724-00&ServiceCd=130&Type=search", "url2": "taiyo-024.com" }, "geometry": { "type": "Point", "coordinates": [ 140.3991499, 37.4070038 ] } },
{ "type": "Feature", "properties": { "内容": "JWS陽だまりの郷　郡山　訪問看護リハビリステーション【訪問看護】希望ヶ丘24番15号", "url": "https://www.kaigokensaku.mhlw.go.jp/07/index.php?action_kouhyou_detail_004_kani=true&JigyosyoCd=0760390799-00&ServiceCd=130&Type=search", "url2": "https://jws-c.jp" }, "geometry": { "type": "Point", "coordinates": [ 139.5141563, 35.4604235 ] } },
{ "type": "Feature", "properties": { "内容": "たるかわ訪問看護ステーション【訪問看護】福島県郡山市御前南１－１３番地", "url": "https://www.kaigokensaku.mhlw.go.jp/07/index.php?action_kouhyou_detail_004_kani=true&JigyosyoCd=0760390179-00&ServiceCd=130&Type=search", "url2": null }, "geometry": { "type": "Point", "coordinates": [ 140.334361800000011, 37.3858744 ] } },
{ "type": "Feature", "properties": { "内容": "田村訪問看護ステーション【訪問看護】福島県郡山市田村町岩作字穂多礼218", "url": "https://www.kaigokensaku.mhlw.go.jp/07/index.php?action_kouhyou_detail_004_kani=true&JigyosyoCd=0760390062-00&ServiceCd=130&Type=search", "url2": "http://www.jihankai.jp" }, "geometry": { "type": "Point", "coordinates": [ 140.415437699999984, 37.3222386 ] } },
{ "type": "Feature", "properties": { "内容": "寿訪問看護ステーション【訪問看護】福島県郡山市並木三丁目６－３オフィス並木３号", "url": "https://www.kaigokensaku.mhlw.go.jp/07/index.php?action_kouhyou_detail_004_kani=true&JigyosyoCd=0760390237-00&ServiceCd=130&Type=search", "url2": null }, "geometry": { "type": "Point", "coordinates": [ 140.357242, 37.4092642 ] } },
{ "type": "Feature", "properties": { "内容": "訪問看護ステーションむすび【訪問看護】福島県郡山市静町38-10", "url": "https://www.kaigokensaku.mhlw.go.jp/07/index.php?action_kouhyou_detail_004_kani=true&JigyosyoCd=0760390609-00&ServiceCd=130&Type=search", "url2": "kiyu-koriyama.wixsite.com/cs-kizuna" }, "geometry": { "type": "Point", "coordinates": [ 140.3351437, 37.3860879 ] } },
{ "type": "Feature", "properties": { "内容": "郡山医師会訪問看護ステーション【訪問看護】福島県郡山市字上亀田１－１", "url": "https://www.kaigokensaku.mhlw.go.jp/07/index.php?action_kouhyou_detail_004_kani=true&JigyosyoCd=0760390351-00&ServiceCd=130&Type=search", "url2": "http://bigheart-hp.net/" }, "geometry": { "type": "Point", "coordinates": [ 140.345640300000014, 37.408575 ] } },
{ "type": "Feature", "properties": { "内容": "今泉訪問看護ステーション【訪問看護】福島県郡山市朝日二丁目18-8今泉西病院", "url": "https://www.kaigokensaku.mhlw.go.jp/07/index.php?action_kouhyou_detail_004_kani=true&JigyosyoCd=0760390666-00&ServiceCd=130&Type=search", "url2": "http://www.imaizuminishi.or.jp" }, "geometry": { "type": "Point", "coordinates": [ 140.358627500000011, 37.4043942 ] } },
{ "type": "Feature", "properties": { "内容": "太田熱海訪問看護ステーション【訪問看護】福島県郡山市熱海町熱海５丁目２４０番地", "url": "https://www.kaigokensaku.mhlw.go.jp/07/index.php?action_kouhyou_detail_004_kani=true&JigyosyoCd=0760390211-00&ServiceCd=130&Type=search", "url2": "https://www.ohta-hp.or.jp" }, "geometry": { "type": "Point", "coordinates": [ 140.26334780000002, 37.486364 ] } },
{ "type": "Feature", "properties": { "内容": "L-CUB訪問看護八山田【訪問看護】八山田3-8-2L-CUB訪問看護八山田", "url": "https://www.kaigokensaku.mhlw.go.jp/07/index.php?action_kouhyou_detail_004_kani=true&JigyosyoCd=0760390260-00&ServiceCd=130&Type=search", "url2": "https://www.l-cub.jp/lifestyle.html" }, "geometry": { "type": "Point", "coordinates": [ 140.3750865, 37.4297227 ] } },
{ "type": "Feature", "properties": { "内容": "星訪問看護ステーション【訪問看護】福島県郡山市大町2-3-26大町ベース1F", "url": "https://www.kaigokensaku.mhlw.go.jp/07/index.php?action_kouhyou_detail_004_kani=true&JigyosyoCd=0760390302-00&ServiceCd=130&Type=search", "url2": "http://www.hoshipital.jp" }, "geometry": { "type": "Point", "coordinates": [ 140.386322362467979, 37.403997262696301 ] } },
{ "type": "Feature", "properties": { "内容": "エコ郡山訪問看護ステーション【訪問看護】福島県郡山市喜久田町卸一丁目１１７番地１", "url": "https://www.kaigokensaku.mhlw.go.jp/07/index.php?action_kouhyou_detail_004_kani=true&JigyosyoCd=0760390690-00&ServiceCd=130&Type=search", "url2": null }, "geometry": { "type": "Point", "coordinates": [ 140.341341778496798, 37.440979994448654 ] } },
{ "type": "Feature", "properties": { "内容": "在宅看護センター陽だまり郡山【訪問看護】福島県郡山市八山田３丁目90", "url": "https://www.kaigokensaku.mhlw.go.jp/07/index.php?action_kouhyou_detail_004_kani=true&JigyosyoCd=0760390575-00&ServiceCd=130&Type=search", "url2": "https://www.hidamari349.com" }, "geometry": { "type": "Point", "coordinates": [ 140.373678399999989, 37.4299976 ] } },
{ "type": "Feature", "properties": { "内容": "ウェル訪問看護ステーション【訪問看護】福島県郡山市安積町笹川字経坦45", "url": "https://www.kaigokensaku.mhlw.go.jp/07/index.php?action_kouhyou_detail_004_kani=true&JigyosyoCd=0760390161-00&ServiceCd=130&Type=search", "url2": "http://www.asaka.or.jp" }, "geometry": { "type": "Point", "coordinates": [ 140.363298861376961, 37.348054662388485 ] } },
{ "type": "Feature", "properties": { "内容": "一般財団法人脳神経疾患研究　南東北訪問看護ステーションゴールドメディア【訪問看護】福島県郡山市八山田七丁目１４９", "url": "https://www.kaigokensaku.mhlw.go.jp/07/index.php?action_kouhyou_detail_004_kani=true&JigyosyoCd=0760390039-00&ServiceCd=130&Type=search", "url2": "http://www.minamitohoku.or.jp/" }, "geometry": { "type": "Point", "coordinates": [ 140.382600499999967, 37.4223105 ] } },
{ "type": "Feature", "properties": { "内容": "訪問看護ステーションたっちんぐ【訪問看護】福島県郡山市御前南6丁目126グラシューパルク101", "url": "https://www.kaigokensaku.mhlw.go.jp/07/index.php?action_kouhyou_detail_004_kani=true&JigyosyoCd=0760390591-00&ServiceCd=130&Type=search", "url2": "https://hokan-touching.com/" }, "geometry": { "type": "Point", "coordinates": [ 140.328037345998013, 37.386141030069616 ] } },
{ "type": "Feature", "properties": { "内容": "キュアホーム訪問看護ステーション【訪問看護】福島県郡山市田村町徳定字下河原434番地の3", "url": "https://www.kaigokensaku.mhlw.go.jp/07/index.php?action_kouhyou_detail_004_kani=true&JigyosyoCd=0760390344-00&ServiceCd=130&Type=search", "url2": "http://cure-home.com/" }, "geometry": { "type": "Point", "coordinates": [ 140.382999158860798, 37.362497427408449 ] } },
{ "type": "Feature", "properties": { "内容": "いずみ訪問看護ステーション【訪問看護】福島県郡山市香久池1丁目18番11号", "url": "https://www.kaigokensaku.mhlw.go.jp/07/index.php?action_kouhyou_detail_004_kani=true&JigyosyoCd=0760390021-00&ServiceCd=130&Type=search", "url2": "https://www.jusendo.or.jp" }, "geometry": { "type": "Point", "coordinates": [ 140.369927800000028, 37.3814535 ] } },
{ "type": "Feature", "properties": { "内容": "太田訪問看護ステーション【訪問看護】福島県郡山市西ノ内二丁目5番20号", "url": "https://www.kaigokensaku.mhlw.go.jp/07/index.php?action_kouhyou_detail_004_kani=true&JigyosyoCd=0760390054-00&ServiceCd=130&Type=search", "url2": "http://www.ohta-hp.or.jp/nursing_care/homecare_nishi" }, "geometry": { "type": "Point", "coordinates": [ 140.366044099999954, 37.4065674 ] } },
{ "type": "Feature", "properties": { "内容": "アイリス訪問看護ステーション【訪問看護】福島県郡山市亀田1丁目4-3ランドパレスアミティエ106号室", "url": "https://www.kaigokensaku.mhlw.go.jp/07/index.php?action_kouhyou_detail_004_kani=true&JigyosyoCd=0760390419-00&ServiceCd=130&Type=search", "url2": "http://hp.kaipoke.biz/84u/" }, "geometry": { "type": "Point", "coordinates": [ 140.351017800000022, 37.4024202 ] } },
{ "type": "Feature", "properties": { "内容": "訪問看護ステーションぱれっと【訪問看護】福島県郡山市新屋敷2丁目54-21階　2号室", "url": "https://www.kaigokensaku.mhlw.go.jp/07/index.php?action_kouhyou_detail_004_kani=true&JigyosyoCd=0760390682-00&ServiceCd=130&Type=search", "url2": "https://www.y-jikka.com" }, "geometry": { "type": "Point", "coordinates": [ 140.3533635, 37.4182381 ] } },
{ "type": "Feature", "properties": { "内容": "くるーる訪問看護リハビリステーション【訪問看護】福島県郡山市若葉町16番地11号", "url": "https://www.kaigokensaku.mhlw.go.jp/07/index.php?action_kouhyou_detail_004_kani=true&JigyosyoCd=0760390633-00&ServiceCd=130&Type=search", "url2": "https://www.f-couleur.jphttps://f-innovation.jp" }, "geometry": { "type": "Point", "coordinates": [ 140.38352660000001, 37.4051734 ] } },
{ "type": "Feature", "properties": { "内容": "やすらぎ訪問看護ステーション【訪問看護】福島県郡山市並木二丁目12-7", "url": "https://www.kaigokensaku.mhlw.go.jp/07/index.php?action_kouhyou_detail_004_kani=true&JigyosyoCd=0760390153-00&ServiceCd=130&Type=search", "url2": "http://www.yasuragi-web.com/page004.html" }, "geometry": { "type": "Point", "coordinates": [ 140.364721799999984, 37.4131445 ] } },
{ "type": "Feature", "properties": { "内容": "桑野訪問看護ステーション【訪問看護】福島県郡山市島二丁目9番18号", "url": "https://www.kaigokensaku.mhlw.go.jp/07/index.php?action_kouhyou_detail_004_kani=true&JigyosyoCd=0760390047-00&ServiceCd=130&Type=search", "url2": "http://www.koriyama-h-coop.or.jp/" }, "geometry": { "type": "Point", "coordinates": [ 140.346492050926173, 37.396756755755213 ] } },
{ "type": "Feature", "properties": { "内容": "コンパス訪問看護郡山安積【訪問看護】福島県郡山市安積4丁目35", "url": "https://www.kaigokensaku.mhlw.go.jp/07/index.php?action_kouhyou_detail_004_kani=true&JigyosyoCd=0760390583-00&ServiceCd=130&Type=search", "url2": null }, "geometry": { "type": "Point", "coordinates": [ 140.364241600000014, 37.3538601 ] } },
{ "type": "Feature", "properties": { "内容": "たより訪問看護ステーション郡山【訪問看護】福島県郡山市御前南1-72", "url": "https://www.kaigokensaku.mhlw.go.jp/07/index.php?action_kouhyou_detail_004_kani=true&JigyosyoCd=0760390484-00&ServiceCd=130&Type=search", "url2": "https://yori-i.jp" }, "geometry": { "type": "Point", "coordinates": [ 140.3329742, 37.3849868 ] } },
{ "type": "Feature", "properties": { "内容": "ツクイ郡山訪問看護ステーション【訪問看護】福島県郡山市朝日２丁目１ー５丸久ビル２０５", "url": "https://www.kaigokensaku.mhlw.go.jp/07/index.php?action_kouhyou_detail_004_kani=true&JigyosyoCd=0760390757-00&ServiceCd=130&Type=search", "url2": null }, "geometry": { "type": "Point", "coordinates": [ 140.362308399999989, 37.4036159 ] } },
{ "type": "Feature", "properties": { "内容": "ケアフリー訪問看護ステーション【訪問看護】福島県いわき市平中神谷字前河原20番地の1日新ビル1階", "url": "https://www.kaigokensaku.mhlw.go.jp/07/index.php?action_kouhyou_detail_004_kani=true&JigyosyoCd=0760490474-00&ServiceCd=130&Type=search", "url2": null }, "geometry": { "type": "Point", "coordinates": [ 140.931386800000013, 37.0612193 ] } },
{ "type": "Feature", "properties": { "内容": "医療法人櫛田会櫛田病院【訪問看護】福島県いわき市植田町本町1-11-1", "url": "https://www.kaigokensaku.mhlw.go.jp/07/index.php?action_kouhyou_detail_004_kani=true&JigyosyoCd=0710412339-00&ServiceCd=130&Type=search", "url2": "www.kushida-hosp.jp" }, "geometry": { "type": "Point", "coordinates": [ 140.7964959, 36.9153319 ] } },
{ "type": "Feature", "properties": { "内容": "訪問看護ステーションのびのび【訪問看護】佐糠町東1-6-3サクセスマンション103", "url": "https://www.kaigokensaku.mhlw.go.jp/07/index.php?action_kouhyou_detail_004_kani=true&JigyosyoCd=0760490557-00&ServiceCd=130&Type=search", "url2": "https://www.ha-kakehashi.jp/nobinobi.html" }, "geometry": { "type": "Point", "coordinates": [ 140.80649710000003, 36.920356399999989 ] } },
{ "type": "Feature", "properties": { "内容": "訪問看護ステーション　まなわ【訪問看護】福島県いわき市好間町上好間字馬場47-2", "url": "https://www.kaigokensaku.mhlw.go.jp/07/index.php?action_kouhyou_detail_004_kani=true&JigyosyoCd=0760490516-00&ServiceCd=130&Type=search", "url2": "https://houkan-manawa.co.jp/" }, "geometry": { "type": "Point", "coordinates": [ 140.85166893372957, 37.067717194380506 ] } },
{ "type": "Feature", "properties": { "内容": "医療生協　訪問看護ステーションかもめ【訪問看護】福島県いわき市小名浜岡小名字山ノ神40", "url": "https://www.kaigokensaku.mhlw.go.jp/07/index.php?action_kouhyou_detail_004_kani=true&JigyosyoCd=0760490045-00&ServiceCd=130&Type=search", "url2": "https://www.hamadori-coop.jp" }, "geometry": { "type": "Point", "coordinates": [ 140.909578900000042, 36.9709586 ] } },
{ "type": "Feature", "properties": { "内容": "常磐訪問看護リハビリステーション【訪問看護】福島県いわき市平上荒川字桜町21-1", "url": "https://www.kaigokensaku.mhlw.go.jp/07/index.php?action_kouhyou_detail_004_kani=true&JigyosyoCd=0760490508-00&ServiceCd=130&Type=search", "url2": "https://www.i-stepproject.jp" }, "geometry": { "type": "Point", "coordinates": [ 140.8888346, 37.0342144 ] } },
{ "type": "Feature", "properties": { "内容": "訪問看護ステーションあるく【訪問看護】福島県いわき市平中平窪１－１－１", "url": "https://www.kaigokensaku.mhlw.go.jp/07/index.php?action_kouhyou_detail_004_kani=true&JigyosyoCd=0760490540-00&ServiceCd=130&Type=search", "url2": "http://hp.kaipoke.biz/tt0/" }, "geometry": { "type": "Point", "coordinates": [ 140.8762238, 37.0876597 ] } },
{ "type": "Feature", "properties": { "内容": "医療法人社団正風会　小名浜訪問看護ステーション【訪問看護】福島県いわき市小名浜字本町60", "url": "https://www.kaigokensaku.mhlw.go.jp/07/index.php?action_kouhyou_detail_004_kani=true&JigyosyoCd=0760490219-00&ServiceCd=130&Type=search", "url2": "http://ishiihsp.jp/" }, "geometry": { "type": "Point", "coordinates": [ 140.904155700000047, 36.9496189 ] } },
{ "type": "Feature", "properties": { "内容": "森の樹の訪問看護ステーション【訪問看護】福島県いわき市内郷綴町高野作18番1", "url": "https://www.kaigokensaku.mhlw.go.jp/07/index.php?action_kouhyou_detail_004_kani=true&JigyosyoCd=0760490391-00&ServiceCd=130&Type=search", "url2": null }, "geometry": { "type": "Point", "coordinates": [ 140.8675632, 37.0368119 ] } },
{ "type": "Feature", "properties": { "内容": "社団医療法人養生会　かしま訪問看護ステーション【訪問看護】福島県いわき市鹿島町下蔵持字里屋7－1", "url": "https://www.kaigokensaku.mhlw.go.jp/07/index.php?action_kouhyou_detail_004_kani=true&JigyosyoCd=0760490029-00&ServiceCd=130&Type=search", "url2": "http://www.kashima.jp" }, "geometry": { "type": "Point", "coordinates": [ 140.909961800000019, 36.9922975 ] } },
{ "type": "Feature", "properties": { "内容": "おりづる訪問看護ステーション【訪問看護】福島県いわき市平字小太郎町1-1", "url": "https://www.kaigokensaku.mhlw.go.jp/07/index.php?action_kouhyou_detail_004_kani=true&JigyosyoCd=0760490011-00&ServiceCd=130&Type=search", "url2": "http://www.matumura-ghp.or.jp" }, "geometry": { "type": "Point", "coordinates": [ 140.89192, 37.0525555 ] } },
{ "type": "Feature", "properties": { "内容": "ここふるほうもんかんごすてーしょん【訪問看護】福島県いわき市鹿島町久保二丁目8番地の6", "url": "https://www.kaigokensaku.mhlw.go.jp/07/index.php?action_kouhyou_detail_004_kani=true&JigyosyoCd=0760490441-00&ServiceCd=130&Type=search", "url2": "https://cocoful.iwaki.com" }, "geometry": { "type": "Point", "coordinates": [ 140.9030918, 36.9888195 ] } },
{ "type": "Feature", "properties": { "内容": "訪問看護ステーションきゅあ【訪問看護】福島県いわき市小名浜南富岡字富士前50磐城中央病院　3階", "url": "https://www.kaigokensaku.mhlw.go.jp/07/index.php?action_kouhyou_detail_004_kani=true&JigyosyoCd=0760490193-00&ServiceCd=130&Type=search", "url2": "www.tokiwa.or.jp" }, "geometry": { "type": "Point", "coordinates": [ 140.880936093935674, 36.958392566144731 ] } },
{ "type": "Feature", "properties": { "内容": "ゆもと訪問看護ステーション【訪問看護】福島県いわき市常磐下湯長谷町岩崎85-53", "url": "https://www.kaigokensaku.mhlw.go.jp/07/index.php?action_kouhyou_detail_004_kani=true&JigyosyoCd=0760490466-00&ServiceCd=130&Type=search", "url2": null }, "geometry": { "type": "Point", "coordinates": [ 140.8543103, 36.9885986 ] } },
{ "type": "Feature", "properties": { "内容": "訪問看護ステーション　ぱれっと【訪問看護】いわき市内郷綴町沼尻49-3ファーストハイツ105", "url": "https://www.kaigokensaku.mhlw.go.jp/07/index.php?action_kouhyou_detail_004_kani=true&JigyosyoCd=0760490367-00&ServiceCd=130&Type=search", "url2": null }, "geometry": { "type": "Point", "coordinates": [ 140.8655405, 37.0405914 ] } },
{ "type": "Feature", "properties": { "内容": "わかば訪問看護ステーション【訪問看護】福島県いわき市植田町本町二丁目５－７", "url": "https://www.kaigokensaku.mhlw.go.jp/07/index.php?action_kouhyou_detail_004_kani=true&JigyosyoCd=0760490227-00&ServiceCd=130&Type=search", "url2": null }, "geometry": { "type": "Point", "coordinates": [ 140.799680599999988, 36.9172678 ] } },
{ "type": "Feature", "properties": { "内容": "訪問看護リハビリステーション　ぽっかぽか【訪問看護】福島県いわき市東田町93", "url": "https://www.kaigokensaku.mhlw.go.jp/07/index.php?action_kouhyou_detail_004_kani=true&JigyosyoCd=0760490375-00&ServiceCd=130&Type=search", "url2": "https://www.pokkapoka-iwaki.com/" }, "geometry": { "type": "Point", "coordinates": [ 140.816494277933515, 36.925573850183106 ] } },
{ "type": "Feature", "properties": { "内容": "医和生会コスモス訪問看護ステーション【訪問看護】福島県いわき市平谷川瀬一丁目16-5", "url": "https://www.kaigokensaku.mhlw.go.jp/07/index.php?action_kouhyou_detail_004_kani=true&JigyosyoCd=0760490078-00&ServiceCd=130&Type=search", "url2": "https://iwakikai.jp/" }, "geometry": { "type": "Point", "coordinates": [ 140.891900599999985, 37.0482172 ] } },
{ "type": "Feature", "properties": { "内容": "くれは訪問看護ステーション【訪問看護】福島県いわき市錦町落合１番地1", "url": "https://www.kaigokensaku.mhlw.go.jp/07/index.php?action_kouhyou_detail_004_kani=true&JigyosyoCd=0760490268-00&ServiceCd=130&Type=search", "url2": "http://www.kureha-hosp.com" }, "geometry": { "type": "Point", "coordinates": [ 140.782794947885094, 36.90007751164832 ] } },
{ "type": "Feature", "properties": { "内容": "訪問看護ステーションあんさぁ【訪問看護】福島県いわき市好間町上好間字洞34-1", "url": "https://www.kaigokensaku.mhlw.go.jp/07/index.php?action_kouhyou_detail_004_kani=true&JigyosyoCd=0760490326-00&ServiceCd=130&Type=search", "url2": null }, "geometry": { "type": "Point", "coordinates": [ 140.8469096, 37.0697396 ] } },
{ "type": "Feature", "properties": { "内容": "いわき訪問看護リハビリステーションα【訪問看護】福島県いわき市鹿島町久保一丁目11-6", "url": "https://www.kaigokensaku.mhlw.go.jp/07/index.php?action_kouhyou_detail_004_kani=true&JigyosyoCd=0760490482-00&ServiceCd=130&Type=search", "url2": "https://alpha.newwalk-iwaki.jp" }, "geometry": { "type": "Point", "coordinates": [ 140.9047879, 36.9906256 ] } },
{ "type": "Feature", "properties": { "内容": "医療法人　常磐会　いわき健育会訪問看護ステーション【訪問看護】福島県いわき市常磐湯本町台山6番地2階", "url": "https://www.kaigokensaku.mhlw.go.jp/07/index.php?action_kouhyou_detail_004_kani=true&JigyosyoCd=0770408441-00&ServiceCd=130&Type=search", "url2": "http://iwakiyumoto-hp.or.jp" }, "geometry": { "type": "Point", "coordinates": [ 140.849828595106487, 37.010875375647345 ] } },
{ "type": "Feature", "properties": { "内容": "いわき南訪問看護リハビリステーション【訪問看護】福島県いわき市錦町沼ノ川28-12", "url": "https://www.kaigokensaku.mhlw.go.jp/07/index.php?action_kouhyou_detail_004_kani=true&JigyosyoCd=0760490334-00&ServiceCd=130&Type=search", "url2": "http://hp.kaipoke.biz/n0t/index.html" }, "geometry": { "type": "Point", "coordinates": [ 140.776748700000013, 36.9073532 ] } },
{ "type": "Feature", "properties": { "内容": "はなまる共和国訪問看護ステーション【訪問看護】福島県いわき市平上荒川字林作２０３－１", "url": "https://www.kaigokensaku.mhlw.go.jp/07/index.php?action_kouhyou_detail_004_kani=true&JigyosyoCd=0760490524-00&ServiceCd=130&Type=search", "url2": "https://www.a-hanamaru.jp/" }, "geometry": { "type": "Point", "coordinates": [ 140.8788773609636, 37.025175883929506 ] } },
{ "type": "Feature", "properties": { "内容": "訪問看護ケアリーいわき小名浜【訪問看護】福島県いわき市小名浜大原字丁新地30-4", "url": "https://www.kaigokensaku.mhlw.go.jp/07/index.php?action_kouhyou_detail_004_kani=true&JigyosyoCd=0760490573-00&ServiceCd=130&Type=search", "url2": "https://onahama.carely-home.com/" }, "geometry": { "type": "Point", "coordinates": [ 140.8903917, 36.9565746 ] } },
{ "type": "Feature", "properties": { "内容": "たより訪問看護ステーションいわき【訪問看護】福島県いわき市内郷御厩町番匠地15-2", "url": "https://www.kaigokensaku.mhlw.go.jp/07/index.php?action_kouhyou_detail_004_kani=true&JigyosyoCd=0760490433-00&ServiceCd=130&Type=search", "url2": "https://yori-i.jp" }, "geometry": { "type": "Point", "coordinates": [ 140.875183522420059, 37.04506840837292 ] } },
{ "type": "Feature", "properties": { "内容": "らふえる訪問看護ステーション白河【訪問看護】結城６３アップルハウス", "url": "https://www.kaigokensaku.mhlw.go.jp/07/index.php?action_kouhyou_detail_004_kani=true&JigyosyoCd=0760590042-00&ServiceCd=130&Type=search", "url2": null }, "geometry": { "type": "Point", "coordinates": [ 140.228809, 37.1197662 ] } },
{ "type": "Feature", "properties": { "内容": "白河病院訪問看護ステーション【訪問看護】福島県白河市六反山10番地1", "url": "https://www.kaigokensaku.mhlw.go.jp/07/index.php?action_kouhyou_detail_004_kani=true&JigyosyoCd=0770501500-00&ServiceCd=130&Type=search", "url2": null }, "geometry": { "type": "Point", "coordinates": [ 140.215588, 37.141997 ] } },
{ "type": "Feature", "properties": { "内容": "福島県厚生農業協同組合連合会　しらかわ訪問看護ステーション【訪問看護】福島県白河市豊地上弥次郎2-1", "url": "https://www.kaigokensaku.mhlw.go.jp/07/index.php?action_kouhyou_detail_004_kani=true&JigyosyoCd=0760590018-00&ServiceCd=130&Type=search", "url2": "https://www.shirakawa-kosei.jp" }, "geometry": { "type": "Point", "coordinates": [ 140.2151695, 37.1456654 ] } },
{ "type": "Feature", "properties": { "内容": "公立岩瀬病院訪問看護ステーション【訪問看護】福島県須賀川市長禄町１番地", "url": "https://www.kaigokensaku.mhlw.go.jp/07/index.php?action_kouhyou_detail_004_kani=true&JigyosyoCd=0760790014-00&ServiceCd=130&Type=search", "url2": "http://www.iwase-hp.jp" }, "geometry": { "type": "Point", "coordinates": [ 140.372451800000022, 37.2948404 ] } },
{ "type": "Feature", "properties": { "内容": "一般財団法人　脳神経疾患研究所　南東北訪問看護ステーションたんぽぽ【訪問看護】福島県須賀川市大袋町２０６－２", "url": "https://www.kaigokensaku.mhlw.go.jp/07/index.php?action_kouhyou_detail_004_kani=true&JigyosyoCd=0760790022-00&ServiceCd=130&Type=search", "url2": "http://www.minamitohoku.or.jp/" }, "geometry": { "type": "Point", "coordinates": [ 140.35727559999998, 37.2849051 ] } },
{ "type": "Feature", "properties": { "内容": "訪問看護いわせ長寿苑【訪問看護】福島県須賀川市矢沢字明池158番", "url": "https://www.kaigokensaku.mhlw.go.jp/07/index.php?action_kouhyou_detail_004_kani=true&JigyosyoCd=0760790089-00&ServiceCd=130&Type=search", "url2": "http://www.iwase.or.jp" }, "geometry": { "type": "Point", "coordinates": [ 140.2861792, 37.3151715 ] } },
{ "type": "Feature", "properties": { "内容": "さんあい訪問看護ステーション【訪問看護】福島県須賀川市森宿字狐石129番7", "url": "https://www.kaigokensaku.mhlw.go.jp/07/index.php?action_kouhyou_detail_004_kani=true&JigyosyoCd=0760790048-00&ServiceCd=130&Type=search", "url2": "http://ikedakinen-hp.or.jp/" }, "geometry": { "type": "Point", "coordinates": [ 140.352144899999985, 37.301884 ] } },
{ "type": "Feature", "properties": { "内容": "南東北春日訪問看護ステーション【訪問看護】福島県須賀川市南上町123-1", "url": "https://www.kaigokensaku.mhlw.go.jp/07/index.php?action_kouhyou_detail_004_kani=true&JigyosyoCd=0760790055-00&ServiceCd=130&Type=search", "url2": "http://www.kasuga-rehabili.com" }, "geometry": { "type": "Point", "coordinates": [ 140.386445699999967, 37.2834419 ] } },
{ "type": "Feature", "properties": { "内容": "さくうん訪問看護ステーション【訪問看護】福島県喜多方市松山町村松字北原3634-1", "url": "https://www.kaigokensaku.mhlw.go.jp/07/index.php?action_kouhyou_detail_004_kani=true&JigyosyoCd=0760890061-00&ServiceCd=130&Type=search", "url2": "http://www.sakuunkai.or.jp/" }, "geometry": { "type": "Point", "coordinates": [ 139.869596799999954, 37.6814596 ] } },
{ "type": "Feature", "properties": { "内容": "ニチイケアセンターしおかわ　訪問看護ステーション【訪問看護】福島県喜多方市塩川町東栄町2丁目2-6", "url": "https://www.kaigokensaku.mhlw.go.jp/07/index.php?action_kouhyou_detail_004_kani=true&JigyosyoCd=0760890079-00&ServiceCd=130&Type=search", "url2": "www.nichiigakkan.co.jp" }, "geometry": { "type": "Point", "coordinates": [ 139.892284099999983, 37.5940715 ] } },
{ "type": "Feature", "properties": { "内容": "佐原訪問看護ステーション【訪問看護】福島県喜多方市字永久7689-1", "url": "https://www.kaigokensaku.mhlw.go.jp/07/index.php?action_kouhyou_detail_004_kani=true&JigyosyoCd=0760890087-00&ServiceCd=130&Type=search", "url2": "https://sawara.or.jp" }, "geometry": { "type": "Point", "coordinates": [ 139.872487, 37.6453996 ] } },
{ "type": "Feature", "properties": { "内容": "訪問看護ステーションなごみ【訪問看護】福島県相馬市沖ノ内1丁目2-8", "url": "https://www.kaigokensaku.mhlw.go.jp/07/index.php?action_kouhyou_detail_004_kani=true&JigyosyoCd=0760990069-00&ServiceCd=130&Type=search", "url2": "http:/soso-cocoro.jp/" }, "geometry": { "type": "Point", "coordinates": [ 140.927785399999948, 37.8041377 ] } },
{ "type": "Feature", "properties": { "内容": "リハビリ訪問看護ステーション　つばさ【訪問看護】福島県相馬市新沼字坪ヶ迫１１番地１", "url": "https://www.kaigokensaku.mhlw.go.jp/07/index.php?action_kouhyou_detail_004_kani=true&JigyosyoCd=0760990044-00&ServiceCd=130&Type=search", "url2": "http://tsubasawings283.tkc.best-hp.jp" }, "geometry": { "type": "Point", "coordinates": [ 140.924068600000027, 37.8108368 ] } },
{ "type": "Feature", "properties": { "内容": "訪問看護ステーションすこやか【訪問看護】福島県相馬市小野字金谷台４６番地", "url": "https://www.kaigokensaku.mhlw.go.jp/07/index.php?action_kouhyou_detail_004_kani=true&JigyosyoCd=0760990077-00&ServiceCd=130&Type=search", "url2": null }, "geometry": { "type": "Point", "coordinates": [ 140.902626985431397, 37.804317335218414 ] } },
{ "type": "Feature", "properties": { "内容": "相馬方部訪問看護ステーション【訪問看護】福島県相馬市新沼字坪ヶ迫142番地公立相馬総合病院内", "url": "https://www.kaigokensaku.mhlw.go.jp/07/index.php?action_kouhyou_detail_004_kani=true&JigyosyoCd=0760990010-00&ServiceCd=130&Type=search", "url2": null }, "geometry": { "type": "Point", "coordinates": [ 140.921709258613646, 37.811224126296544 ] } },
{ "type": "Feature", "properties": { "内容": "訪問看護ステーションあやめ二本松【訪問看護】福島県二本松市郭内1丁目34-1ディアス・パーク202号室", "url": "https://www.kaigokensaku.mhlw.go.jp/07/index.php?action_kouhyou_detail_004_kani=true&JigyosyoCd=0771000718-00&ServiceCd=130&Type=search", "url2": "https://firstnurse.co.jp/" }, "geometry": { "type": "Point", "coordinates": [ 140.4405672, 37.5993179 ] } },
{ "type": "Feature", "properties": { "内容": "おおぞら訪問看護ステーション【訪問看護】福島県二本松市住吉100番地介護老人保健施設やまびこ苑", "url": "https://www.kaigokensaku.mhlw.go.jp/07/index.php?action_kouhyou_detail_004_kani=true&JigyosyoCd=0761090018-00&ServiceCd=130&Type=search", "url2": "www.masu-med.or.jp>regional>sisetsu>oozora_kango" }, "geometry": { "type": "Point", "coordinates": [ 140.403902199999948, 37.5545189 ] } },
{ "type": "Feature", "properties": { "内容": "独立行政法人地域医療機能推進機構二本松病院附属訪問看護ステーション【訪問看護】福島県二本松市成田町1-553", "url": "https://www.kaigokensaku.mhlw.go.jp/07/index.php?action_kouhyou_detail_004_kani=true&JigyosyoCd=0761090026-00&ServiceCd=130&Type=search", "url2": "http://nihonmatsu.jcho.go.jp" }, "geometry": { "type": "Point", "coordinates": [ 140.422146399999974, 37.590424 ] } },
{ "type": "Feature", "properties": { "内容": "JWS陽だまりの郷　訪問看護リハビリステーション【訪問看護】福島県二本松市表二丁目775番地", "url": "https://www.kaigokensaku.mhlw.go.jp/07/index.php?action_kouhyou_detail_004_kani=true&JigyosyoCd=0761090034-00&ServiceCd=130&Type=search", "url2": "http://jws-c.jp" }, "geometry": { "type": "Point", "coordinates": [ 140.436203291787706, 37.604128999503487 ] } },
{ "type": "Feature", "properties": { "内容": "訪問看護ステーション「さくら」【訪問看護】福島県田村市船引町船引字馬場43番地の1", "url": "https://www.kaigokensaku.mhlw.go.jp/07/index.php?action_kouhyou_detail_004_kani=true&JigyosyoCd=0763190055-00&ServiceCd=130&Type=search", "url2": null }, "geometry": { "type": "Point", "coordinates": [ 140.5695366, 37.4422799 ] } },
{ "type": "Feature", "properties": { "内容": "星訪問看護ステーションたむら【訪問看護】福島県田村市船引町船引字南町通111番地たむら市民病院内", "url": "https://www.kaigokensaku.mhlw.go.jp/07/index.php?action_kouhyou_detail_004_kani=true&JigyosyoCd=0761190024-00&ServiceCd=130&Type=search", "url2": "http://www.hoshipital.jp" }, "geometry": { "type": "Point", "coordinates": [ 140.575819656444622, 37.437858598228814 ] } },
{ "type": "Feature", "properties": { "内容": "医療法人　明孝会　青山医院【訪問看護】常葉町常葉字荒町４８", "url": "https://www.kaigokensaku.mhlw.go.jp/07/index.php?action_kouhyou_detail_004_kani=true&JigyosyoCd=0711110148-00&ServiceCd=130&Type=search", "url2": "https://aoyama-cl.jp" }, "geometry": { "type": "Point", "coordinates": [ 140.641800499999988, 37.4388195 ] } },
{ "type": "Feature", "properties": { "内容": "すみれ訪問看護ステーション【訪問看護】福島県田村市船引町船引字砂子田42", "url": "https://www.kaigokensaku.mhlw.go.jp/07/index.php?action_kouhyou_detail_004_kani=true&JigyosyoCd=0761190016-00&ServiceCd=130&Type=search", "url2": "http://funehiki.clinic/" }, "geometry": { "type": "Point", "coordinates": [ 140.571036016891981, 37.445736418743429 ] } },
{ "type": "Feature", "properties": { "内容": "南東北訪問看護ステーション船引【訪問看護】福島県田村市船引町船引字城ノ内17", "url": "https://www.kaigokensaku.mhlw.go.jp/07/index.php?action_kouhyou_detail_004_kani=true&JigyosyoCd=0763190048-00&ServiceCd=130&Type=search", "url2": "http://www.minamitohoku.or.jp/" }, "geometry": { "type": "Point", "coordinates": [ 140.5691091, 37.4385498 ] } },
{ "type": "Feature", "properties": { "内容": "訪問看護ステ－ションえ－る【訪問看護】福島県南相馬市原町区栄町2-78", "url": "https://www.kaigokensaku.mhlw.go.jp/07/index.php?action_kouhyou_detail_004_kani=true&JigyosyoCd=0761290030-00&ServiceCd=130&Type=search", "url2": null }, "geometry": { "type": "Point", "coordinates": [ 140.962775299999947, 37.637678 ] } },
{ "type": "Feature", "properties": { "内容": "福島県厚生農業協同組合連合会　訪問看護ステーション万葉【訪問看護】福島県南相馬市鹿島区横手字川原2番地", "url": "https://www.kaigokensaku.mhlw.go.jp/07/index.php?action_kouhyou_detail_004_kani=true&JigyosyoCd=0763390010-00&ServiceCd=130&Type=search", "url2": "https://kashima-kosei.jp" }, "geometry": { "type": "Point", "coordinates": [ 140.963392399999975, 37.708639900000016 ] } },
{ "type": "Feature", "properties": { "内容": "ライブリー南相馬訪問看護ステーション【訪問看護】福島県南相馬市原町区大木戸字南東方１０１番地の１２", "url": "https://www.kaigokensaku.mhlw.go.jp/07/index.php?action_kouhyou_detail_004_kani=true&JigyosyoCd=0760690057-00&ServiceCd=130&Type=search", "url2": "https://lively-odak.jp/" }, "geometry": { "type": "Point", "coordinates": [ 140.941152699999947, 37.6233925 ] } },
{ "type": "Feature", "properties": { "内容": "訪問看護ステーションつばさ南相馬【訪問看護】原町区馬場字赤柴81-7", "url": "https://www.kaigokensaku.mhlw.go.jp/07/index.php?action_kouhyou_detail_004_kani=true&JigyosyoCd=0761290063-00&ServiceCd=130&Type=search", "url2": "https://tsubasa.hp.gogo.jp/pc/" }, "geometry": { "type": "Point", "coordinates": [ 140.928325653076172, 37.618351569127199 ] } },
{ "type": "Feature", "properties": { "内容": "訪問看護ステーションあやめ伊達【訪問看護】福島県伊達市保原町字中村町10-6ピュア・コスモＢ202号室", "url": "https://www.kaigokensaku.mhlw.go.jp/07/index.php?action_kouhyou_detail_004_kani=true&JigyosyoCd=0761390061-00&ServiceCd=130&Type=search", "url2": "https://firstnurse.co.jp/" }, "geometry": { "type": "Point", "coordinates": [ 140.552997, 37.8156636 ] } },
{ "type": "Feature", "properties": { "内容": "訪問看護ステーション「くわの実」【訪問看護】月舘町御代田字扶桑畑42番地1", "url": "https://www.kaigokensaku.mhlw.go.jp/07/index.php?action_kouhyou_detail_004_kani=true&JigyosyoCd=0761390087-00&ServiceCd=130&Type=search", "url2": "https://hp.kaipoke.biz/67g/index.html" }, "geometry": { "type": "Point", "coordinates": [ 140.608494500000035, 37.7598036 ] } },
{ "type": "Feature", "properties": { "内容": "訪問看護ステーション　ラフター・プー【訪問看護】霊山町山戸田字窪下1２番地", "url": "https://www.kaigokensaku.mhlw.go.jp/07/index.php?action_kouhyou_detail_004_kani=true&JigyosyoCd=0761390053-00&ServiceCd=130&Type=search", "url2": "https://laughterpooh.co.jp" }, "geometry": { "type": "Point", "coordinates": [ 140.6216131, 37.7825588 ] } },
{ "type": "Feature", "properties": { "内容": "指定訪問看護事業所　柿の里訪問看護ステーション【訪問看護】福島県伊達市梁川町字上町36", "url": "https://www.kaigokensaku.mhlw.go.jp/07/index.php?action_kouhyou_detail_004_kani=true&JigyosyoCd=0761390038-00&ServiceCd=130&Type=search", "url2": "https://kakeikai.or.jp/" }, "geometry": { "type": "Point", "coordinates": [ 140.611552677767776, 37.85977790834896 ] } },
{ "type": "Feature", "properties": { "内容": "あぶくま訪問看護ステーション【訪問看護】福島県伊達市保原町上保原字大地内39番地4", "url": "https://www.kaigokensaku.mhlw.go.jp/07/index.php?action_kouhyou_detail_004_kani=true&JigyosyoCd=0762090033-00&ServiceCd=130&Type=search", "url2": ":https://www.jinsenkai.or.jp" }, "geometry": { "type": "Point", "coordinates": [ 140.53004758315447, 37.812454581680413 ] } },
{ "type": "Feature", "properties": { "内容": "訪問看護ステーションドレミファ【訪問看護】福島県伊達市広前6番地1", "url": "https://www.kaigokensaku.mhlw.go.jp/07/index.php?action_kouhyou_detail_004_kani=true&JigyosyoCd=0761390079-00&ServiceCd=130&Type=search", "url2": "https://doremifa.co.jp/" }, "geometry": { "type": "Point", "coordinates": [ 140.5034967, 37.8201038 ] } },
{ "type": "Feature", "properties": { "内容": "指定訪問看護事業所「掛田訪問看護ステーション」【訪問看護】福島県伊達市霊山町掛田字岡30-9", "url": "https://www.kaigokensaku.mhlw.go.jp/07/index.php?action_kouhyou_detail_004_kani=true&JigyosyoCd=0762090025-00&ServiceCd=130&Type=search", "url2": "https://youi-kai.org" }, "geometry": { "type": "Point", "coordinates": [ 140.593720332357094, 37.782174282993175 ] } },
{ "type": "Feature", "properties": { "内容": "谷訪問看護ステーション【訪問看護】福島県本宮市本宮字南町裡129番地", "url": "https://www.kaigokensaku.mhlw.go.jp/07/index.php?action_kouhyou_detail_004_kani=true&JigyosyoCd=0762190015-00&ServiceCd=130&Type=search", "url2": "https://www.tanihospital.jp/tani-station/" }, "geometry": { "type": "Point", "coordinates": [ 140.400581399999965, 37.5159449 ] } },
{ "type": "Feature", "properties": { "内容": "よつば訪問看護リハビリステーション【訪問看護】福島県本宮市本宮中條79-3スタジオナカジョウ２階", "url": "https://www.kaigokensaku.mhlw.go.jp/07/index.php?action_kouhyou_detail_004_kani=true&JigyosyoCd=0761490010-00&ServiceCd=130&Type=search", "url2": "https://www.yotuba-houkanriha.com/" }, "geometry": { "type": "Point", "coordinates": [ 140.4017447, 37.5129611 ] } },
{ "type": "Feature", "properties": { "内容": "るーちぇ訪問看護ステーションあじさい【訪問看護】福島県伊達郡桑折町大字谷地字道窪2番2", "url": "https://www.kaigokensaku.mhlw.go.jp/07/index.php?action_kouhyou_detail_004_kani=true&JigyosyoCd=0762090082-00&ServiceCd=130&Type=search", "url2": "https://www.vivo-co.jp/" }, "geometry": { "type": "Point", "coordinates": [ 140.522373832249201, 37.859263378510335 ] } },
{ "type": "Feature", "properties": { "内容": "合同会社　ほしぞら【訪問看護】福島県伊達郡桑折町下郡字八幡12", "url": "https://www.kaigokensaku.mhlw.go.jp/07/index.php?action_kouhyou_detail_004_kani=true&JigyosyoCd=0762090074-00&ServiceCd=130&Type=search", "url2": null }, "geometry": { "type": "Point", "coordinates": [ 140.53826810000001, 37.850831900000017 ] } },
{ "type": "Feature", "properties": { "内容": "株式会社ハピネクスト【訪問看護】福島県伊達郡川俣町大字小神字正道11番地の6", "url": "https://www.kaigokensaku.mhlw.go.jp/07/index.php?action_kouhyou_detail_004_kani=true&JigyosyoCd=0762090090-00&ServiceCd=130&Type=search", "url2": "https://happinext-lifesupport.jp/" }, "geometry": { "type": "Point", "coordinates": [ 140.5861306, 37.6728001 ] } },
{ "type": "Feature", "properties": { "内容": "済生会川俣訪問看護ステーション【訪問看護】福島県伊達郡川俣町鶴沢字川端２番地4", "url": "https://www.kaigokensaku.mhlw.go.jp/07/index.php?action_kouhyou_detail_004_kani=true&JigyosyoCd=0762090066-00&ServiceCd=130&Type=search", "url2": "http://www.kawamata.saiseikai.or.jp" }, "geometry": { "type": "Point", "coordinates": [ 140.595933100000025, 37.664233 ] } },
{ "type": "Feature", "properties": { "内容": "うつくしま訪問看護ステーションかがみいし「訪問看護ステーションほのぼの」【訪問看護】福島県岩瀬郡鏡石町不時沼５２番地", "url": "https://www.kaigokensaku.mhlw.go.jp/07/index.php?action_kouhyou_detail_004_kani=true&JigyosyoCd=0762290013-00&ServiceCd=130&Type=search", "url2": null }, "geometry": { "type": "Point", "coordinates": [ 140.349245054415064, 37.258509537540952 ] } },
{ "type": "Feature", "properties": { "内容": "只見町国民健康保険朝日診療所訪問看護【訪問看護】福島県南会津郡只見町大字長浜字久保田３１番地", "url": "https://www.kaigokensaku.mhlw.go.jp/07/index.php?action_kouhyou_detail_004_kani=true&JigyosyoCd=0712310804-00&ServiceCd=130&Type=search", "url2": "https://www.town.tadami.lg.jp" }, "geometry": { "type": "Point", "coordinates": [ 139.3753451, 37.304015 ] } },
{ "type": "Feature", "properties": { "内容": "福島県立南会津病院　みなみあいづ訪問看護ステーション【訪問看護】福島県南会津郡南会津町永田字風下14-1", "url": "https://www.kaigokensaku.mhlw.go.jp/07/index.php?action_kouhyou_detail_004_kani=true&JigyosyoCd=0762390045-00&ServiceCd=130&Type=search", "url2": "https://www.pref.fukushima.lg.jp/sec/25190a/minamiaidubyouin.html" }, "geometry": { "type": "Point", "coordinates": [ 139.76027780000004, 37.206442951142641 ] } },
{ "type": "Feature", "properties": { "内容": "西会津町訪問看護事業所【訪問看護】福島県耶麻郡西会津町登世島字田畑乙2042-65", "url": "https://www.kaigokensaku.mhlw.go.jp/07/index.php?action_kouhyou_detail_004_kani=true&JigyosyoCd=0762590040-00&ServiceCd=130&Type=search", "url2": null }, "geometry": { "type": "Point", "coordinates": [ 139.639561, 37.597925 ] } },
{ "type": "Feature", "properties": { "内容": "福島県厚生農業協同組合連合会　ばんげ訪問看護ステーション【訪問看護】福島県河沼郡会津坂下町字上柳田2210-1坂下厚生総合病院1階", "url": "https://www.kaigokensaku.mhlw.go.jp/07/index.php?action_kouhyou_detail_004_kani=true&JigyosyoCd=0762690014-00&ServiceCd=130&Type=search", "url2": "https://www.bange-kosei.jp/" }, "geometry": { "type": "Point", "coordinates": [ 139.808028608953919, 37.566148484148762 ] } },
{ "type": "Feature", "properties": { "内容": "福島県立宮下病院【訪問看護】福島県大沼郡三島町大字宮下字水尻1150", "url": "https://www.kaigokensaku.mhlw.go.jp/07/index.php?action_kouhyou_detail_004_kani=true&JigyosyoCd=0712710441-00&ServiceCd=130&Type=search", "url2": "https://www.pref.fukushima.lg.jp/sec/25180a/" }, "geometry": { "type": "Point", "coordinates": [ 139.6474619, 37.4734106 ] } },
{ "type": "Feature", "properties": { "内容": "訪問看護ステーション白河【訪問看護】福島県西白河郡西郷村字下前田東３－３サンライズ新白河Ａ１ーＢ", "url": "https://www.kaigokensaku.mhlw.go.jp/07/index.php?action_kouhyou_detail_004_kani=true&JigyosyoCd=0772801148-00&ServiceCd=130&Type=search", "url2": null }, "geometry": { "type": "Point", "coordinates": [ 140.116214500000012, 37.2052721 ] } },
{ "type": "Feature", "properties": { "内容": "ニコニコ訪問看護ステーション【訪問看護】福島県西白河郡西郷村字下前田東５－１", "url": "https://www.kaigokensaku.mhlw.go.jp/07/index.php?action_kouhyou_detail_004_kani=true&JigyosyoCd=0762890044-00&ServiceCd=130&Type=search", "url2": "http://www.hakueikai.gr.jp/" }, "geometry": { "type": "Point", "coordinates": [ 140.19035580000002, 37.1228673 ] } },
{ "type": "Feature", "properties": { "内容": "泉崎南東北訪問看護ステーション【訪問看護】福島県西白河郡泉崎村大字泉崎字山ケ入１０１番地", "url": "https://www.kaigokensaku.mhlw.go.jp/07/index.php?action_kouhyou_detail_004_kani=true&JigyosyoCd=0762890077-00&ServiceCd=130&Type=search", "url2": "izumizakihomonreha@mt.strins.or.jp" }, "geometry": { "type": "Point", "coordinates": [ 140.291604799999959, 37.1581216 ] } },
{ "type": "Feature", "properties": { "内容": "すみれ訪問看護ステーション【訪問看護】福島県西白河郡矢吹町本町198番地", "url": "https://www.kaigokensaku.mhlw.go.jp/07/index.php?action_kouhyou_detail_004_kani=true&JigyosyoCd=0762890010-00&ServiceCd=130&Type=search", "url2": "http://www.aida-hp.or.ip/" }, "geometry": { "type": "Point", "coordinates": [ 140.326401, 37.2062047 ] } },
{ "type": "Feature", "properties": { "内容": "福島県厚生農業協同組合連合会　はなわ訪問看護ステーション【訪問看護】福島県東白川郡塙町大字塙字大町1-5", "url": "https://www.kaigokensaku.mhlw.go.jp/07/index.php?action_kouhyou_detail_004_kani=true&JigyosyoCd=0762990026-00&ServiceCd=130&Type=search", "url2": "hittp://www.hanawa-fkousei.jp/outline.html" }, "geometry": { "type": "Point", "coordinates": [ 140.408359099999984, 36.9601452 ] } },
{ "type": "Feature", "properties": { "内容": "あおぞら訪問看護ステーション【訪問看護】福島県東白川郡塙町大字塙字大町3-35", "url": "https://www.kaigokensaku.mhlw.go.jp/07/index.php?action_kouhyou_detail_004_kani=true&JigyosyoCd=0762990042-00&ServiceCd=130&Type=search", "url2": "https://www.kurumadahp.com" }, "geometry": { "type": "Point", "coordinates": [ 140.409478475779736, 36.956660869466567 ] } },
{ "type": "Feature", "properties": { "内容": "愛恵訪問看護ステーション【訪問看護】福島県石川郡石川町字古舘337番地", "url": "https://www.kaigokensaku.mhlw.go.jp/07/index.php?action_kouhyou_detail_004_kani=true&JigyosyoCd=0763090016-00&ServiceCd=130&Type=search", "url2": null }, "geometry": { "type": "Point", "coordinates": [ 140.455850400000031, 37.1529896 ] } },
{ "type": "Feature", "properties": { "内容": "誠励会訪問看護ステ－ションひらた【訪問看護】福島県石川郡平田村大字上蓬田字清水内　４ひらた中央病院内", "url": "https://www.kaigokensaku.mhlw.go.jp/07/index.php?action_kouhyou_detail_004_kani=true&JigyosyoCd=0763090024-00&ServiceCd=130&Type=search", "url2": "www.seireikai.net" }, "geometry": { "type": "Point", "coordinates": [ 140.5681482, 37.2439409 ] } },
{ "type": "Feature", "properties": { "内容": "しゃくなげ三春訪問看護ステーション【訪問看護】福島県田村郡三春町担橋一丁目2番5", "url": "https://www.kaigokensaku.mhlw.go.jp/07/index.php?action_kouhyou_detail_004_kani=true&JigyosyoCd=0763190014-00&ServiceCd=130&Type=search", "url2": "https://www.fna.or.jp" }, "geometry": { "type": "Point", "coordinates": [ 140.485451248600839, 37.447396652672666 ] } },
{ "type": "Feature", "properties": { "内容": "なごみケア訪問看護ステーション【訪問看護】福島県田村郡三春町字大町106番地の1", "url": "https://www.kaigokensaku.mhlw.go.jp/07/index.php?action_kouhyou_detail_004_kani=true&JigyosyoCd=0763190071-00&ServiceCd=130&Type=search", "url2": "https://nagomicare.net/" }, "geometry": { "type": "Point", "coordinates": [ 140.489571624536893, 37.442514835211682 ] } },
{ "type": "Feature", "properties": { "内容": "在宅看護センター陽だまり訪問看護リハビリステーション【訪問看護】福島県田村郡三春町字荒町101番地", "url": "https://www.kaigokensaku.mhlw.go.jp/07/index.php?action_kouhyou_detail_004_kani=true&JigyosyoCd=0763190089-00&ServiceCd=130&Type=search", "url2": "https://www.hidamari349.com/" }, "geometry": { "type": "Point", "coordinates": [ 140.48764244685222, 37.443850857986199 ] } },
{ "type": "Feature", "properties": { "内容": "訪問看護ステーションこまちの里【訪問看護】福島県田村郡小野町大字小野新町字槻木内６番地２公立小野町地方綜合病院", "url": "https://www.kaigokensaku.mhlw.go.jp/07/index.php?action_kouhyou_detail_004_kani=true&JigyosyoCd=0763190030-00&ServiceCd=130&Type=search", "url2": "www.ono-hp.jp/" }, "geometry": { "type": "Point", "coordinates": [ 140.626855224879705, 37.289688035755681 ] } },
{ "type": "Feature", "properties": { "内容": "医療法人社団養高会　訪問看護ステーション　たかの【訪問看護】福島県双葉郡広野町大字下北迫字東町214番地", "url": "https://www.kaigokensaku.mhlw.go.jp/07/index.php?action_kouhyou_detail_004_kani=true&JigyosyoCd=0763290053-00&ServiceCd=130&Type=search", "url2": "http://takano-hosp.jp" }, "geometry": { "type": "Point", "coordinates": [ 141.00655919999997, 37.2186109 ] } },
{ "type": "Feature", "properties": { "内容": "あがべご訪問看護ステーション【訪問看護】福島県相馬郡飯舘村飯樋字町387", "url": "https://www.kaigokensaku.mhlw.go.jp/07/index.php?action_kouhyou_detail_004_kani=true&JigyosyoCd=0773300330-00&ServiceCd=130&Type=search", "url2": "peraichi.com/landing_pages/view/agabego" }, "geometry": { "type": "Point", "coordinates": [ 140.72475419202172, 37.658152214649625 ] } }
]
}
