{
"type": "FeatureCollection",
"name": "geo_07_地域密着型特定施設入居者生活介護（有料老人ホーム）",
"crs": { "type": "name", "properties": { "name": "urn:ogc:def:crs:OGC:1.3:CRS84" } },
"features": [
{ "type": "Feature", "properties": { "内容": "介護付有料老人ホーム　縁【地域密着型特定施設入居者生活介護（有料老人ホーム）】福島県郡山市富田東6丁目95", "url2": "https://www.kaigokensaku.mhlw.go.jp/07/index.php?action_kouhyou_detail_004_kani=true&JigyosyoCd=0790300792-00&ServiceCd=361&Type=search" }, "geometry": { "type": "Point", "coordinates": [ 140.375596851589989, 37.421783126296965 ] } },
{ "type": "Feature", "properties": { "内容": "スマイルステージ五百渕【地域密着型特定施設入居者生活介護（有料老人ホーム）】福島県郡山市字名倉16-1", "url2": "https://www.kaigokensaku.mhlw.go.jp/07/index.php?action_kouhyou_detail_004_kani=true&JigyosyoCd=0790300677-00&ServiceCd=361&Type=search" }, "geometry": { "type": "Point", "coordinates": [ 140.363856299999952, 37.377234500000043 ] } },
{ "type": "Feature", "properties": { "内容": "介護の森　きたしらど【地域密着型特定施設入居者生活介護（有料老人ホーム）】福島県いわき市平北白土字ネキ内４９番地の１、５０番地の１", "url2": "https://www.kaigokensaku.mhlw.go.jp/07/index.php?action_kouhyou_detail_004_kani=true&JigyosyoCd=0790400550-00&ServiceCd=361&Type=search" }, "geometry": { "type": "Point", "coordinates": [ 140.9168795, 37.0510448 ] } },
{ "type": "Feature", "properties": { "内容": "介護付有料老人ホーム　ベルハウス塩川【地域密着型特定施設入居者生活介護（有料老人ホーム）】福島県喜多方市塩川町御殿場三丁目36番地", "url2": "https://www.kaigokensaku.mhlw.go.jp/07/index.php?action_kouhyou_detail_004_kani=true&JigyosyoCd=0790800031-00&ServiceCd=361&Type=search" }, "geometry": { "type": "Point", "coordinates": [ 139.8830916, 37.595598500000051 ] } },
{ "type": "Feature", "properties": { "内容": "JWS陽だまりの郷　地域密着型特定施設入居者生活介護【地域密着型特定施設入居者生活介護（有料老人ホーム）】福島県二本松市表二丁目772番地", "url2": "https://www.kaigokensaku.mhlw.go.jp/07/index.php?action_kouhyou_detail_004_kani=true&JigyosyoCd=0791000052-00&ServiceCd=361&Type=search" }, "geometry": { "type": "Point", "coordinates": [ 140.436105199999986, 37.60432 ] } }
]
}
