{
"type": "FeatureCollection",
"name": "geo_07_看護小規模多機能型居宅介護（複合型サービス）",
"crs": { "type": "name", "properties": { "name": "urn:ogc:def:crs:OGC:1.3:CRS84" } },
"features": [
{ "type": "Feature", "properties": { "内容": "ライフ吉井田看護小規模多機能型居宅介護事業所【看護小規模多機能型居宅介護（複合型サービス）】福島県福島市吉倉字谷地73番の1", "url": "https://www.kaigokensaku.mhlw.go.jp/07/index.php?action_kouhyou_detail_004_kani=true&JigyosyoCd=0790100523-00&ServiceCd=&Type=search", "url2": "http://www.life-time-fukushima.jp/" }, "geometry": { "type": "Point", "coordinates": [ 140.445098928503285, 37.741301309848033 ] } },
{ "type": "Feature", "properties": { "内容": "看護小規模多機能型居宅介護事業所たゆたふ【看護小規模多機能型居宅介護（複合型サービス）】福島県福島市森合字屋敷中15-8", "url": "https://www.kaigokensaku.mhlw.go.jp/07/index.php?action_kouhyou_detail_004_kani=true&JigyosyoCd=0790100911-00&ServiceCd=&Type=search", "url2": "http://www.maru-kita.co.jp/" }, "geometry": { "type": "Point", "coordinates": [ 140.456007799999952, 37.764551 ] } },
{ "type": "Feature", "properties": { "内容": "リブレ松川看護小規模多機能型居宅事業所【看護小規模多機能型居宅介護（複合型サービス）】福島市松川町美郷４丁目１３番８", "url": "https://www.kaigokensaku.mhlw.go.jp/07/index.php?action_kouhyou_detail_004_kani=true&JigyosyoCd=0790100986-00&ServiceCd=&Type=search", "url2": "https://www.libre-lifesupport.jp" }, "geometry": { "type": "Point", "coordinates": [ 140.472796798147584, 37.665638525225184 ] } },
{ "type": "Feature", "properties": { "内容": "一般財団法人脳神経疾患研究所　看護小規模多機能型居宅介護事業所　在宅看護センター結の学校【看護小規模多機能型居宅介護（複合型サービス）】福島県福島市南沢又字曲堀東23-2", "url": "https://www.kaigokensaku.mhlw.go.jp/07/index.php?action_kouhyou_detail_004_kani=true&JigyosyoCd=0790100655-00&ServiceCd=&Type=search", "url2": null }, "geometry": { "type": "Point", "coordinates": [ 140.440877900000032, 37.7738231 ] } },
{ "type": "Feature", "properties": { "内容": "リブレ松川看護小規模多機能型居宅介護事業所サテライト【看護小規模多機能型居宅介護（複合型サービス）】福島県福島市松川町美郷4丁目13番4", "url": "https://www.kaigokensaku.mhlw.go.jp/07/index.php?action_kouhyou_detail_004_kani=true&JigyosyoCd=0790101174-00&ServiceCd=&Type=search", "url2": "https://www.libre-lifesupport.jp" }, "geometry": { "type": "Point", "coordinates": [ 140.473005699999987, 37.6655695 ] } },
{ "type": "Feature", "properties": { "内容": "看護小規模多機能型居宅介護事業所かをり【看護小規模多機能型居宅介護（複合型サービス）】福島県会津若松市本町2-60へるすぷらざ山鹿２号館", "url": "https://www.kaigokensaku.mhlw.go.jp/07/index.php?action_kouhyou_detail_004_kani=true&JigyosyoCd=0790200356-00&ServiceCd=&Type=search", "url2": "http://www.takeda.or,jp" }, "geometry": { "type": "Point", "coordinates": [ 139.9207845, 37.4918679 ] } },
{ "type": "Feature", "properties": { "内容": "ホームケアＣＯＣＯＬＯ【看護小規模多機能型居宅介護（複合型サービス）】福島県会津若松市本町3番20号", "url": "https://www.kaigokensaku.mhlw.go.jp/07/index.php?action_kouhyou_detail_004_kani=true&JigyosyoCd=0790200208-00&ServiceCd=&Type=search", "url2": "ｈｔｔｐ//www.khaos.jp/" }, "geometry": { "type": "Point", "coordinates": [ 139.9194245, 37.4924807 ] } },
{ "type": "Feature", "properties": { "内容": "看護小規模多機能型居宅介護　医療生協のどか【看護小規模多機能型居宅介護（複合型サービス）】福島県会津若松市東千石一丁目2-17看護小規模多機能型居宅介護・住宅型有料老人ホーム　医療生協のどか", "url": "https://www.kaigokensaku.mhlw.go.jp/07/index.php?action_kouhyou_detail_004_kani=true&JigyosyoCd=0790200349-00&ServiceCd=&Type=search", "url2": "https://aizu-health.coop" }, "geometry": { "type": "Point", "coordinates": [ 139.944719536245628, 37.496367743914149 ] } },
{ "type": "Feature", "properties": { "内容": "福島県会津若松市北青木１－１０【看護小規模多機能型居宅介護（複合型サービス）】会津若松市北青木１－１０", "url": "https://www.kaigokensaku.mhlw.go.jp/07/index.php?action_kouhyou_detail_004_kani=true&JigyosyoCd=0790200455-00&ServiceCd=&Type=search", "url2": "https://search.yasashiite.com/detail/kantaki_kitaaoki/" }, "geometry": { "type": "Point", "coordinates": [ 139.9374416, 37.4816269 ] } },
{ "type": "Feature", "properties": { "内容": "ナースケア図景【看護小規模多機能型居宅介護（複合型サービス）】福島県郡山市図景1-2-23ナースケア図景", "url": "https://www.kaigokensaku.mhlw.go.jp/07/index.php?action_kouhyou_detail_004_kani=true&JigyosyoCd=0790301204-00&ServiceCd=&Type=search", "url2": "https://funehiki.clinic/facilities/%e3%83%8a%e3%83%bc%e3%82%b9%e3%82%b1%e3%82%a2%e5%9b%b3%e6%99%af" }, "geometry": { "type": "Point", "coordinates": [ 140.3786531, 37.3855388 ] } },
{ "type": "Feature", "properties": { "内容": "看護小規模多機能ゆうやけの家【看護小規模多機能型居宅介護（複合型サービス）】福島県いわき市小名浜住吉字浜宿23-1", "url": "https://www.kaigokensaku.mhlw.go.jp/07/index.php?action_kouhyou_detail_004_kani=true&JigyosyoCd=0790401327-00&ServiceCd=&Type=search", "url2": null }, "geometry": { "type": "Point", "coordinates": [ 140.8859837, 36.9758008 ] } },
{ "type": "Feature", "properties": { "内容": "はぴねす広場【看護小規模多機能型居宅介護（複合型サービス）】福島県いわき市内郷御台境町六反田78番地の１", "url": "https://www.kaigokensaku.mhlw.go.jp/07/index.php?action_kouhyou_detail_004_kani=true&JigyosyoCd=0790400782-00&ServiceCd=&Type=search", "url2": null }, "geometry": { "type": "Point", "coordinates": [ 140.866027700200988, 37.053560585049567 ] } },
{ "type": "Feature", "properties": { "内容": "ナーシングホーム楓【看護小規模多機能型居宅介護（複合型サービス）】福島県いわき市平字紅葉町40番地の9", "url": "https://www.kaigokensaku.mhlw.go.jp/07/index.php?action_kouhyou_detail_004_kani=true&JigyosyoCd=0790401467-00&ServiceCd=&Type=search", "url2": "careforest.jp" }, "geometry": { "type": "Point", "coordinates": [ 140.8920828, 37.0645367 ] } },
{ "type": "Feature", "properties": { "内容": "結【看護小規模多機能型居宅介護（複合型サービス）】福島県田村市船引町船引字砂子田198", "url": "https://www.kaigokensaku.mhlw.go.jp/07/index.php?action_kouhyou_detail_004_kani=true&JigyosyoCd=0791100035-00&ServiceCd=&Type=search", "url2": "http://funehiki.clinic/" }, "geometry": { "type": "Point", "coordinates": [ 140.572502900000018, 37.4449935 ] } },
{ "type": "Feature", "properties": { "内容": "看護小規模多機能型居宅介護　ナーシングホームつばさ原町【看護小規模多機能型居宅介護（複合型サービス）】福島県南相馬市原町区馬場字赤柴81-7", "url": "https://www.kaigokensaku.mhlw.go.jp/07/index.php?action_kouhyou_detail_004_kani=true&JigyosyoCd=0791200173-00&ServiceCd=&Type=search", "url2": "https://tsubasa.hp.gogo.jp" }, "geometry": { "type": "Point", "coordinates": [ 140.9250178, 37.6182805 ] } },
{ "type": "Feature", "properties": { "内容": "たいせい　大泉の杜【看護小規模多機能型居宅介護（複合型サービス）】保原町大泉字大地内108番地1", "url": "https://www.kaigokensaku.mhlw.go.jp/07/index.php?action_kouhyou_detail_004_kani=true&JigyosyoCd=0791300288-00&ServiceCd=&Type=search", "url2": "https://taisei-kaigo.jp" }, "geometry": { "type": "Point", "coordinates": [ 140.5633659, 37.820808700000015 ] } },
{ "type": "Feature", "properties": { "内容": "指定看護小規模多機能型居宅介護事業所　よるべ【看護小規模多機能型居宅介護（複合型サービス）】福島県伊達市梁川町天神前3-1　2F", "url": "https://www.kaigokensaku.mhlw.go.jp/07/index.php?action_kouhyou_detail_004_kani=true&JigyosyoCd=0791300247-00&ServiceCd=&Type=search", "url2": "https://kakeikai.or.jp/" }, "geometry": { "type": "Point", "coordinates": [ 140.6116941, 37.8605685 ] } },
{ "type": "Feature", "properties": { "内容": "看護小規模多機能型居宅介護事業所「くわの実」【看護小規模多機能型居宅介護（複合型サービス）】福島県伊達市月舘町御代田字扶桑畑42番地1", "url": "https://www.kaigokensaku.mhlw.go.jp/07/index.php?action_kouhyou_detail_004_kani=true&JigyosyoCd=0791300338-00&ServiceCd=&Type=search", "url2": "https://morieno.com" }, "geometry": { "type": "Point", "coordinates": [ 140.6084945, 37.7598036 ] } },
{ "type": "Feature", "properties": { "内容": "あじさいファミリア【看護小規模多機能型居宅介護（複合型サービス）】福島県伊達郡桑折町大字谷地字道窪2番2", "url": "https://www.kaigokensaku.mhlw.go.jp/07/index.php?action_kouhyou_detail_004_kani=true&JigyosyoCd=0792000077-00&ServiceCd=&Type=search", "url2": "https://vivo-co.jp/" }, "geometry": { "type": "Point", "coordinates": [ 140.522360302902229, 37.859127497959264 ] } }
]
}
