{
"type": "FeatureCollection",
"name": "geo_07_専修学校",
"crs": { "type": "name", "properties": { "name": "urn:ogc:def:crs:EPSG::6668" } },
"features": [
{ "type": "Feature", "properties": { "P29_001": "07204", "P29_002": "H107220480017", "P29_003": "16016", "P29_004": "いわき市医療センター看護専門学校", "P29_005": "福島県いわき市内郷御厩町3-91-1", "P29_006": "3", "P29_007": "0", "P29_008": "00", "P29_009": null }, "geometry": { "type": "Point", "coordinates": [ 140.871529516627277, 37.048433842946373 ] } },
{ "type": "Feature", "properties": { "P29_001": "07207", "P29_002": "H107220780014", "P29_003": "16016", "P29_004": "公立岩瀬病院附属高等看護学院", "P29_005": "福島県須賀川市北町20", "P29_006": "2", "P29_007": "0", "P29_008": "00", "P29_009": null }, "geometry": { "type": "Point", "coordinates": [ 140.373495641204045, 37.295050002341327 ] } },
{ "type": "Feature", "properties": { "P29_001": "07209", "P29_002": "H107220981011", "P29_003": "16016", "P29_004": "相馬看護専門学校", "P29_005": "福島県相馬市石上字南蛯沢344", "P29_006": "3", "P29_007": "0", "P29_008": "00", "P29_009": null }, "geometry": { "type": "Point", "coordinates": [ 140.916698998668551, 37.810943567352901 ] } },
{ "type": "Feature", "properties": { "P29_001": "07466", "P29_002": "H107246680010", "P29_003": "16016", "P29_004": "福島県農業総合センター農業短期大学校", "P29_005": "福島県西白河郡矢吹町一本木446-1", "P29_006": "2", "P29_007": "0", "P29_008": "00", "P29_009": null }, "geometry": { "type": "Point", "coordinates": [ 140.340606944492151, 37.198679195033556 ] } },
{ "type": "Feature", "properties": { "P29_001": "07201", "P29_002": "H107320181026", "P29_003": "16016", "P29_004": "大原看護専門学校", "P29_005": "福島県福島市鎌田字原際7-3", "P29_006": "4", "P29_007": "0", "P29_008": "00", "P29_009": null }, "geometry": { "type": "Point", "coordinates": [ 140.479240735208435, 37.798188658229918 ] } },
{ "type": "Feature", "properties": { "P29_001": "07201", "P29_002": "H107320181035", "P29_003": "16016", "P29_004": "尚志学園専修学校", "P29_005": "福島県福島市早稲町2-24", "P29_006": "4", "P29_007": "0", "P29_008": "00", "P29_009": null }, "geometry": { "type": "Point", "coordinates": [ 140.461381997759304, 37.752559001647342 ] } },
{ "type": "Feature", "properties": { "P29_001": "07201", "P29_002": "H107320181044", "P29_003": "16016", "P29_004": "有朋高等学院", "P29_005": "福島県福島市松木町10-13", "P29_006": "4", "P29_007": "0", "P29_008": "00", "P29_009": null }, "geometry": { "type": "Point", "coordinates": [ 140.472430924025304, 37.75990354459352 ] } },
{ "type": "Feature", "properties": { "P29_001": "07201", "P29_002": "H107320181053", "P29_003": "16016", "P29_004": "フィジカルムーブメント専門学校", "P29_005": "福島県福島市南沢又字明神北4-1", "P29_006": "4", "P29_007": "0", "P29_008": "00", "P29_009": null }, "geometry": { "type": "Point", "coordinates": [ 140.429808522456256, 37.77766344590794 ] } },
{ "type": "Feature", "properties": { "P29_001": "07201", "P29_002": "H107320181062", "P29_003": "16016", "P29_004": "福島看護専門学校", "P29_005": "福島県福島市栄町1-37", "P29_006": "4", "P29_007": "0", "P29_008": "00", "P29_009": null }, "geometry": { "type": "Point", "coordinates": [ 140.460354564067018, 37.757608528046681 ] } },
{ "type": "Feature", "properties": { "P29_001": "07201", "P29_002": "H107320181071", "P29_003": "16016", "P29_004": "福島県高等理容美容学院", "P29_005": "福島県福島市渡利字馬場町14-2", "P29_006": "4", "P29_007": "0", "P29_008": "00", "P29_009": null }, "geometry": { "type": "Point", "coordinates": [ 140.476869187560226, 37.746923156977395 ] } },
{ "type": "Feature", "properties": { "P29_001": "07202", "P29_002": "H107320281016", "P29_003": "16016", "P29_004": "会津服装専門学校", "P29_005": "福島県会津若松市栄町5-23", "P29_006": "4", "P29_007": "0", "P29_008": "00", "P29_009": null }, "geometry": { "type": "Point", "coordinates": [ 139.930751332747661, 37.496354879877408 ] } },
{ "type": "Feature", "properties": { "P29_001": "07202", "P29_002": "H107320281025", "P29_003": "16016", "P29_004": "シークドレスメーカー専門学校", "P29_005": "福島県会津若松市宮町4-45", "P29_006": "4", "P29_007": "0", "P29_008": "00", "P29_009": null }, "geometry": { "type": "Point", "coordinates": [ 139.935051584656179, 37.495415689462291 ] } },
{ "type": "Feature", "properties": { "P29_001": "07202", "P29_002": "H107320281034", "P29_003": "16016", "P29_004": "竹田看護専門学校", "P29_005": "福島県会津若松市本町2-58", "P29_006": "4", "P29_007": "0", "P29_008": "00", "P29_009": null }, "geometry": { "type": "Point", "coordinates": [ 139.919729537086567, 37.491978443038988 ] } },
{ "type": "Feature", "properties": { "P29_001": "07202", "P29_002": "H107320281043", "P29_003": "16016", "P29_004": "ＡＩＺＵビューティーカレッジ", "P29_005": "福島県会津若松市駅前町4-3", "P29_006": "4", "P29_007": "0", "P29_008": "00", "P29_009": null }, "geometry": { "type": "Point", "coordinates": [ 139.929917626251097, 37.500804180256935 ] } },
{ "type": "Feature", "properties": { "P29_001": "07202", "P29_002": "H107320281052", "P29_003": "16016", "P29_004": "温知会看護学院", "P29_005": "福島県会津若松市鶴賀町1-6", "P29_006": "4", "P29_007": "0", "P29_008": "00", "P29_009": null }, "geometry": { "type": "Point", "coordinates": [ 139.947190894953678, 37.520849192569393 ] } },
{ "type": "Feature", "properties": { "P29_001": "07202", "P29_002": "H107320281061", "P29_003": "16016", "P29_004": "会津若松医師会附属会津准看護高等専修学校", "P29_005": "福島県会津若松市インター西33-5", "P29_006": "4", "P29_007": "0", "P29_008": "00", "P29_009": null }, "geometry": { "type": "Point", "coordinates": [ 139.916031939995719, 37.524358938950598 ] } },
{ "type": "Feature", "properties": { "P29_001": "07202", "P29_002": "H107320281070", "P29_003": "16016", "P29_004": "専修学校城南スクール", "P29_005": "福島県会津若松市城南町1-36", "P29_006": "4", "P29_007": "0", "P29_008": "00", "P29_009": null }, "geometry": { "type": "Point", "coordinates": [ 139.927303743737696, 37.486771210600736 ] } },
{ "type": "Feature", "properties": { "P29_001": "07203", "P29_002": "H107320381015", "P29_003": "16016", "P29_004": "学校法人今泉学園今泉服飾専門学校", "P29_005": "福島県郡山市大町1-2-3", "P29_006": "4", "P29_007": "0", "P29_008": "00", "P29_009": null }, "geometry": { "type": "Point", "coordinates": [ 140.384224999946213, 37.39901500185524 ] } },
{ "type": "Feature", "properties": { "P29_001": "07203", "P29_002": "H107320381024", "P29_003": "16016", "P29_004": "ケイセンビジネス公務員カレッジ", "P29_005": "福島県郡山市芳賀2-3-5", "P29_006": "4", "P29_007": "0", "P29_008": "00", "P29_009": null }, "geometry": { "type": "Point", "coordinates": [ 140.394879957059715, 37.392158377189794 ] } },
{ "type": "Feature", "properties": { "P29_001": "07203", "P29_002": "H107320381033", "P29_003": "16016", "P29_004": "基世学園実務専門学校", "P29_005": "福島県郡山市菜根1-12-19", "P29_006": "4", "P29_007": "0", "P29_008": "00", "P29_009": null }, "geometry": { "type": "Point", "coordinates": [ 140.362829971155236, 37.387434926565888 ] } },
{ "type": "Feature", "properties": { "P29_001": "07203", "P29_002": "H107320381042", "P29_003": "16016", "P29_004": "東北歯科専門学校", "P29_005": "福島県郡山市細沼町12-18", "P29_006": "4", "P29_007": "0", "P29_008": "00", "P29_009": null }, "geometry": { "type": "Point", "coordinates": [ 140.378184581363115, 37.396888595510731 ] } },
{ "type": "Feature", "properties": { "P29_001": "07203", "P29_002": "H107320381051", "P29_003": "16016", "P29_004": "ポラリス保健看護学院", "P29_005": "福島県郡山市向河原町159-7", "P29_006": "4", "P29_007": "0", "P29_008": "00", "P29_009": null }, "geometry": { "type": "Point", "coordinates": [ 140.392544505171543, 37.401585158727912 ] } },
{ "type": "Feature", "properties": { "P29_001": "07203", "P29_002": "H107320381060", "P29_003": "16016", "P29_004": "太田看護専門学校", "P29_005": "福島県郡山市緑町26-14", "P29_006": "4", "P29_007": "0", "P29_008": "00", "P29_009": null }, "geometry": { "type": "Point", "coordinates": [ 140.365228983034768, 37.405227339714877 ] } },
{ "type": "Feature", "properties": { "P29_001": "07203", "P29_002": "H107320381079", "P29_003": "16016", "P29_004": "社団法人郡山医師会郡山看護専門学校", "P29_005": "福島県郡山市字上亀田14-4", "P29_006": "4", "P29_007": "0", "P29_008": "00", "P29_009": null }, "geometry": { "type": "Point", "coordinates": [ 140.345161138862721, 37.409019815119059 ] } },
{ "type": "Feature", "properties": { "P29_001": "07203", "P29_002": "H107320381088", "P29_003": "16016", "P29_004": "学校法人国際総合学園国際ビジネス公務員大学校", "P29_005": "福島県郡山市駅前1-12-2", "P29_006": "4", "P29_007": "0", "P29_008": "00", "P29_009": null }, "geometry": { "type": "Point", "coordinates": [ 140.385793785997464, 37.394483861558889 ] } },
{ "type": "Feature", "properties": { "P29_001": "07203", "P29_002": "H107320381097", "P29_003": "16016", "P29_004": "テキサスＡ＆Ｍユニバーシティ郡山校", "P29_005": "福島県郡山市本町1-20-22", "P29_006": "4", "P29_007": "0", "P29_008": "00", "P29_009": null }, "geometry": { "type": "Point", "coordinates": [ 140.386496829284823, 37.392660276118143 ] } },
{ "type": "Feature", "properties": { "P29_001": "07203", "P29_002": "H107320381104", "P29_003": "16016", "P29_004": "日本調理技術専門学校", "P29_005": "福島県郡山市安積4-229", "P29_006": "4", "P29_007": "0", "P29_008": "00", "P29_009": null }, "geometry": { "type": "Point", "coordinates": [ 140.364059056566049, 37.35212856674341 ] } },
{ "type": "Feature", "properties": { "P29_001": "07203", "P29_002": "H107320381113", "P29_003": "16016", "P29_004": "東都国際ビジネス専門学校", "P29_005": "福島県郡山市図景2-6-17", "P29_006": "4", "P29_007": "0", "P29_008": "00", "P29_009": null }, "geometry": { "type": "Point", "coordinates": [ 140.37575746924216, 37.379098534712412 ] } },
{ "type": "Feature", "properties": { "P29_001": "07203", "P29_002": "H107320381122", "P29_003": "16016", "P29_004": "ｉキャリア医療福祉専門学校", "P29_005": "福島県郡山市八山田1-88", "P29_006": "4", "P29_007": "0", "P29_008": "00", "P29_009": null }, "geometry": { "type": "Point", "coordinates": [ 140.377265748808497, 37.423318180254256 ] } },
{ "type": "Feature", "properties": { "P29_001": "07203", "P29_002": "H107320381131", "P29_003": "16016", "P29_004": "郡山健康科学専門学校", "P29_005": "福島県郡山市図景2-9-3", "P29_006": "4", "P29_007": "0", "P29_008": "00", "P29_009": null }, "geometry": { "type": "Point", "coordinates": [ 140.375688826549208, 37.378565742263383 ] } },
{ "type": "Feature", "properties": { "P29_001": "07203", "P29_002": "H107320381140", "P29_003": "16016", "P29_004": "学校法人国際総合学園国際アート＆デザイン大学校", "P29_005": "福島県郡山市方八町2-4-1", "P29_006": "4", "P29_007": "0", "P29_008": "00", "P29_009": null }, "geometry": { "type": "Point", "coordinates": [ 140.390265952183313, 37.394014844630249 ] } },
{ "type": "Feature", "properties": { "P29_001": "07203", "P29_002": "H107320381159", "P29_003": "16016", "P29_004": "学校法人平成医療学園福島医療専門学校", "P29_005": "福島県郡山市並木3-2-23", "P29_006": "4", "P29_007": "0", "P29_008": "00", "P29_009": null }, "geometry": { "type": "Point", "coordinates": [ 140.360564971259805, 37.409626998061654 ] } },
{ "type": "Feature", "properties": { "P29_001": "07203", "P29_002": "H107320381168", "P29_003": "16016", "P29_004": "学校法人国際総合学園国際情報工科自動車大学校", "P29_005": "福島県郡山市方八町2-4-15", "P29_006": "4", "P29_007": "0", "P29_008": "00", "P29_009": null }, "geometry": { "type": "Point", "coordinates": [ 140.391170411419893, 37.394374628769704 ] } },
{ "type": "Feature", "properties": { "P29_001": "07203", "P29_002": "H107320381177", "P29_003": "16016", "P29_004": "学校法人国際総合学園国際医療看護福祉大学校", "P29_005": "福島県郡山市方八町2-4-19", "P29_006": "4", "P29_007": "0", "P29_008": "00", "P29_009": null }, "geometry": { "type": "Point", "coordinates": [ 140.391104985602709, 37.393986820281313 ] } },
{ "type": "Feature", "properties": { "P29_001": "07203", "P29_002": "H107320381186", "P29_003": "16016", "P29_004": "学校法人国際総合学園国際ビューティ＆フード大学校", "P29_005": "福島県郡山市方八町2-4-21", "P29_006": "4", "P29_007": "0", "P29_008": "00", "P29_009": null }, "geometry": { "type": "Point", "coordinates": [ 140.390797200342888, 37.393967892732363 ] } },
{ "type": "Feature", "properties": { "P29_001": "07203", "P29_002": "H107320381195", "P29_003": "16016", "P29_004": "郡山学院高等専修学校", "P29_005": "福島県郡山市清水台2-11-8", "P29_006": "4", "P29_007": "0", "P29_008": "00", "P29_009": null }, "geometry": { "type": "Point", "coordinates": [ 140.383977873620893, 37.400951775801495 ] } },
{ "type": "Feature", "properties": { "P29_001": "07203", "P29_002": "H107320381202", "P29_003": "16016", "P29_004": "郡山ヘアメイクカレッジ", "P29_005": "福島県郡山市笹川3-53-1", "P29_006": "4", "P29_007": "0", "P29_008": "00", "P29_009": null }, "geometry": { "type": "Point", "coordinates": [ 140.368855418283374, 37.354986135697885 ] } },
{ "type": "Feature", "properties": { "P29_001": "07204", "P29_002": "H107320481014", "P29_003": "16016", "P29_004": "磐城学芸専門学校", "P29_005": "福島県いわき市好間町下好間字浦田154-1", "P29_006": "4", "P29_007": "0", "P29_008": "00", "P29_009": null }, "geometry": { "type": "Point", "coordinates": [ 140.875538487119314, 37.06228682578918 ] } },
{ "type": "Feature", "properties": { "P29_001": "07204", "P29_002": "H107320481023", "P29_003": "16016", "P29_004": "いわき文化服飾専門学校", "P29_005": "福島県いわき市平2-8", "P29_006": "4", "P29_007": "0", "P29_008": "00", "P29_009": null }, "geometry": { "type": "Point", "coordinates": [ 140.890413277998192, 37.055341590349059 ] } },
{ "type": "Feature", "properties": { "P29_001": "07204", "P29_002": "H107320481032", "P29_003": "16016", "P29_004": "磐城高等芸術商科総合学園", "P29_005": "福島県いわき市平下神谷字立田帯5", "P29_006": "4", "P29_007": "0", "P29_008": "00", "P29_009": null }, "geometry": { "type": "Point", "coordinates": [ 140.937676239139137, 37.06448047405032 ] } },
{ "type": "Feature", "properties": { "P29_001": "07204", "P29_002": "H107320481041", "P29_003": "16016", "P29_004": "いわき和裁専修学校", "P29_005": "福島県いわき市平字東町15-5", "P29_006": "4", "P29_007": "0", "P29_008": "00", "P29_009": null }, "geometry": { "type": "Point", "coordinates": [ 140.906733682105852, 37.05258094904849 ] } },
{ "type": "Feature", "properties": { "P29_001": "07204", "P29_002": "H107320481050", "P29_003": "16016", "P29_004": "松村看護専門学校", "P29_005": "福島県いわき市平字小太郎町1-8", "P29_006": "4", "P29_007": "0", "P29_008": "00", "P29_009": null }, "geometry": { "type": "Point", "coordinates": [ 140.891668881874978, 37.052213941836158 ] } },
{ "type": "Feature", "properties": { "P29_001": "07204", "P29_002": "H107320481069", "P29_003": "16016", "P29_004": "ｉｗａｋｉヘアメイクアカデミー", "P29_005": "福島県いわき市平谷川瀬1-11-2", "P29_006": "4", "P29_007": "0", "P29_008": "00", "P29_009": null }, "geometry": { "type": "Point", "coordinates": [ 140.890785258550153, 37.048634052996952 ] } },
{ "type": "Feature", "properties": { "P29_001": "07205", "P29_002": "H107320581013", "P29_003": "16016", "P29_004": "福島県厚生農業協同組合連合会白河厚生総合病院付属高等看護学院", "P29_005": "福島県白河市豊地上弥次郎2-1", "P29_006": "4", "P29_007": "0", "P29_008": "00", "P29_009": null }, "geometry": { "type": "Point", "coordinates": [ 140.214349363975998, 37.146538913320498 ] } },
{ "type": "Feature", "properties": { "P29_001": "07205", "P29_002": "H107320581022", "P29_003": "16016", "P29_004": "白河医師会白河准看護学院", "P29_005": "福島県白河市北中川原313", "P29_006": "4", "P29_007": "0", "P29_008": "00", "P29_009": null }, "geometry": { "type": "Point", "coordinates": [ 140.227854718918024, 37.124529718159046 ] } },
{ "type": "Feature", "properties": { "P29_001": "07205", "P29_002": "H107320581031", "P29_003": "16016", "P29_004": "しらかわ介護福祉専門学校", "P29_005": "福島県白河市本町2", "P29_006": "4", "P29_007": "0", "P29_008": "00", "P29_009": null }, "geometry": { "type": "Point", "coordinates": [ 140.214649153694779, 37.127217557200652 ] } },
{ "type": "Feature", "properties": { "P29_001": "07207", "P29_002": "H107320781011", "P29_003": "16016", "P29_004": "須賀川専門学校", "P29_005": "福島県須賀川市守谷舘14-1", "P29_006": "4", "P29_007": "0", "P29_008": "00", "P29_009": null }, "geometry": { "type": "Point", "coordinates": [ 140.376847768232636, 37.293365043913411 ] } },
{ "type": "Feature", "properties": { "P29_001": "07208", "P29_002": "H107320881010", "P29_003": "16016", "P29_004": "喜多方医師会附属喜多方准看護高等専修学校", "P29_005": "福島県喜多方市桜ガ丘1-149-2", "P29_006": "4", "P29_007": "0", "P29_008": "00", "P29_009": null }, "geometry": { "type": "Point", "coordinates": [ 139.874219736949755, 37.658394669624052 ] } },
{ "type": "Feature", "properties": { "P29_001": "07521", "P29_002": "H107352181010", "P29_003": "16016", "P29_004": "福島県理工専門学校", "P29_005": "福島県田村郡三春町下舞木字石崎157", "P29_006": "4", "P29_007": "0", "P29_008": "00", "P29_009": null }, "geometry": { "type": "Point", "coordinates": [ 140.426837418006642, 37.415534755905256 ] } }
]
}
