{
"type": "FeatureCollection",
"name": "geo_07_認知症対応型共同生活介護",
"crs": { "type": "name", "properties": { "name": "urn:ogc:def:crs:OGC:1.3:CRS84" } },
"features": [
{ "type": "Feature", "properties": { "内容": "グループホームだんらん笹谷【認知症対応型共同生活介護】福島県福島市笹谷字谷地前", "url": "https://www.kaigokensaku.mhlw.go.jp/07/index.php?action_kouhyou_detail_004_kani=true&JigyosyoCd=0790100440-00&ServiceCd=320&Type=search", "url2": "www.ai-ai.or.jp/danran" }, "geometry": { "type": "Point", "coordinates": [ 140.4464337, 37.7923614 ] } },
{ "type": "Feature", "properties": { "内容": "グループホーム方木田【認知症対応型共同生活介護】福島市方木田字水戸内8-15", "url": "https://www.kaigokensaku.mhlw.go.jp/07/index.php?action_kouhyou_detail_004_kani=true&JigyosyoCd=0790100770-00&ServiceCd=320&Type=search", "url2": null }, "geometry": { "type": "Point", "coordinates": [ 140.447614499999986, 37.7425611 ] } },
{ "type": "Feature", "properties": { "内容": "グループホーム　ふじの里【認知症対応型共同生活介護】福島県福島市在庭坂字檀ノ前９－１", "url": "https://www.kaigokensaku.mhlw.go.jp/07/index.php?action_kouhyou_detail_004_kani=true&JigyosyoCd=0790100036-00&ServiceCd=320&Type=search", "url2": "http://www.fuji-sato.com" }, "geometry": { "type": "Point", "coordinates": [ 140.3704722, 37.7579236 ] } },
{ "type": "Feature", "properties": { "内容": "グループホームこふじ【認知症対応型共同生活介護】福島県福島市町庭坂原ノ内2-2", "url": "https://www.kaigokensaku.mhlw.go.jp/07/index.php?action_kouhyou_detail_004_kani=true&JigyosyoCd=0790101067-00&ServiceCd=320&Type=search", "url2": "www.fuji-sato.com" }, "geometry": { "type": "Point", "coordinates": [ 140.3901865, 37.7758002 ] } },
{ "type": "Feature", "properties": { "内容": "ニチイケアセンター福島野田【認知症対応型共同生活介護】福島県福島市野田町字台68番地の2", "url": "https://www.kaigokensaku.mhlw.go.jp/07/index.php?action_kouhyou_detail_004_kani=true&JigyosyoCd=0790100192-00&ServiceCd=320&Type=search", "url2": "https://www.nichiigakkan.co.jp/" }, "geometry": { "type": "Point", "coordinates": [ 140.440793500000012, 37.7653144 ] } },
{ "type": "Feature", "properties": { "内容": "ニチイケアセンター福島南矢野目【認知症対応型共同生活介護】福島県福島市南矢野目字上戸の内２－９", "url": "https://www.kaigokensaku.mhlw.go.jp/07/index.php?action_kouhyou_detail_004_kani=true&JigyosyoCd=0790100200-00&ServiceCd=320&Type=search", "url2": "hsts27＠nichiigakkan.co.jp" }, "geometry": { "type": "Point", "coordinates": [ 140.479551799999967, 37.7885896 ] } },
{ "type": "Feature", "properties": { "内容": "グループホームいちふじ【認知症対応型共同生活介護】福島県福島市町庭坂字小道26−７グループリビング絆の郷２号館/グループホームいちふじ", "url": "https://www.kaigokensaku.mhlw.go.jp/07/index.php?action_kouhyou_detail_004_kani=true&JigyosyoCd=0790101208-00&ServiceCd=320&Type=search", "url2": "https://fuji-sato.com" }, "geometry": { "type": "Point", "coordinates": [ 140.3889471, 37.7715786 ] } },
{ "type": "Feature", "properties": { "内容": "グループホーム　シニアガーデン【認知症対応型共同生活介護】福島県福島市伏拝字田中21番地の1", "url": "https://www.kaigokensaku.mhlw.go.jp/07/index.php?action_kouhyou_detail_004_kani=true&JigyosyoCd=0793220021-00&ServiceCd=320&Type=search", "url2": "http://www.yurlife.co.jp/" }, "geometry": { "type": "Point", "coordinates": [ 140.457467100000031, 37.7252264 ] } },
{ "type": "Feature", "properties": { "内容": "愛の家グループホーム福島桜木町【認知症対応型共同生活介護】福島県福島市桜木町13-30", "url": "https://www.kaigokensaku.mhlw.go.jp/07/index.php?action_kouhyou_detail_004_kani=true&JigyosyoCd=0790100499-00&ServiceCd=320&Type=search", "url2": "http://www.mcsg.co.jp" }, "geometry": { "type": "Point", "coordinates": [ 140.4813332, 37.760345 ] } },
{ "type": "Feature", "properties": { "内容": "愛の家ｸﾞﾙｰﾌﾟﾎｰﾑ福島渡利【認知症対応型共同生活介護】福島県福島市渡利字渡利町3", "url": "https://www.kaigokensaku.mhlw.go.jp/07/index.php?action_kouhyou_detail_004_kani=true&JigyosyoCd=0790100564-00&ServiceCd=320&Type=search", "url2": "http://www.mcsg.co.jp/" }, "geometry": { "type": "Point", "coordinates": [ 140.484690580950854, 37.74567655531812 ] } },
{ "type": "Feature", "properties": { "内容": "愛の家グループホーム福島宮代【認知症対応型共同生活介護】福島県福島市宮代字乳児池１３１", "url": "https://www.kaigokensaku.mhlw.go.jp/07/index.php?action_kouhyou_detail_004_kani=true&JigyosyoCd=0770102481-00&ServiceCd=320&Type=search", "url2": "http://www.mcsg.co.jp/" }, "geometry": { "type": "Point", "coordinates": [ 140.485525899999971, 37.7992138 ] } },
{ "type": "Feature", "properties": { "内容": "なごみの家【認知症対応型共同生活介護】福島県福島市北沢又字下台前１－２", "url": "https://www.kaigokensaku.mhlw.go.jp/07/index.php?action_kouhyou_detail_004_kani=true&JigyosyoCd=0770101749-00&ServiceCd=320&Type=search", "url2": "https://www.kirari-hcoop.com/" }, "geometry": { "type": "Point", "coordinates": [ 140.434350399999971, 37.7857496 ] } },
{ "type": "Feature", "properties": { "内容": "グループホーム延寿の里【認知症対応型共同生活介護】飯坂町字東堀切8", "url": "https://www.kaigokensaku.mhlw.go.jp/07/index.php?action_kouhyou_detail_004_kani=true&JigyosyoCd=0790101000-00&ServiceCd=320&Type=search", "url2": null }, "geometry": { "type": "Point", "coordinates": [ 140.451171798402441, 37.834458157721251 ] } },
{ "type": "Feature", "properties": { "内容": "愛の家グループホーム福島飯坂【認知症対応型共同生活介護】福島県福島市飯坂町平野字中ノ内7-1", "url": "https://www.kaigokensaku.mhlw.go.jp/07/index.php?action_kouhyou_detail_004_kani=true&JigyosyoCd=0790100184-00&ServiceCd=320&Type=search", "url2": "http://www.mcsg.co.jp/" }, "geometry": { "type": "Point", "coordinates": [ 140.453467400000022, 37.8059344 ] } },
{ "type": "Feature", "properties": { "内容": "グループホーム「もちずりの郷」【認知症対応型共同生活介護】福島県福島市岡部字当木前68-2", "url": "https://www.kaigokensaku.mhlw.go.jp/07/index.php?action_kouhyou_detail_004_kani=true&JigyosyoCd=0790100275-00&ServiceCd=320&Type=search", "url2": null }, "geometry": { "type": "Point", "coordinates": [ 140.5008891, 37.7769913 ] } },
{ "type": "Feature", "properties": { "内容": "ロング・ライフ・フクチャンち【認知症対応型共同生活介護】福島県福島市伏拝清水内25番地", "url": "https://www.kaigokensaku.mhlw.go.jp/07/index.php?action_kouhyou_detail_004_kani=true&JigyosyoCd=0770101152-00&ServiceCd=320&Type=search", "url2": "http://www.life-time-fukushima.jp/" }, "geometry": { "type": "Point", "coordinates": [ 140.460847599999965, 37.7218907 ] } },
{ "type": "Feature", "properties": { "内容": "愛の家グループホーム福島飯坂湯野【認知症対応型共同生活介護】福島県福島市飯坂町湯野字湯ノ上4", "url": "https://www.kaigokensaku.mhlw.go.jp/07/index.php?action_kouhyou_detail_004_kani=true&JigyosyoCd=0790100218-00&ServiceCd=320&Type=search", "url2": "https://mcs-ainoie.com/search/fukushima/fukushimashi/gh123/" }, "geometry": { "type": "Point", "coordinates": [ 140.4561287, 37.8313922 ] } },
{ "type": "Feature", "properties": { "内容": "グループホーム飯野の里【認知症対応型共同生活介護】福島県福島市飯野町字原田１１番地の１", "url": "https://www.kaigokensaku.mhlw.go.jp/07/index.php?action_kouhyou_detail_004_kani=true&JigyosyoCd=0790100143-00&ServiceCd=320&Type=search", "url2": "https://iinonosato.net" }, "geometry": { "type": "Point", "coordinates": [ 140.541302, 37.656033 ] } },
{ "type": "Feature", "properties": { "内容": "けあビジョンホーム福島松川【認知症対応型共同生活介護】福島県福島市松川町下川崎字佐久間前山3-1", "url": "https://www.kaigokensaku.mhlw.go.jp/07/index.php?action_kouhyou_detail_004_kani=true&JigyosyoCd=0790101216-00&ServiceCd=320&Type=search", "url2": null }, "geometry": { "type": "Point", "coordinates": [ 140.4925395, 37.6429469 ] } },
{ "type": "Feature", "properties": { "内容": "グループホーム「輝きの郷」【認知症対応型共同生活介護】福島県福島市山口字七口１３－１", "url": "https://www.kaigokensaku.mhlw.go.jp/07/index.php?action_kouhyou_detail_004_kani=true&JigyosyoCd=0770101319-00&ServiceCd=320&Type=search", "url2": null }, "geometry": { "type": "Point", "coordinates": [ 140.512499599999956, 37.7648788 ] } },
{ "type": "Feature", "properties": { "内容": "グループホームほのぼの宝生園【認知症対応型共同生活介護】福島県福島市上名倉字玉ノ木19-4", "url": "https://www.kaigokensaku.mhlw.go.jp/07/index.php?action_kouhyou_detail_004_kani=true&JigyosyoCd=0770101616-00&ServiceCd=320&Type=search", "url2": "http://www.tahokai.jp/" }, "geometry": { "type": "Point", "coordinates": [ 140.372320899999977, 37.7248411 ] } },
{ "type": "Feature", "properties": { "内容": "グループホーム　リブレ松川【認知症対応型共同生活介護】福島県福島市松川町美郷4丁目13－8", "url": "https://www.kaigokensaku.mhlw.go.jp/07/index.php?action_kouhyou_detail_004_kani=true&JigyosyoCd=0790100333-00&ServiceCd=320&Type=search", "url2": "http://www.libre-lifesupport.jp/?page_id=11" }, "geometry": { "type": "Point", "coordinates": [ 140.47272517605748, 37.665568153793849 ] } },
{ "type": "Feature", "properties": { "内容": "グループホームもとうち【認知症対応型共同生活介護】福島県福島市本内西河原5‐4", "url": "https://www.kaigokensaku.mhlw.go.jp/07/index.php?action_kouhyou_detail_004_kani=true&JigyosyoCd=0790101018-00&ServiceCd=320&Type=search", "url2": null }, "geometry": { "type": "Point", "coordinates": [ 140.481875, 37.781944 ] } },
{ "type": "Feature", "properties": { "内容": "あったかいごとやのグループホームそよ風【認知症対応型共同生活介護】福島県福島市鳥谷野字中ノ内２－２", "url": "https://www.kaigokensaku.mhlw.go.jp/07/index.php?action_kouhyou_detail_004_kani=true&JigyosyoCd=0790101109-00&ServiceCd=320&Type=search", "url2": "http//www.unimat,rc.co.jp" }, "geometry": { "type": "Point", "coordinates": [ 140.4698219, 37.7330236 ] } },
{ "type": "Feature", "properties": { "内容": "あったかいご方木田グループホームそよ風【認知症対応型共同生活介護】福島県福島市方木田字北白家15-1", "url": "https://www.kaigokensaku.mhlw.go.jp/07/index.php?action_kouhyou_detail_004_kani=true&JigyosyoCd=0790101117-00&ServiceCd=320&Type=search", "url2": null }, "geometry": { "type": "Point", "coordinates": [ 140.4517534, 37.7466688 ] } },
{ "type": "Feature", "properties": { "内容": "グループホーム敬愛アネックス【認知症対応型共同生活介護】福島県福島市太平寺字児子塚36", "url": "https://www.kaigokensaku.mhlw.go.jp/07/index.php?action_kouhyou_detail_004_kani=true&JigyosyoCd=0790100903-00&ServiceCd=320&Type=search", "url2": "https://www.keiai-kai.or.jp/publics/index/94/" }, "geometry": { "type": "Point", "coordinates": [ 140.453550700000051, 37.7269956 ] } },
{ "type": "Feature", "properties": { "内容": "グループホーム　ハートピア【認知症対応型共同生活介護】福島県福島市北五老内町３番９号フォレストビル", "url": "https://www.kaigokensaku.mhlw.go.jp/07/index.php?action_kouhyou_detail_004_kani=true&JigyosyoCd=0790101273-00&ServiceCd=320&Type=search", "url2": null }, "geometry": { "type": "Point", "coordinates": [ 140.4754955, 37.7631282 ] } },
{ "type": "Feature", "properties": { "内容": "敬愛シニアガーデン桜堤【認知症対応型共同生活介護】福島県福島市八木田字井戸上５０－１", "url": "https://www.kaigokensaku.mhlw.go.jp/07/index.php?action_kouhyou_detail_004_kani=true&JigyosyoCd=0770102499-00&ServiceCd=320&Type=search", "url2": "keiai-kai.com" }, "geometry": { "type": "Point", "coordinates": [ 140.445886500000029, 37.7529117 ] } },
{ "type": "Feature", "properties": { "内容": "グループホーム愛の里【認知症対応型共同生活介護】福島県福島市大森字街道下５２番地", "url": "https://www.kaigokensaku.mhlw.go.jp/07/index.php?action_kouhyou_detail_004_kani=true&JigyosyoCd=0770102465-00&ServiceCd=320&Type=search", "url2": "http://www.cosmo-ph.co.jp/group/support/" }, "geometry": { "type": "Point", "coordinates": [ 140.449653399999988, 37.7363138 ] } },
{ "type": "Feature", "properties": { "内容": "グループホーム　生愛レジデンス【認知症対応型共同生活介護】福島県福島市大笹生字向平12番地", "url": "https://www.kaigokensaku.mhlw.go.jp/07/index.php?action_kouhyou_detail_004_kani=true&JigyosyoCd=0770101657-00&ServiceCd=320&Type=search", "url2": "http://www.seiaikai.jp" }, "geometry": { "type": "Point", "coordinates": [ 140.3923317, 37.79669470000001 ] } },
{ "type": "Feature", "properties": { "内容": "グループホーム矢野目【認知症対応型共同生活介護】福島県福島市南矢野目字上戸ノ内7-3", "url": "https://www.kaigokensaku.mhlw.go.jp/07/index.php?action_kouhyou_detail_004_kani=true&JigyosyoCd=0790100739-00&ServiceCd=320&Type=search", "url2": "https://ai-nosato.jp/" }, "geometry": { "type": "Point", "coordinates": [ 140.4799444, 37.7895416 ] } },
{ "type": "Feature", "properties": { "内容": "あいの里　美里【認知症対応型共同生活介護】福島県福島市南矢野目字道下36-12", "url": "https://www.kaigokensaku.mhlw.go.jp/07/index.php?action_kouhyou_detail_004_kani=true&JigyosyoCd=0790100754-00&ServiceCd=320&Type=search", "url2": null }, "geometry": { "type": "Point", "coordinates": [ 140.451305400000024, 37.7919623 ] } },
{ "type": "Feature", "properties": { "内容": "あいの里　松川【認知症対応型共同生活介護】松川町字市坂３－１", "url": "https://www.kaigokensaku.mhlw.go.jp/07/index.php?action_kouhyou_detail_004_kani=true&JigyosyoCd=0790101133-00&ServiceCd=320&Type=search", "url2": "https://ai-nosato.jp/" }, "geometry": { "type": "Point", "coordinates": [ 140.4666044, 37.6592874 ] } },
{ "type": "Feature", "properties": { "内容": "グループホームこころのさと【認知症対応型共同生活介護】福島県会津若松市石堂町6番３０号", "url": "https://www.kaigokensaku.mhlw.go.jp/07/index.php?action_kouhyou_detail_004_kani=true&JigyosyoCd=0770200707-00&ServiceCd=320&Type=search", "url2": "https://kokoronosato-aizu.com/facilities/ss_ep/" }, "geometry": { "type": "Point", "coordinates": [ 139.926287099999968, 37.5112593 ] } },
{ "type": "Feature", "properties": { "内容": "こすもす【認知症対応型共同生活介護】福島県会津若松市神指町大字黒川字湯川東２２８番地", "url": "https://www.kaigokensaku.mhlw.go.jp/07/index.php?action_kouhyou_detail_004_kani=true&JigyosyoCd=0790200398-00&ServiceCd=320&Type=search", "url2": "http//www.khaos.jp/" }, "geometry": { "type": "Point", "coordinates": [ 139.912592, 37.5116104 ] } },
{ "type": "Feature", "properties": { "内容": "株式会社ケアネット　会津サービスセンター　グループホームあいづ【認知症対応型共同生活介護】福島県会津若松市門田町工業団地37-1", "url": "https://www.kaigokensaku.mhlw.go.jp/07/index.php?action_kouhyou_detail_004_kani=true&JigyosyoCd=0790200133-00&ServiceCd=320&Type=search", "url2": "http://www.carenet.fujitsu.com/" }, "geometry": { "type": "Point", "coordinates": [ 139.912651200000028, 37.4644442 ] } },
{ "type": "Feature", "properties": { "内容": "葵グループホーム山見【認知症対応型共同生活介護】福島県会津若松市山見2丁目11番地の7", "url": "https://www.kaigokensaku.mhlw.go.jp/07/index.php?action_kouhyou_detail_004_kani=true&JigyosyoCd=0790200471-00&ServiceCd=320&Type=search", "url2": "https://nfks.jp/" }, "geometry": { "type": "Point", "coordinates": [ 139.939000309786962, 37.510440365852574 ] } },
{ "type": "Feature", "properties": { "内容": "ハーモニー松長【認知症対応型共同生活介護】福島県会津若松市一箕町松長５丁目１１番地３１", "url": "https://www.kaigokensaku.mhlw.go.jp/07/index.php?action_kouhyou_detail_004_kani=true&JigyosyoCd=0790200141-00&ServiceCd=320&Type=search", "url2": "http://sin-ai.com/" }, "geometry": { "type": "Point", "coordinates": [ 139.9617862, 37.5275992 ] } },
{ "type": "Feature", "properties": { "内容": "グループホームみなづる【認知症対応型共同生活介護】福島県会津若松市河東町郡山字中子山25-1", "url": "https://www.kaigokensaku.mhlw.go.jp/07/index.php?action_kouhyou_detail_004_kani=true&JigyosyoCd=0770201143-00&ServiceCd=320&Type=search", "url2": "http://www.awshakyo.or.jp/" }, "geometry": { "type": "Point", "coordinates": [ 139.926391200000012, 37.5494631 ] } },
{ "type": "Feature", "properties": { "内容": "グループホーム東山しょうぶ苑【認知症対応型共同生活介護】福島県会津若松市千石町5-8", "url": "https://www.kaigokensaku.mhlw.go.jp/07/index.php?action_kouhyou_detail_004_kani=true&JigyosyoCd=0790200117-00&ServiceCd=320&Type=search", "url2": "https://keiwakai.net/" }, "geometry": { "type": "Point", "coordinates": [ 139.944938800000045, 37.4952778 ] } },
{ "type": "Feature", "properties": { "内容": "グループホーム「健康倶楽部家　鶴成館」【認知症対応型共同生活介護】福島県会津若松市門田町大字飯寺字村東３０５番６号", "url": "https://www.kaigokensaku.mhlw.go.jp/07/index.php?action_kouhyou_detail_004_kani=true&JigyosyoCd=0790200059-00&ServiceCd=320&Type=search", "url2": "http://www.heiseikai-group.com/" }, "geometry": { "type": "Point", "coordinates": [ 139.908298162565643, 37.476199809108977 ] } },
{ "type": "Feature", "properties": { "内容": "健康倶楽部あいづ　グループホーム「アルコート南」【認知症対応型共同生活介護】福島県会津若松市館馬町6番14号", "url": "https://www.kaigokensaku.mhlw.go.jp/07/index.php?action_kouhyou_detail_004_kani=true&JigyosyoCd=0790200414-00&ServiceCd=320&Type=search", "url2": "http://www.heiseikai-group.com/" }, "geometry": { "type": "Point", "coordinates": [ 139.922726081614684, 37.480623150546727 ] } },
{ "type": "Feature", "properties": { "内容": "健康倶楽部あいづ　グループホーム「アルコート南Ⅱ」【認知症対応型共同生活介護】福島県会津若松市館馬町６番１３号", "url": "https://www.kaigokensaku.mhlw.go.jp/07/index.php?action_kouhyou_detail_004_kani=true&JigyosyoCd=0790200448-00&ServiceCd=320&Type=search", "url2": "https://www.heiseikai-group.com/" }, "geometry": { "type": "Point", "coordinates": [ 139.922473953967284, 37.480638049986197 ] } },
{ "type": "Feature", "properties": { "内容": "グループホームしなのき真宮【認知症対応型共同生活介護】福島県会津若松市真宮新町南一丁目2-1", "url": "https://www.kaigokensaku.mhlw.go.jp/07/index.php?action_kouhyou_detail_004_kani=true&JigyosyoCd=0790200331-00&ServiceCd=320&Type=search", "url2": "http://www.sinanoki.co.jp/" }, "geometry": { "type": "Point", "coordinates": [ 139.877014581046012, 37.51059710979321 ] } },
{ "type": "Feature", "properties": { "内容": "健康倶楽部あいづ　グループホーム「鶴成館」【認知症対応型共同生活介護】福島県会津若松市飯寺南三丁目2番22号", "url": "https://www.kaigokensaku.mhlw.go.jp/07/index.php?action_kouhyou_detail_004_kani=true&JigyosyoCd=0790200497-00&ServiceCd=320&Type=search", "url2": "http://www.heiseikai-group.com/" }, "geometry": { "type": "Point", "coordinates": [ 139.908523, 37.476479900000037 ] } },
{ "type": "Feature", "properties": { "内容": "グループホームもも太郎さん　阿武隈【認知症対応型共同生活介護】福島県郡山市下館野62番2号", "url": "https://www.kaigokensaku.mhlw.go.jp/07/index.php?action_kouhyou_detail_004_kani=true&JigyosyoCd=0770302651-00&ServiceCd=320&Type=search", "url2": "momoabu@jbc.co.jp" }, "geometry": { "type": "Point", "coordinates": [ 140.4089769, 37.3942699 ] } },
{ "type": "Feature", "properties": { "内容": "グループホーム　輝たむら２号館【認知症対応型共同生活介護】福島県郡山市田村町金屋字上川原273-1", "url": "https://www.kaigokensaku.mhlw.go.jp/07/index.php?action_kouhyou_detail_004_kani=true&JigyosyoCd=0790300784-00&ServiceCd=320&Type=search", "url2": "http://kagayaki/co/" }, "geometry": { "type": "Point", "coordinates": [ 140.390458910867324, 37.366985312707534 ] } },
{ "type": "Feature", "properties": { "内容": "グループホーム輝【認知症対応型共同生活介護】熱海町安子島字馬場61-5", "url": "https://www.kaigokensaku.mhlw.go.jp/07/index.php?action_kouhyou_detail_004_kani=true&JigyosyoCd=0790300388-00&ServiceCd=320&Type=search", "url2": "http://kagayaki.co/" }, "geometry": { "type": "Point", "coordinates": [ 140.304750099999978, 37.4785579 ] } },
{ "type": "Feature", "properties": { "内容": "グループホーム　もも太郎さん（上ノ台）【認知症対応型共同生活介護】福島県郡山市富田町字向作田25番1号", "url": "https://www.kaigokensaku.mhlw.go.jp/07/index.php?action_kouhyou_detail_004_kani=true&JigyosyoCd=0770302628-00&ServiceCd=320&Type=search", "url2": "http://www.momotarousan.com/" }, "geometry": { "type": "Point", "coordinates": [ 140.345084300000053, 37.4268511 ] } },
{ "type": "Feature", "properties": { "内容": "グループホーム　輝こはらだ【認知症対応型共同生活介護】福島県郡山市小原田４丁目２番１７号", "url": "https://www.kaigokensaku.mhlw.go.jp/07/index.php?action_kouhyou_detail_004_kani=true&JigyosyoCd=0790300586-00&ServiceCd=320&Type=search", "url2": "https://kagayaki.co/" }, "geometry": { "type": "Point", "coordinates": [ 140.379584200000011, 37.381529 ] } },
{ "type": "Feature", "properties": { "内容": "シンシアリィ【認知症対応型共同生活介護】福島県郡山市三穂田町富岡字三本木原２番地８２", "url": "https://www.kaigokensaku.mhlw.go.jp/07/index.php?action_kouhyou_detail_004_kani=true&JigyosyoCd=0790300727-00&ServiceCd=320&Type=search", "url2": "https://sincerely2017.co.jp/" }, "geometry": { "type": "Point", "coordinates": [ 140.2735145, 37.3449747 ] } },
{ "type": "Feature", "properties": { "内容": "ゆかりの館【認知症対応型共同生活介護】福島県郡山市東原1－１８８", "url": "https://www.kaigokensaku.mhlw.go.jp/07/index.php?action_kouhyou_detail_004_kani=true&JigyosyoCd=0790300313-00&ServiceCd=320&Type=search", "url2": null }, "geometry": { "type": "Point", "coordinates": [ 140.35270140737498, 37.430124309506077 ] } },
{ "type": "Feature", "properties": { "内容": "ミモザ郡山富田【認知症対応型共同生活介護】福島県郡山市富田町字西原40番の１", "url": "https://www.kaigokensaku.mhlw.go.jp/07/index.php?action_kouhyou_detail_004_kani=true&JigyosyoCd=0790301238-00&ServiceCd=320&Type=search", "url2": "koriyama-tomita@mimza-ca.jp" }, "geometry": { "type": "Point", "coordinates": [ 140.349613, 37.4146966 ] } },
{ "type": "Feature", "properties": { "内容": "輝　たむら【認知症対応型共同生活介護】福島県郡山市田村町金屋字上川原269-1", "url": "https://www.kaigokensaku.mhlw.go.jp/07/index.php?action_kouhyou_detail_004_kani=true&JigyosyoCd=0790300503-00&ServiceCd=320&Type=search", "url2": null }, "geometry": { "type": "Point", "coordinates": [ 140.3900911, 37.3668754 ] } },
{ "type": "Feature", "properties": { "内容": "グループホームひなたぼっこ【認知症対応型共同生活介護】福島県郡山市島二丁目２３番１７号", "url": "https://www.kaigokensaku.mhlw.go.jp/07/index.php?action_kouhyou_detail_004_kani=true&JigyosyoCd=0790300255-00&ServiceCd=320&Type=search", "url2": "http://www.koriyama-h-coop.or.jp/" }, "geometry": { "type": "Point", "coordinates": [ 140.3448158, 37.3966596 ] } },
{ "type": "Feature", "properties": { "内容": "JA福島さくらグループホーム　は～とらいふ八山田【認知症対応型共同生活介護】福島県郡山市八山田西五丁目123番地", "url": "https://www.kaigokensaku.mhlw.go.jp/07/index.php?action_kouhyou_detail_004_kani=true&JigyosyoCd=0790300719-00&ServiceCd=320&Type=search", "url2": null }, "geometry": { "type": "Point", "coordinates": [ 140.368661108459492, 37.426470873184975 ] } },
{ "type": "Feature", "properties": { "内容": "さかえライフハート美術館通り【認知症対応型共同生活介護】福島県郡山市字下舘野１１－１", "url": "https://www.kaigokensaku.mhlw.go.jp/07/index.php?action_kouhyou_detail_004_kani=true&JigyosyoCd=0790300164-00&ServiceCd=320&Type=search", "url2": "http://www.sakaenaika.jp" }, "geometry": { "type": "Point", "coordinates": [ 140.404679900000019, 37.3974028 ] } },
{ "type": "Feature", "properties": { "内容": "グループホーム　もも太郎さん　　谷田川【認知症対応型共同生活介護】福島県郡山市田村町谷田川字表前58-1", "url": "https://www.kaigokensaku.mhlw.go.jp/07/index.php?action_kouhyou_detail_004_kani=true&JigyosyoCd=0790300016-00&ServiceCd=320&Type=search", "url2": null }, "geometry": { "type": "Point", "coordinates": [ 140.4511369, 37.311473400000011 ] } },
{ "type": "Feature", "properties": { "内容": "ハーモニー日和田【認知症対応型共同生活介護】福島県郡山市日和田町字北ノ入51番1", "url": "https://www.kaigokensaku.mhlw.go.jp/07/index.php?action_kouhyou_detail_004_kani=true&JigyosyoCd=0790300222-00&ServiceCd=320&Type=search", "url2": "info@sin-ai.com" }, "geometry": { "type": "Point", "coordinates": [ 140.390207199999963, 37.452552 ] } },
{ "type": "Feature", "properties": { "内容": "ハーモニー　中田【認知症対応型共同生活介護】福島県郡山市中田町下枝字久保337番地1", "url": "https://www.kaigokensaku.mhlw.go.jp/07/index.php?action_kouhyou_detail_004_kani=true&JigyosyoCd=0790300065-00&ServiceCd=320&Type=search", "url2": "http://www.sin-ai.com" }, "geometry": { "type": "Point", "coordinates": [ 140.4773371, 37.3523456 ] } },
{ "type": "Feature", "properties": { "内容": "グループホームみやま【認知症対応型共同生活介護】福島県郡山市富田町字上ノ台60-13", "url": "https://www.kaigokensaku.mhlw.go.jp/07/index.php?action_kouhyou_detail_004_kani=true&JigyosyoCd=0770302008-00&ServiceCd=320&Type=search", "url2": null }, "geometry": { "type": "Point", "coordinates": [ 140.3441176, 37.4299564 ] } },
{ "type": "Feature", "properties": { "内容": "グループホームかんりん【認知症対応型共同生活介護】福島県郡山市八山田西二丁目160", "url": "https://www.kaigokensaku.mhlw.go.jp/07/index.php?action_kouhyou_detail_004_kani=true&JigyosyoCd=0770302255-00&ServiceCd=320&Type=search", "url2": null }, "geometry": { "type": "Point", "coordinates": [ 140.360520792361513, 37.430375033259971 ] } },
{ "type": "Feature", "properties": { "内容": "グループホームささはら【認知症対応型共同生活介護】福島県郡山市安積４丁目１６４", "url": "https://www.kaigokensaku.mhlw.go.jp/07/index.php?action_kouhyou_detail_004_kani=true&JigyosyoCd=0770302313-00&ServiceCd=320&Type=search", "url2": null }, "geometry": { "type": "Point", "coordinates": [ 140.362324299999955, 37.3529564 ] } },
{ "type": "Feature", "properties": { "内容": "グループホーム陽だまり【認知症対応型共同生活介護】福島県郡山市富田町字菱内３２番地", "url": "https://www.kaigokensaku.mhlw.go.jp/07/index.php?action_kouhyou_detail_004_kani=true&JigyosyoCd=0770302511-00&ServiceCd=320&Type=search", "url2": null }, "geometry": { "type": "Point", "coordinates": [ 140.345742800000039, 37.4165909 ] } },
{ "type": "Feature", "properties": { "内容": "グループホームこいのさと【認知症対応型共同生活介護】福島県郡山市富久山町八山田字前林5", "url": "https://www.kaigokensaku.mhlw.go.jp/07/index.php?action_kouhyou_detail_004_kani=true&JigyosyoCd=0770302552-00&ServiceCd=320&Type=search", "url2": null }, "geometry": { "type": "Point", "coordinates": [ 140.387061200000062, 37.4226577 ] } },
{ "type": "Feature", "properties": { "内容": "グループホームふたば【認知症対応型共同生活介護】福島県郡山安積町荒井字茂平6-40", "url": "https://www.kaigokensaku.mhlw.go.jp/07/index.php?action_kouhyou_detail_004_kani=true&JigyosyoCd=0793250010-00&ServiceCd=320&Type=search", "url2": null }, "geometry": { "type": "Point", "coordinates": [ 140.351707638305811, 37.361038295371117 ] } },
{ "type": "Feature", "properties": { "内容": "認知症対応型共同生活介護　グループホーム　ぶなの森【認知症対応型共同生活介護】福島県郡山市八山田６丁目４５番地", "url": "https://www.kaigokensaku.mhlw.go.jp/07/index.php?action_kouhyou_detail_004_kani=true&JigyosyoCd=0770302644-00&ServiceCd=320&Type=search", "url2": "https://www.jyoshinkai.net/" }, "geometry": { "type": "Point", "coordinates": [ 140.380420100000038, 37.423527 ] } },
{ "type": "Feature", "properties": { "内容": "なじみ山根【認知症対応型共同生活介護】福島県郡山市山根町12-25", "url": "https://www.kaigokensaku.mhlw.go.jp/07/index.php?action_kouhyou_detail_004_kani=true&JigyosyoCd=0790300404-00&ServiceCd=320&Type=search", "url2": null }, "geometry": { "type": "Point", "coordinates": [ 140.37394130000007, 37.3843366 ] } },
{ "type": "Feature", "properties": { "内容": "医療法人　むつき会　Carehill's　だん欒【認知症対応型共同生活介護】福島県郡山市富久山町久保田字上野147-8", "url": "https://www.kaigokensaku.mhlw.go.jp/07/index.php?action_kouhyou_detail_004_kani=true&JigyosyoCd=0790300214-00&ServiceCd=320&Type=search", "url2": "http://mutsukikai.ftw.jp/" }, "geometry": { "type": "Point", "coordinates": [ 140.38506719999998, 37.4130672 ] } },
{ "type": "Feature", "properties": { "内容": "グループホーム　健脳ハウス【認知症対応型共同生活介護】福島県郡山市富田町字稲川原57", "url": "https://www.kaigokensaku.mhlw.go.jp/07/index.php?action_kouhyou_detail_004_kani=true&JigyosyoCd=0770302149-00&ServiceCd=320&Type=search", "url2": "https://www.kennoukai.com" }, "geometry": { "type": "Point", "coordinates": [ 140.370199, 37.4144362 ] } },
{ "type": "Feature", "properties": { "内容": "グループホームひまわり【認知症対応型共同生活介護】福島県郡山市安積4-334-1", "url": "https://www.kaigokensaku.mhlw.go.jp/07/index.php?action_kouhyou_detail_004_kani=true&JigyosyoCd=0770302321-00&ServiceCd=320&Type=search", "url2": null }, "geometry": { "type": "Point", "coordinates": [ 140.366218600000025, 37.3502345 ] } },
{ "type": "Feature", "properties": { "内容": "ナーシングケアセンター　縁寿の園　さくら木　グループホーム【認知症対応型共同生活介護】福島県郡山市桜木一丁目５－４", "url": "https://www.kaigokensaku.mhlw.go.jp/07/index.php?action_kouhyou_detail_004_kani=true&JigyosyoCd=0790300180-00&ServiceCd=320&Type=search", "url2": "http://enjyu-g.com/" }, "geometry": { "type": "Point", "coordinates": [ 140.374157200000013, 37.4085841 ] } },
{ "type": "Feature", "properties": { "内容": "社会福祉法人　いずみ福祉会　グループホームすぷりんぐ【認知症対応型共同生活介護】福島県郡山市安積町笹川字関谷田３７グループホーム　すぷりんぐ", "url": "https://www.kaigokensaku.mhlw.go.jp/07/index.php?action_kouhyou_detail_004_kani=true&JigyosyoCd=0770302115-00&ServiceCd=320&Type=search", "url2": "http://www.jusendo.or.jp" }, "geometry": { "type": "Point", "coordinates": [ 140.361505299999976, 37.3473097 ] } },
{ "type": "Feature", "properties": { "内容": "ハーモニー並木【認知症対応型共同生活介護】福島県郡山市並木５丁目６番地７", "url": "https://www.kaigokensaku.mhlw.go.jp/07/index.php?action_kouhyou_detail_004_kani=true&JigyosyoCd=0790300156-00&ServiceCd=320&Type=search", "url2": "http://sin-ai.com/" }, "geometry": { "type": "Point", "coordinates": [ 140.36082220000003, 37.4125945 ] } },
{ "type": "Feature", "properties": { "内容": "グループホーム「いおり」【認知症対応型共同生活介護】福島県郡山市桜木一丁目1-9", "url": "https://www.kaigokensaku.mhlw.go.jp/07/index.php?action_kouhyou_detail_004_kani=true&JigyosyoCd=0790300370-00&ServiceCd=320&Type=search", "url2": "http://www.mutukikai.com/" }, "geometry": { "type": "Point", "coordinates": [ 140.374285, 37.4079758 ] } },
{ "type": "Feature", "properties": { "内容": "ハーモニーみどりヶ丘ソレイユ【認知症対応型共同生活介護】福島県郡山市緑ヶ丘東六丁目26-1", "url": "https://www.kaigokensaku.mhlw.go.jp/07/index.php?action_kouhyou_detail_004_kani=true&JigyosyoCd=0790300743-00&ServiceCd=320&Type=search", "url2": "http://www.sin-ai.com/" }, "geometry": { "type": "Point", "coordinates": [ 140.440647200000058, 37.3847855 ] } },
{ "type": "Feature", "properties": { "内容": "グループホーム縁寿の園【認知症対応型共同生活介護】福島県郡山市中田町赤沼字瀬戸65番地の1", "url": "https://www.kaigokensaku.mhlw.go.jp/07/index.php?action_kouhyou_detail_004_kani=true&JigyosyoCd=0790300867-00&ServiceCd=320&Type=search", "url2": "www.enjyu-enjoy.com" }, "geometry": { "type": "Point", "coordinates": [ 140.4275088, 37.3729534 ] } },
{ "type": "Feature", "properties": { "内容": "あいの里　グループホーム【認知症対応型共同生活介護】福島県郡山市片平町新蟻塚８０－１", "url": "https://www.kaigokensaku.mhlw.go.jp/07/index.php?action_kouhyou_detail_004_kani=true&JigyosyoCd=0770301893-00&ServiceCd=320&Type=search", "url2": "ai-nosato.jp" }, "geometry": { "type": "Point", "coordinates": [ 140.326767, 37.409946500000018 ] } },
{ "type": "Feature", "properties": { "内容": "さかえライフハート安積【認知症対応型共同生活介護】福島県郡山市安積荒井一丁目８番地", "url": "https://www.kaigokensaku.mhlw.go.jp/07/index.php?action_kouhyou_detail_004_kani=true&JigyosyoCd=0790300321-00&ServiceCd=320&Type=search", "url2": "https://eishinkai-med.jp/" }, "geometry": { "type": "Point", "coordinates": [ 140.355415599999986, 37.3702241 ] } },
{ "type": "Feature", "properties": { "内容": "健康倶楽部郡山　グループホーム「希の家」【認知症対応型共同生活介護】福島県郡山市御前南二丁目６５番地", "url": "https://www.kaigokensaku.mhlw.go.jp/07/index.php?action_kouhyou_detail_004_kani=true&JigyosyoCd=0770301703-00&ServiceCd=320&Type=search", "url2": "http://www.heiseikai-group.com/" }, "geometry": { "type": "Point", "coordinates": [ 140.334153600000036, 37.3825332 ] } },
{ "type": "Feature", "properties": { "内容": "健康倶楽部郡山　グループホーム「ファミリアーレ」【認知症対応型共同生活介護】福島県郡山市安積町長久保三丁目３４番５号", "url": "https://www.kaigokensaku.mhlw.go.jp/07/index.php?action_kouhyou_detail_004_kani=true&JigyosyoCd=0770301786-00&ServiceCd=320&Type=search", "url2": "http://www.heiseikai-group.com/" }, "geometry": { "type": "Point", "coordinates": [ 140.359260793083536, 37.354854712091345 ] } },
{ "type": "Feature", "properties": { "内容": "健康倶楽部郡山　グループホーム「アルコート並木」【認知症対応型共同生活介護】福島県郡山市並木二丁目１８番７６号", "url": "https://www.kaigokensaku.mhlw.go.jp/07/index.php?action_kouhyou_detail_004_kani=true&JigyosyoCd=0790300537-00&ServiceCd=320&Type=search", "url2": "http://www.heiseikai-group.com/" }, "geometry": { "type": "Point", "coordinates": [ 140.366462417057846, 37.413653993089554 ] } },
{ "type": "Feature", "properties": { "内容": "健康倶楽部郡山　グループホーム「アルコート安積」【認知症対応型共同生活介護】福島県郡山市安積町南長久保二丁目243-3", "url": "https://www.kaigokensaku.mhlw.go.jp/07/index.php?action_kouhyou_detail_004_kani=true&JigyosyoCd=0790301188-00&ServiceCd=320&Type=search", "url2": "https://www.heiseikai-group.com/" }, "geometry": { "type": "Point", "coordinates": [ 140.357144, 37.3535742 ] } },
{ "type": "Feature", "properties": { "内容": "光の里みらい【認知症対応型共同生活介護】福島県郡山市小原田三丁目16番1号", "url": "https://www.kaigokensaku.mhlw.go.jp/07/index.php?action_kouhyou_detail_004_kani=true&JigyosyoCd=0790300438-00&ServiceCd=320&Type=search", "url2": "http/cosmo~m~s.co.jp" }, "geometry": { "type": "Point", "coordinates": [ 140.386459800000011, 37.3806188 ] } },
{ "type": "Feature", "properties": { "内容": "清流の里みらい【認知症対応型共同生活介護】福島県郡山市台新一丁目８番８号", "url": "https://www.kaigokensaku.mhlw.go.jp/07/index.php?action_kouhyou_detail_004_kani=true&JigyosyoCd=0790300487-00&ServiceCd=320&Type=search", "url2": "http://cosmo-m-s.co.jp/" }, "geometry": { "type": "Point", "coordinates": [ 140.3477198, 37.3947542 ] } },
{ "type": "Feature", "properties": { "内容": "ニチイケアセンター郡山深沢【認知症対応型共同生活介護】福島県郡山市深沢二丁目7番23号", "url": "https://www.kaigokensaku.mhlw.go.jp/07/index.php?action_kouhyou_detail_004_kani=true&JigyosyoCd=0790300172-00&ServiceCd=320&Type=search", "url2": "http//www.nichiigakkan.co.jp" }, "geometry": { "type": "Point", "coordinates": [ 140.369940400000019, 37.3890511 ] } },
{ "type": "Feature", "properties": { "内容": "株式会社　あいの里　逢瀬町　絆【認知症対応型共同生活介護】逢瀬町多田野字浄土松道10-6", "url": "https://www.kaigokensaku.mhlw.go.jp/07/index.php?action_kouhyou_detail_004_kani=true&JigyosyoCd=0790300339-00&ServiceCd=320&Type=search", "url2": null }, "geometry": { "type": "Point", "coordinates": [ 140.2735844, 37.3935271 ] } },
{ "type": "Feature", "properties": { "内容": "グループホームいちかわ【認知症対応型共同生活介護】福島県郡山市大槻町字北寺8番1", "url": "https://www.kaigokensaku.mhlw.go.jp/07/index.php?action_kouhyou_detail_004_kani=true&JigyosyoCd=0790300552-00&ServiceCd=320&Type=search", "url2": "https://care-itikawa.com/" }, "geometry": { "type": "Point", "coordinates": [ 140.317834084655715, 37.392594406053242 ] } },
{ "type": "Feature", "properties": { "内容": "グループホーム　福祉の杜【認知症対応型共同生活介護】福島県郡山市西田町鬼生田字杉内206", "url": "https://www.kaigokensaku.mhlw.go.jp/07/index.php?action_kouhyou_detail_004_kani=true&JigyosyoCd=0790300644-00&ServiceCd=320&Type=search", "url2": "http://ai-nosato.jp" }, "geometry": { "type": "Point", "coordinates": [ 140.440557899999931, 37.4622829 ] } },
{ "type": "Feature", "properties": { "内容": "あいの里　けやきの里【認知症対応型共同生活介護】福島県郡山市大槻町字北ノ山22-3", "url": "https://www.kaigokensaku.mhlw.go.jp/07/index.php?action_kouhyou_detail_004_kani=true&JigyosyoCd=0790300685-00&ServiceCd=320&Type=search", "url2": "https://ai-nosato.jp" }, "geometry": { "type": "Point", "coordinates": [ 140.31541509206545, 37.393621170503152 ] } },
{ "type": "Feature", "properties": { "内容": "あいの里　芳賀【認知症対応型共同生活介護】石渕町11番3号", "url": "https://www.kaigokensaku.mhlw.go.jp/07/index.php?action_kouhyou_detail_004_kani=true&JigyosyoCd=0790301022-00&ServiceCd=320&Type=search", "url2": "https://ai-nosato.jp/" }, "geometry": { "type": "Point", "coordinates": [ 140.404297167847801, 37.390059154077925 ] } },
{ "type": "Feature", "properties": { "内容": "あいの里きくた【認知症対応型共同生活介護】福島県郡山市東原3‐219‐1", "url": "https://www.kaigokensaku.mhlw.go.jp/07/index.php?action_kouhyou_detail_004_kani=true&JigyosyoCd=0790301113-00&ServiceCd=320&Type=search", "url2": null }, "geometry": { "type": "Point", "coordinates": [ 140.3566111, 37.4302062 ] } },
{ "type": "Feature", "properties": { "内容": "郡山ケアハートガーデングループホームあさかの郷【認知症対応型共同生活介護】福島県郡山市安積町南長久保1-85-2", "url": "https://www.kaigokensaku.mhlw.go.jp/07/index.php?action_kouhyou_detail_004_kani=true&JigyosyoCd=0790301337-00&ServiceCd=320&Type=search", "url2": null }, "geometry": { "type": "Point", "coordinates": [ 140.3580605, 37.3574085 ] } },
{ "type": "Feature", "properties": { "内容": "健康倶楽部郡山　グループホーム　「エスポワール」【認知症対応型共同生活介護】福島県郡山市御前南五丁目１３９番地", "url": "https://www.kaigokensaku.mhlw.go.jp/07/index.php?action_kouhyou_detail_004_kani=true&JigyosyoCd=0790300099-00&ServiceCd=320&Type=search", "url2": "http://www.heiseikai-group.com./" }, "geometry": { "type": "Point", "coordinates": [ 140.327657, 37.3850799 ] } },
{ "type": "Feature", "properties": { "内容": "愛の家グループホーム郡山日和田【認知症対応型共同生活介護】福島県郡山市日和田町字財ノ木原15-4愛の家グループホーム郡山日和田", "url": "https://www.kaigokensaku.mhlw.go.jp/07/index.php?action_kouhyou_detail_004_kani=true&JigyosyoCd=0770301950-00&ServiceCd=320&Type=search", "url2": "https://mcs-ainoie.com/search/fukushima/koriyamashi/gh026/" }, "geometry": { "type": "Point", "coordinates": [ 140.383920849073803, 37.444724670933319 ] } },
{ "type": "Feature", "properties": { "内容": "ニチイケアセンターいわき小島【認知症対応型共同生活介護】福島県いわき市小島町一丁目４－６", "url": "https://www.kaigokensaku.mhlw.go.jp/07/index.php?action_kouhyou_detail_004_kani=true&JigyosyoCd=0790400659-00&ServiceCd=320&Type=search", "url2": "http://www.nichiigakkan.co.jp" }, "geometry": { "type": "Point", "coordinates": [ 140.88090999814753, 37.049441112220997 ] } },
{ "type": "Feature", "properties": { "内容": "グループホームフェアリー・1【認知症対応型共同生活介護】福島県いわき市植田町中央一丁目12番地の8グループホームフェアリー・1", "url": "https://www.kaigokensaku.mhlw.go.jp/07/index.php?action_kouhyou_detail_004_kani=true&JigyosyoCd=0770402469-00&ServiceCd=320&Type=search", "url2": null }, "geometry": { "type": "Point", "coordinates": [ 140.7984912, 36.9191248 ] } },
{ "type": "Feature", "properties": { "内容": "グループホーム　かしま【認知症対応型共同生活介護】福島県いわき市鹿島町下蔵持字里屋13-1", "url": "https://www.kaigokensaku.mhlw.go.jp/07/index.php?action_kouhyou_detail_004_kani=true&JigyosyoCd=0770401768-00&ServiceCd=320&Type=search", "url2": "http://www.kashimasou.jp/" }, "geometry": { "type": "Point", "coordinates": [ 140.909872899999982, 36.9914809 ] } },
{ "type": "Feature", "properties": { "内容": "グループホーム笑馬【認知症対応型共同生活介護】三和町渡戸字宿頭７９", "url": "https://www.kaigokensaku.mhlw.go.jp/07/index.php?action_kouhyou_detail_004_kani=true&JigyosyoCd=0790401236-00&ServiceCd=320&Type=search", "url2": "https://chirorin-ema.co.jp" }, "geometry": { "type": "Point", "coordinates": [ 140.7377755, 37.1224097 ] } },
{ "type": "Feature", "properties": { "内容": "ツクイいわき小名浜グループホーム【認知症対応型共同生活介護】福島県いわき市小名浜大原字原木田前198-1ツクイいわき小名浜グループホーム", "url": "https://www.kaigokensaku.mhlw.go.jp/07/index.php?action_kouhyou_detail_004_kani=true&JigyosyoCd=0790401244-00&ServiceCd=320&Type=search", "url2": "https://www.tsukui.net" }, "geometry": { "type": "Point", "coordinates": [ 140.8932428, 36.9614716 ] } },
{ "type": "Feature", "properties": { "内容": "ニチイケアセンターいわき内郷【認知症対応型共同生活介護】福島県いわき市内郷高坂町大町30-4", "url": "https://www.kaigokensaku.mhlw.go.jp/07/index.php?action_kouhyou_detail_004_kani=true&JigyosyoCd=0790400402-00&ServiceCd=320&Type=search", "url2": "http://www.nichiigakkan.co.jp" }, "geometry": { "type": "Point", "coordinates": [ 140.862142700000049, 37.0460689 ] } },
{ "type": "Feature", "properties": { "内容": "ヘルパーステーション小川　ひまわりの家【認知症対応型共同生活介護】福島県いわき市小川町福岡字飯森３７－１", "url": "https://www.kaigokensaku.mhlw.go.jp/07/index.php?action_kouhyou_detail_004_kani=true&JigyosyoCd=0770403756-00&ServiceCd=320&Type=search", "url2": "https://ogawa185.stars.ne.jp/" }, "geometry": { "type": "Point", "coordinates": [ 140.851455900000019, 37.1399776 ] } },
{ "type": "Feature", "properties": { "内容": "グループホーム我が家【認知症対応型共同生活介護】福島県いわき市平字橋下1番地ニューアロービル", "url": "https://www.kaigokensaku.mhlw.go.jp/07/index.php?action_kouhyou_detail_004_kani=true&JigyosyoCd=0770403327-00&ServiceCd=320&Type=search", "url2": "https://www.grouphome-wagaya.com/" }, "geometry": { "type": "Point", "coordinates": [ 140.881082874868753, 37.051502611215746 ] } },
{ "type": "Feature", "properties": { "内容": "グループホーム我が家好間【認知症対応型共同生活介護】福島県いわき市好間町下好間字鬼越42-3", "url": "https://www.kaigokensaku.mhlw.go.jp/07/index.php?action_kouhyou_detail_004_kani=true&JigyosyoCd=0790400527-00&ServiceCd=320&Type=search", "url2": "https://www.grouphome-wagaya.com/" }, "geometry": { "type": "Point", "coordinates": [ 140.868879361515837, 37.059261870953691 ] } },
{ "type": "Feature", "properties": { "内容": "いわき内郷グループホーム【認知症対応型共同生活介護】福島県いわき市内郷御厩町3-34", "url": "https://www.kaigokensaku.mhlw.go.jp/07/index.php?action_kouhyou_detail_004_kani=true&JigyosyoCd=0790401251-00&ServiceCd=320&Type=search", "url2": "https://www.tsukui.net" }, "geometry": { "type": "Point", "coordinates": [ 140.8711896, 37.0501956 ] } },
{ "type": "Feature", "properties": { "内容": "けあビジョンホームいわき南【認知症対応型共同生活介護】薄磯1丁目11－3", "url": "https://www.kaigokensaku.mhlw.go.jp/07/index.php?action_kouhyou_detail_004_kani=true&JigyosyoCd=0790401491-00&ServiceCd=320&Type=search", "url2": "http://www.visualvision.co.jp/" }, "geometry": { "type": "Point", "coordinates": [ 140.9772343, 37.0049744 ] } },
{ "type": "Feature", "properties": { "内容": "愛の家グループホームいわき下荒川【認知症対応型共同生活介護】福島県いわき市平下荒川字諏訪下44-1愛の家グループホームいわき下荒川", "url": "https://www.kaigokensaku.mhlw.go.jp/07/index.php?action_kouhyou_detail_004_kani=true&JigyosyoCd=0790400683-00&ServiceCd=320&Type=search", "url2": "ｇｈ-210＠ｍｃｓｇ・ｃo・ｊｐ" }, "geometry": { "type": "Point", "coordinates": [ 140.9004636, 37.0386605 ] } },
{ "type": "Feature", "properties": { "内容": "愛の家グループホームいわき平窪【認知症対応型共同生活介護】福島県いわき市平中平窪字横枕10-1", "url": "https://www.kaigokensaku.mhlw.go.jp/07/index.php?action_kouhyou_detail_004_kani=true&JigyosyoCd=0790400642-00&ServiceCd=320&Type=search", "url2": "http://www.mcsg.co.jp" }, "geometry": { "type": "Point", "coordinates": [ 140.878084299999955, 37.0847257 ] } },
{ "type": "Feature", "properties": { "内容": "大地の家【認知症対応型共同生活介護】福島県いわき市四倉町字西3丁目12-15", "url": "https://www.kaigokensaku.mhlw.go.jp/07/index.php?action_kouhyou_detail_004_kani=true&JigyosyoCd=0770401495-00&ServiceCd=320&Type=search", "url2": "www.sora-kaigo.com" }, "geometry": { "type": "Point", "coordinates": [ 140.987115393254129, 37.107429784018883 ] } },
{ "type": "Feature", "properties": { "内容": "グループホーム永崎【認知症対応型共同生活介護】福島県いわき市永崎字館３９番地", "url": "https://www.kaigokensaku.mhlw.go.jp/07/index.php?action_kouhyou_detail_004_kani=true&JigyosyoCd=0790401434-00&ServiceCd=320&Type=search", "url2": null }, "geometry": { "type": "Point", "coordinates": [ 140.942071, 36.9579525 ] } },
{ "type": "Feature", "properties": { "内容": "グループホームあさがお【認知症対応型共同生活介護】福島県いわき市植田町本町1-11-4", "url": "https://www.kaigokensaku.mhlw.go.jp/07/index.php?action_kouhyou_detail_004_kani=true&JigyosyoCd=0770403160-00&ServiceCd=320&Type=search", "url2": "asagao@iwaki-aiseikai.jp" }, "geometry": { "type": "Point", "coordinates": [ 140.796894800000018, 36.915387400000014 ] } },
{ "type": "Feature", "properties": { "内容": "グループホーム　悠【認知症対応型共同生活介護】福島県いわき市平赤井字一の町６２の１", "url": "https://www.kaigokensaku.mhlw.go.jp/07/index.php?action_kouhyou_detail_004_kani=true&JigyosyoCd=0790400360-00&ServiceCd=320&Type=search", "url2": "http://iwaki-meiseikai.jp/shisetsu/haruka.html" }, "geometry": { "type": "Point", "coordinates": [ 140.856455200000028, 37.0871081 ] } },
{ "type": "Feature", "properties": { "内容": "グル-プホ-ム　郷ヶ丘シルバーハウス【認知症対応型共同生活介護】福島県いわき市郷ヶ丘二丁目３３番地の５", "url": "https://www.kaigokensaku.mhlw.go.jp/07/index.php?action_kouhyou_detail_004_kani=true&JigyosyoCd=0770403251-00&ServiceCd=320&Type=search", "url2": null }, "geometry": { "type": "Point", "coordinates": [ 140.905099599999971, 37.0249459 ] } },
{ "type": "Feature", "properties": { "内容": "けあビジョンホームいわき【認知症対応型共同生活介護】福島県いわき市小川町上小川字川原２８－１けあビジョンホームいわき", "url": "https://www.kaigokensaku.mhlw.go.jp/07/index.php?action_kouhyou_detail_004_kani=true&JigyosyoCd=0790400972-00&ServiceCd=320&Type=search", "url2": "www.visualvision.co.jp" }, "geometry": { "type": "Point", "coordinates": [ 140.853711400000066, 37.1345643 ] } },
{ "type": "Feature", "properties": { "内容": "グループホーム　内郷【認知症対応型共同生活介護】福島県いわき市内郷高坂町大町２７－１", "url": "https://www.kaigokensaku.mhlw.go.jp/07/index.php?action_kouhyou_detail_004_kani=true&JigyosyoCd=0770403699-00&ServiceCd=320&Type=search", "url2": "http://www.horizon-ghu.com" }, "geometry": { "type": "Point", "coordinates": [ 140.862151, 37.04568 ] } },
{ "type": "Feature", "properties": { "内容": "仁愛グループホーム【認知症対応型共同生活介護】福島県いわき市平中平窪字扇田28番地", "url": "https://www.kaigokensaku.mhlw.go.jp/07/index.php?action_kouhyou_detail_004_kani=true&JigyosyoCd=0790400535-00&ServiceCd=320&Type=search", "url2": "http://jin-ai-kai.jp" }, "geometry": { "type": "Point", "coordinates": [ 140.884955900000023, 37.0865395 ] } },
{ "type": "Feature", "properties": { "内容": "グループホームあしび【認知症対応型共同生活介護】いわき市内郷内町金坂21番地の2", "url": "https://www.kaigokensaku.mhlw.go.jp/07/index.php?action_kouhyou_detail_004_kani=true&JigyosyoCd=0790400766-00&ServiceCd=320&Type=search", "url2": "https://deiasibi.jp/" }, "geometry": { "type": "Point", "coordinates": [ 140.848240043516512, 37.038402594959877 ] } },
{ "type": "Feature", "properties": { "内容": "グループホーム桜【認知症対応型共同生活介護】福島県いわき市錦町前原16-55グループホーム桜", "url": "https://www.kaigokensaku.mhlw.go.jp/07/index.php?action_kouhyou_detail_004_kani=true&JigyosyoCd=0790400915-00&ServiceCd=320&Type=search", "url2": null }, "geometry": { "type": "Point", "coordinates": [ 140.794807942466718, 36.900479760577753 ] } },
{ "type": "Feature", "properties": { "内容": "高原の家　よつくら【認知症対応型共同生活介護】福島県いわき市四倉町上仁井田字夕円164", "url": "https://www.kaigokensaku.mhlw.go.jp/07/index.php?action_kouhyou_detail_004_kani=true&JigyosyoCd=0793230012-00&ServiceCd=320&Type=search", "url2": null }, "geometry": { "type": "Point", "coordinates": [ 140.979735729499794, 37.098436664128002 ] } },
{ "type": "Feature", "properties": { "内容": "いわきケアクラブ　グループホーム小名浜【認知症対応型共同生活介護】福島県いわき市小名浜大原字中野地117番地", "url": "https://www.kaigokensaku.mhlw.go.jp/07/index.php?action_kouhyou_detail_004_kani=true&JigyosyoCd=0790401228-00&ServiceCd=320&Type=search", "url2": "https://iwaki-careclub.com" }, "geometry": { "type": "Point", "coordinates": [ 140.893826168261711, 36.959681411072225 ] } },
{ "type": "Feature", "properties": { "内容": "グループホーム羽音【認知症対応型共同生活介護】福島県いわき市常磐水野谷町千代鶴176-1", "url": "https://www.kaigokensaku.mhlw.go.jp/07/index.php?action_kouhyou_detail_004_kani=true&JigyosyoCd=0770402592-00&ServiceCd=320&Type=search", "url2": null }, "geometry": { "type": "Point", "coordinates": [ 140.864924, 37.0042932 ] } },
{ "type": "Feature", "properties": { "内容": "愛の家グループホームいわき若葉台【認知症対応型共同生活介護】若葉台2丁目12-3", "url": "https://www.kaigokensaku.mhlw.go.jp/07/index.php?action_kouhyou_detail_004_kani=true&JigyosyoCd=0790401343-00&ServiceCd=320&Type=search", "url2": "www.mcsg.co.jp" }, "geometry": { "type": "Point", "coordinates": [ 139.4748018, 35.6221244 ] } },
{ "type": "Feature", "properties": { "内容": "グループホーム　ことぶき【認知症対応型共同生活介護】福島県いわき市錦町川窪101-3", "url": "https://www.kaigokensaku.mhlw.go.jp/07/index.php?action_kouhyou_detail_004_kani=true&JigyosyoCd=0770402311-00&ServiceCd=320&Type=search", "url2": "http://care-net.biz/07/kotobuki/company.php" }, "geometry": { "type": "Point", "coordinates": [ 140.784129099999973, 36.9175257 ] } },
{ "type": "Feature", "properties": { "内容": "グループホーム　トモ・ハウス【認知症対応型共同生活介護】福島県いわき市中之作字勝見ヶ浦４９－１８", "url": "https://www.kaigokensaku.mhlw.go.jp/07/index.php?action_kouhyou_detail_004_kani=true&JigyosyoCd=0770403590-00&ServiceCd=320&Type=search", "url2": null }, "geometry": { "type": "Point", "coordinates": [ 140.947531499999968, 36.9562523 ] } },
{ "type": "Feature", "properties": { "内容": "グループホーム三和【認知症対応型共同生活介護】福島県いわき市三和町渡戸字峠平３３－１", "url": "https://www.kaigokensaku.mhlw.go.jp/07/index.php?action_kouhyou_detail_004_kani=true&JigyosyoCd=0790400378-00&ServiceCd=320&Type=search", "url2": "http://www.horizon-ghu.com/" }, "geometry": { "type": "Point", "coordinates": [ 140.73008690000006, 37.1259122 ] } },
{ "type": "Feature", "properties": { "内容": "グループホームつどい栁内家【認知症対応型共同生活介護】福島県いわき市鹿島町御代字柿境25-1", "url": "https://www.kaigokensaku.mhlw.go.jp/07/index.php?action_kouhyou_detail_004_kani=true&JigyosyoCd=0770403566-00&ServiceCd=320&Type=search", "url2": "https://mcp-net.jp" }, "geometry": { "type": "Point", "coordinates": [ 140.8987218, 36.9831547 ] } },
{ "type": "Feature", "properties": { "内容": "グループホームことほぎ庵【認知症対応型共同生活介護】福島県いわき市常磐西郷町岩崎29番地の1", "url": "https://www.kaigokensaku.mhlw.go.jp/07/index.php?action_kouhyou_detail_004_kani=true&JigyosyoCd=0770403418-00&ServiceCd=320&Type=search", "url2": "https://iwaki-kotohogi.com" }, "geometry": { "type": "Point", "coordinates": [ 140.860561400000051, 36.985475799999989 ] } },
{ "type": "Feature", "properties": { "内容": "グループホームしおさい　風の詩【認知症対応型共同生活介護】福島県いわき市久ノ浜町西2丁目７－８", "url": "https://www.kaigokensaku.mhlw.go.jp/07/index.php?action_kouhyou_detail_004_kani=true&JigyosyoCd=0790400477-00&ServiceCd=320&Type=search", "url2": null }, "geometry": { "type": "Point", "coordinates": [ 140.993949199999946, 37.145245 ] } },
{ "type": "Feature", "properties": { "内容": "グループホームよろこび【認知症対応型共同生活介護】福島県いわき市金山町朝日台132番地", "url": "https://www.kaigokensaku.mhlw.go.jp/07/index.php?action_kouhyou_detail_004_kani=true&JigyosyoCd=0770402170-00&ServiceCd=320&Type=search", "url2": "http://yorokobi-iwaki.com/" }, "geometry": { "type": "Point", "coordinates": [ 140.8233136, 36.9289064 ] } },
{ "type": "Feature", "properties": { "内容": "グループホームわかば【認知症対応型共同生活介護】福島県いわき市四倉町上仁井田字千歳62", "url": "https://www.kaigokensaku.mhlw.go.jp/07/index.php?action_kouhyou_detail_004_kani=true&JigyosyoCd=0790401020-00&ServiceCd=320&Type=search", "url2": null }, "geometry": { "type": "Point", "coordinates": [ 140.976638500000035, 37.1024487 ] } },
{ "type": "Feature", "properties": { "内容": "認知症対応型共同生活介護ほっとファミリーぞうの目【認知症対応型共同生活介護】福島県いわき市佐糠町東一丁目10-8", "url": "https://www.kaigokensaku.mhlw.go.jp/07/index.php?action_kouhyou_detail_004_kani=true&JigyosyoCd=0770400760-00&ServiceCd=320&Type=search", "url2": "aishinkai-iwaki.com" }, "geometry": { "type": "Point", "coordinates": [ 140.805766100000028, 36.918929 ] } },
{ "type": "Feature", "properties": { "内容": "ほっとファミリーぞうの目２【認知症対応型共同生活介護】福島県いわき市平下神谷字後原47-1", "url": "https://www.kaigokensaku.mhlw.go.jp/07/index.php?action_kouhyou_detail_004_kani=true&JigyosyoCd=0770401651-00&ServiceCd=320&Type=search", "url2": "aishinkai-iwaki.com/" }, "geometry": { "type": "Point", "coordinates": [ 140.936911099999946, 37.0653886 ] } },
{ "type": "Feature", "properties": { "内容": "グループホーム　にしきの里【認知症対応型共同生活介護】福島県いわき市錦町鳥居西８１番地の1", "url": "https://www.kaigokensaku.mhlw.go.jp/07/index.php?action_kouhyou_detail_004_kani=true&JigyosyoCd=0790401517-00&ServiceCd=320&Type=search", "url2": "https://ainetto-1.jimdosite.com" }, "geometry": { "type": "Point", "coordinates": [ 140.784209299999986, 36.9112751 ] } },
{ "type": "Feature", "properties": { "内容": "グループホーム「サンファミリー」【認知症対応型共同生活介護】福島県いわき市常磐藤原町大畑13-1", "url": "https://www.kaigokensaku.mhlw.go.jp/07/index.php?action_kouhyou_detail_004_kani=true&JigyosyoCd=0770402444-00&ServiceCd=320&Type=search", "url2": "http://www.sunlife-yumoto.com/" }, "geometry": { "type": "Point", "coordinates": [ 140.813527799999946, 37.0011338 ] } },
{ "type": "Feature", "properties": { "内容": "グループホームわいの家【認知症対応型共同生活介護】福島県いわき市植田町小名田13番2", "url": "https://www.kaigokensaku.mhlw.go.jp/07/index.php?action_kouhyou_detail_004_kani=true&JigyosyoCd=0770403103-00&ServiceCd=320&Type=search", "url2": "http://www.heartful-nakoso.or.jp/" }, "geometry": { "type": "Point", "coordinates": [ 140.79484561415552, 36.923981828468072 ] } },
{ "type": "Feature", "properties": { "内容": "グループホーム泉ヶ丘【認知症対応型共同生活介護】福島県いわき市泉ヶ丘2丁目４５－７", "url": "https://www.kaigokensaku.mhlw.go.jp/07/index.php?action_kouhyou_detail_004_kani=true&JigyosyoCd=0770402121-00&ServiceCd=320&Type=search", "url2": "http://members3.jcom.home.ne.jp/yuusinnkai/" }, "geometry": { "type": "Point", "coordinates": [ 140.8605126, 36.9631456 ] } },
{ "type": "Feature", "properties": { "内容": "医療法人　松尾会　グループホームまつの実【認知症対応型共同生活介護】福島県いわき市平字愛谷町四丁目2番地の3．2番地の4", "url": "https://www.kaigokensaku.mhlw.go.jp/07/index.php?action_kouhyou_detail_004_kani=true&JigyosyoCd=0770403087-00&ServiceCd=320&Type=search", "url2": "https://matsuo-iwaki.or.jp/" }, "geometry": { "type": "Point", "coordinates": [ 140.908048399999984, 37.0514061 ] } },
{ "type": "Feature", "properties": { "内容": "ニチイケアセンターいわき小名浜【認知症対応型共同生活介護】福島県いわき市小名浜岡小名字仏玄前3-1", "url": "https://www.kaigokensaku.mhlw.go.jp/07/index.php?action_kouhyou_detail_004_kani=true&JigyosyoCd=0790400428-00&ServiceCd=320&Type=search", "url2": "hittp://www.nichiigakkan.co.jp" }, "geometry": { "type": "Point", "coordinates": [ 140.906471499999952, 36.958818 ] } },
{ "type": "Feature", "properties": { "内容": "ニチイケアセンターいわき大原【認知症対応型共同生活介護】福島県いわき市小名浜大原字内城23-2", "url": "https://www.kaigokensaku.mhlw.go.jp/07/index.php?action_kouhyou_detail_004_kani=true&JigyosyoCd=0790400519-00&ServiceCd=320&Type=search", "url2": "http://www.nichiigakkan.co.jp" }, "geometry": { "type": "Point", "coordinates": [ 140.892530500000021, 36.9701354 ] } },
{ "type": "Feature", "properties": { "内容": "グループホームあじさい【認知症対応型共同生活介護】福島県いわき市佐糠町東1丁目8-7", "url": "https://www.kaigokensaku.mhlw.go.jp/07/index.php?action_kouhyou_detail_004_kani=true&JigyosyoCd=0790400667-00&ServiceCd=320&Type=search", "url2": "https://ainetto-1.jimdosite.com/" }, "geometry": { "type": "Point", "coordinates": [ 140.806585400000017, 36.918954 ] } },
{ "type": "Feature", "properties": { "内容": "ニチイケアセンターたいら【認知症対応型共同生活介護】福島県いわき市小島町2丁目6番地3号", "url": "https://www.kaigokensaku.mhlw.go.jp/07/index.php?action_kouhyou_detail_004_kani=true&JigyosyoCd=0790400410-00&ServiceCd=320&Type=search", "url2": "http://www.nichiigakkan.co.jp" }, "geometry": { "type": "Point", "coordinates": [ 140.883532100000025, 37.049239 ] } },
{ "type": "Feature", "properties": { "内容": "グループホームムーミンの森【認知症対応型共同生活介護】福島県いわき市常磐関船町一丁目11－8", "url": "https://www.kaigokensaku.mhlw.go.jp/07/index.php?action_kouhyou_detail_004_kani=true&JigyosyoCd=0770402501-00&ServiceCd=320&Type=search", "url2": null }, "geometry": { "type": "Point", "coordinates": [ 140.855032142991604, 37.000125480068846 ] } },
{ "type": "Feature", "properties": { "内容": "けあビジョンホーム白河文珠山【認知症対応型共同生活介護】福島県白河市文珠山19-8", "url": "https://www.kaigokensaku.mhlw.go.jp/07/index.php?action_kouhyou_detail_004_kani=true&JigyosyoCd=0790500136-00&ServiceCd=320&Type=search", "url2": null }, "geometry": { "type": "Point", "coordinates": [ 140.2209019, 37.1184573 ] } },
{ "type": "Feature", "properties": { "内容": "グループホームひもろぎの園【認知症対応型共同生活介護】福島県白河市関辺川前88", "url": "https://www.kaigokensaku.mhlw.go.jp/07/index.php?action_kouhyou_detail_004_kani=true&JigyosyoCd=0770500361-00&ServiceCd=320&Type=search", "url2": "https://sono-himorogi.org/" }, "geometry": { "type": "Point", "coordinates": [ 140.250843700000019, 37.0953891 ] } },
{ "type": "Feature", "properties": { "内容": "グループホーム南湖【認知症対応型共同生活介護】福島県白河市関辺引目橋33", "url": "https://www.kaigokensaku.mhlw.go.jp/07/index.php?action_kouhyou_detail_004_kani=true&JigyosyoCd=0790500037-00&ServiceCd=320&Type=search", "url2": "https://sono-himorogi.org/" }, "geometry": { "type": "Point", "coordinates": [ 140.237677699999949, 37.1007298 ] } },
{ "type": "Feature", "properties": { "内容": "けあビジョンホーム白河田島【認知症対応型共同生活介護】福島県白河市田島82番地", "url": "https://www.kaigokensaku.mhlw.go.jp/07/index.php?action_kouhyou_detail_004_kani=true&JigyosyoCd=0790500185-00&ServiceCd=320&Type=search", "url2": null }, "geometry": { "type": "Point", "coordinates": [ 140.28901110000001, 37.1171407 ] } },
{ "type": "Feature", "properties": { "内容": "グループホーム　いにしえ【認知症対応型共同生活介護】福島県須賀川市下宿町83番地", "url": "https://www.kaigokensaku.mhlw.go.jp/07/index.php?action_kouhyou_detail_004_kani=true&JigyosyoCd=0770700649-00&ServiceCd=320&Type=search", "url2": "http://www.sia.co.jp/~souken/" }, "geometry": { "type": "Point", "coordinates": [ 140.374748100000033, 37.3081029 ] } },
{ "type": "Feature", "properties": { "内容": "グループホームすずらんあかり【認知症対応型共同生活介護】福島県須賀川市森宿字横見根66-7", "url": "https://www.kaigokensaku.mhlw.go.jp/07/index.php?action_kouhyou_detail_004_kani=true&JigyosyoCd=0790700090-00&ServiceCd=320&Type=search", "url2": "http://houshinkai.jp/" }, "geometry": { "type": "Point", "coordinates": [ 140.373349760188262, 37.316567072078001 ] } },
{ "type": "Feature", "properties": { "内容": "エルピスホーム【認知症対応型共同生活介護】福島県須賀川市和田字沓掛48番1", "url": "https://www.kaigokensaku.mhlw.go.jp/07/index.php?action_kouhyou_detail_004_kani=true&JigyosyoCd=0770700417-00&ServiceCd=320&Type=search", "url2": "tokushinkai.care" }, "geometry": { "type": "Point", "coordinates": [ 140.379399799999987, 37.2673157 ] } },
{ "type": "Feature", "properties": { "内容": "グループホームすずらん紡【認知症対応型共同生活介護】福島県須賀川市小作田字荒町台17", "url": "https://www.kaigokensaku.mhlw.go.jp/07/index.php?action_kouhyou_detail_004_kani=true&JigyosyoCd=0790700033-00&ServiceCd=320&Type=search", "url2": "https://houshinkai.jp" }, "geometry": { "type": "Point", "coordinates": [ 140.4098166, 37.2704274 ] } },
{ "type": "Feature", "properties": { "内容": "グループホームすずらん【認知症対応型共同生活介護】福島県須賀川市東作22-8", "url": "https://www.kaigokensaku.mhlw.go.jp/07/index.php?action_kouhyou_detail_004_kani=true&JigyosyoCd=0770700375-00&ServiceCd=320&Type=search", "url2": "http://care-net.biz/07/houshinkai/" }, "geometry": { "type": "Point", "coordinates": [ 140.382299200000034, 37.2770703 ] } },
{ "type": "Feature", "properties": { "内容": "グループホームすずらん日向【認知症対応型共同生活介護】福島県須賀川市日向町１７番地", "url": "https://www.kaigokensaku.mhlw.go.jp/07/index.php?action_kouhyou_detail_004_kani=true&JigyosyoCd=0770700581-00&ServiceCd=320&Type=search", "url2": "http://houshinkai.jp" }, "geometry": { "type": "Point", "coordinates": [ 140.356047600000011, 37.2944237 ] } },
{ "type": "Feature", "properties": { "内容": "グループホーム楓の郷【認知症対応型共同生活介護】福島県須賀川市西田町9-3", "url": "https://www.kaigokensaku.mhlw.go.jp/07/index.php?action_kouhyou_detail_004_kani=true&JigyosyoCd=0790700173-00&ServiceCd=320&Type=search", "url2": "https://care.living-platform.com/facility/79" }, "geometry": { "type": "Point", "coordinates": [ 140.352975, 37.298959 ] } },
{ "type": "Feature", "properties": { "内容": "グループホーム　もも太郎さん　喜多方【認知症対応型共同生活介護】福島県喜多方市松山町村松字上原22番地", "url": "https://www.kaigokensaku.mhlw.go.jp/07/index.php?action_kouhyou_detail_004_kani=true&JigyosyoCd=0770800498-00&ServiceCd=320&Type=search", "url2": "http：//www.momotarousann.co.com/" }, "geometry": { "type": "Point", "coordinates": [ 139.8763577, 37.678773 ] } },
{ "type": "Feature", "properties": { "内容": "医療法人佐原病院　グループホームひまわり【認知症対応型共同生活介護】福島県喜多方市字さつきが丘１０１番地", "url": "https://www.kaigokensaku.mhlw.go.jp/07/index.php?action_kouhyou_detail_004_kani=true&JigyosyoCd=0770800464-00&ServiceCd=320&Type=search", "url2": "http://www.sawara.or.jp" }, "geometry": { "type": "Point", "coordinates": [ 139.876939399999969, 37.6407647 ] } },
{ "type": "Feature", "properties": { "内容": "医療法人佐原病院　グループホームさわら【認知症対応型共同生活介護】福島県喜多方市塩川町字大在家２１", "url": "https://www.kaigokensaku.mhlw.go.jp/07/index.php?action_kouhyou_detail_004_kani=true&JigyosyoCd=0790800015-00&ServiceCd=320&Type=search", "url2": "http://www.sawara.or.jp" }, "geometry": { "type": "Point", "coordinates": [ 139.894264, 37.6025124 ] } },
{ "type": "Feature", "properties": { "内容": "グループホーム　すこやか【認知症対応型共同生活介護】福島県喜多方市松山町村松字北原３６５６-１", "url": "https://www.kaigokensaku.mhlw.go.jp/07/index.php?action_kouhyou_detail_004_kani=true&JigyosyoCd=0770800324-00&ServiceCd=320&Type=search", "url2": "http://www.tenshinkai.or.jp" }, "geometry": { "type": "Point", "coordinates": [ 139.86904119999997, 37.6834788 ] } },
{ "type": "Feature", "properties": { "内容": "グループホームやわらぎ【認知症対応型共同生活介護】福島県喜多方市東桜ガ丘１丁目１３６番地", "url": "https://www.kaigokensaku.mhlw.go.jp/07/index.php?action_kouhyou_detail_004_kani=true&JigyosyoCd=0770800316-00&ServiceCd=320&Type=search", "url2": "https://keiwakai.net/" }, "geometry": { "type": "Point", "coordinates": [ 139.87690269999996, 37.6621899 ] } },
{ "type": "Feature", "properties": { "内容": "医療法人社団小野病院　　グループホーム　レインボー【認知症対応型共同生活介護】福島県喜多方市関柴町上高額字広面６７３－６", "url": "https://www.kaigokensaku.mhlw.go.jp/07/index.php?action_kouhyou_detail_004_kani=true&JigyosyoCd=0770800340-00&ServiceCd=320&Type=search", "url2": "onohp.jp" }, "geometry": { "type": "Point", "coordinates": [ 139.880039, 37.6467029 ] } },
{ "type": "Feature", "properties": { "内容": "『至福の郷』グループホーム東町【認知症対応型共同生活介護】福島県喜多方市字石田4041-1", "url": "https://www.kaigokensaku.mhlw.go.jp/07/index.php?action_kouhyou_detail_004_kani=true&JigyosyoCd=0790800114-00&ServiceCd=320&Type=search", "url2": "https://keiwakai.net/" }, "geometry": { "type": "Point", "coordinates": [ 139.882289500000013, 37.6533987 ] } },
{ "type": "Feature", "properties": { "内容": "グループホーム夢の森【認知症対応型共同生活介護】福島県喜多方市熱塩加納町米岡字下平乙608-5", "url": "https://www.kaigokensaku.mhlw.go.jp/07/index.php?action_kouhyou_detail_004_kani=true&JigyosyoCd=0790800122-00&ServiceCd=320&Type=search", "url2": "https://keiwakai.net/" }, "geometry": { "type": "Point", "coordinates": [ 139.869539776741902, 37.720363150984646 ] } },
{ "type": "Feature", "properties": { "内容": "グループホームひびき【認知症対応型共同生活介護】福島県喜多方市山都町字北松ノ前3144", "url": "https://www.kaigokensaku.mhlw.go.jp/07/index.php?action_kouhyou_detail_004_kani=true&JigyosyoCd=0790800130-00&ServiceCd=320&Type=search", "url2": "https://keiwakai.net/" }, "geometry": { "type": "Point", "coordinates": [ 139.765646961901837, 37.640319195049486 ] } },
{ "type": "Feature", "properties": { "内容": "グループホームあおぞら【認知症対応型共同生活介護】福島県喜多方市字下川原8290-16", "url": "https://www.kaigokensaku.mhlw.go.jp/07/index.php?action_kouhyou_detail_004_kani=true&JigyosyoCd=0790800148-00&ServiceCd=320&Type=search", "url2": null }, "geometry": { "type": "Point", "coordinates": [ 139.864361465122727, 37.644737820684 ] } },
{ "type": "Feature", "properties": { "内容": "グループホーム　和ごころ【認知症対応型共同生活介護】福島県相馬市石上字南蛯沢　403-1", "url": "https://www.kaigokensaku.mhlw.go.jp/07/index.php?action_kouhyou_detail_004_kani=true&JigyosyoCd=0790900096-00&ServiceCd=320&Type=search", "url2": "https://www.xn--28ja8oj85itudr3am0l869cg0a6591a.com/" }, "geometry": { "type": "Point", "coordinates": [ 140.910807082374561, 37.817677805572131 ] } },
{ "type": "Feature", "properties": { "内容": "医療法人光麗会　認知症高齢者グループホーム　森の都【認知症対応型共同生活介護】福島県相馬市柚木字大関64-17", "url": "https://www.kaigokensaku.mhlw.go.jp/07/index.php?action_kouhyou_detail_004_kani=true&JigyosyoCd=0790900013-00&ServiceCd=320&Type=search", "url2": "http://www.koureikai.jp/" }, "geometry": { "type": "Point", "coordinates": [ 140.956096699999989, 37.7452911 ] } },
{ "type": "Feature", "properties": { "内容": "株式会社　ビジュアルビジョン　けあビジョンホーム相馬【認知症対応型共同生活介護】福島県相馬市坪田字御仮殿前9-1", "url": "https://www.kaigokensaku.mhlw.go.jp/07/index.php?action_kouhyou_detail_004_kani=true&JigyosyoCd=0790900054-00&ServiceCd=320&Type=search", "url2": null }, "geometry": { "type": "Point", "coordinates": [ 140.907440400000013, 37.768043 ] } },
{ "type": "Feature", "properties": { "内容": "愛の家グループホーム二本松油井【認知症対応型共同生活介護】福島県二本松市油井字石倉75番地1愛の家グループホーム二本松油井", "url": "https://www.kaigokensaku.mhlw.go.jp/07/index.php?action_kouhyou_detail_004_kani=true&JigyosyoCd=0791000110-00&ServiceCd=320&Type=search", "url2": "https://mcs-ainoie.com/search/fukushima/nihonmatsushi/gh260/" }, "geometry": { "type": "Point", "coordinates": [ 140.4593056, 37.6145042 ] } },
{ "type": "Feature", "properties": { "内容": "グループホームオハナハウス【認知症対応型共同生活介護】福島県二本松市高田1番地1", "url": "https://www.kaigokensaku.mhlw.go.jp/07/index.php?action_kouhyou_detail_004_kani=true&JigyosyoCd=0791000037-00&ServiceCd=320&Type=search", "url2": "http://care-net.biz/07/midorinosato/" }, "geometry": { "type": "Point", "coordinates": [ 140.4465722, 37.5844111 ] } },
{ "type": "Feature", "properties": { "内容": "グループホーム　まいんど福の里【認知症対応型共同生活介護】福島県二本松市杉田町一丁目2番地1", "url": "https://www.kaigokensaku.mhlw.go.jp/07/index.php?action_kouhyou_detail_004_kani=true&JigyosyoCd=0771000197-00&ServiceCd=320&Type=search", "url2": "http://www.mind-gr.co.jp" }, "geometry": { "type": "Point", "coordinates": [ 140.408381818091186, 37.563000499302163 ] } },
{ "type": "Feature", "properties": { "内容": "かがやきの杜　認知症対応型共同生活介護【認知症対応型共同生活介護】福島県二本松市針道字橇町24番地", "url": "https://www.kaigokensaku.mhlw.go.jp/07/index.php?action_kouhyou_detail_004_kani=true&JigyosyoCd=0791000151-00&ServiceCd=320&Type=search", "url2": "http://cosmo-m-s.co.jp" }, "geometry": { "type": "Point", "coordinates": [ 140.579281, 37.596529 ] } },
{ "type": "Feature", "properties": { "内容": "あいの里　霞【認知症対応型共同生活介護】福島県二本松市油井字下中ノ内85", "url": "https://www.kaigokensaku.mhlw.go.jp/07/index.php?action_kouhyou_detail_004_kani=true&JigyosyoCd=0791000185-00&ServiceCd=320&Type=search", "url2": "https://ai-nosato.jp/" }, "geometry": { "type": "Point", "coordinates": [ 140.466679199999987, 37.6117676 ] } },
{ "type": "Feature", "properties": { "内容": "グループホームあだち【認知症対応型共同生活介護】福島県二本松市渋川字上払川27-1", "url": "https://www.kaigokensaku.mhlw.go.jp/07/index.php?action_kouhyou_detail_004_kani=true&JigyosyoCd=0791000193-00&ServiceCd=320&Type=search", "url2": "https://care.living-platform.com/facility/145" }, "geometry": { "type": "Point", "coordinates": [ 140.4620421, 37.6304683 ] } },
{ "type": "Feature", "properties": { "内容": "グループホームおばま【認知症対応型共同生活介護】福島県二本松市下長折字藤540", "url": "https://www.kaigokensaku.mhlw.go.jp/07/index.php?action_kouhyou_detail_004_kani=true&JigyosyoCd=0791000201-00&ServiceCd=320&Type=search", "url2": "https://care.living-platform.com/facility/146" }, "geometry": { "type": "Point", "coordinates": [ 140.5117563, 37.580975 ] } },
{ "type": "Feature", "properties": { "内容": "グループホーム　優希の杜【認知症対応型共同生活介護】福島県二本松市岳温泉1-206-3", "url": "https://www.kaigokensaku.mhlw.go.jp/07/index.php?action_kouhyou_detail_004_kani=true&JigyosyoCd=0791000227-00&ServiceCd=320&Type=search", "url2": "https://care.living-platform.com/facilitv/151" }, "geometry": { "type": "Point", "coordinates": [ 140.3557553, 37.6035752 ] } },
{ "type": "Feature", "properties": { "内容": "グループホームせせらぎ【認知症対応型共同生活介護】福島県田村市船引町船引字上江148-2", "url": "https://www.kaigokensaku.mhlw.go.jp/07/index.php?action_kouhyou_detail_004_kani=true&JigyosyoCd=0791100050-00&ServiceCd=320&Type=search", "url2": "seseragi@wind.ocn.ne.jp" }, "geometry": { "type": "Point", "coordinates": [ 140.5916075, 37.431231300000015 ] } },
{ "type": "Feature", "properties": { "内容": "グループホームつつじ【認知症対応型共同生活介護】福島県田村市大越町上大越字古内舘野４０－５グループホームつつじ", "url": "https://www.kaigokensaku.mhlw.go.jp/07/index.php?action_kouhyou_detail_004_kani=true&JigyosyoCd=0791100027-00&ServiceCd=320&Type=search", "url2": "tutuji@poppy.ocn.ne.jp" }, "geometry": { "type": "Point", "coordinates": [ 140.632646199999954, 37.3739802 ] } },
{ "type": "Feature", "properties": { "内容": "グループホームはこべ西棟【認知症対応型共同生活介護】福島県田村市常葉町常葉字七日市場99", "url": "https://www.kaigokensaku.mhlw.go.jp/07/index.php?action_kouhyou_detail_004_kani=true&JigyosyoCd=0791100092-00&ServiceCd=320&Type=search", "url2": null }, "geometry": { "type": "Point", "coordinates": [ 140.632103, 37.438687 ] } },
{ "type": "Feature", "properties": { "内容": "グループホームはこべ【認知症対応型共同生活介護】福島県田村市常葉町常葉字七日市場９９番地", "url": "https://www.kaigokensaku.mhlw.go.jp/07/index.php?action_kouhyou_detail_004_kani=true&JigyosyoCd=0771100179-00&ServiceCd=320&Type=search", "url2": "http://hakobe.net/" }, "geometry": { "type": "Point", "coordinates": [ 140.632103499999971, 37.4386868 ] } },
{ "type": "Feature", "properties": { "内容": "グループホーム　はこべ　南棟【認知症対応型共同生活介護】福島県田村市常葉町常葉字七日市場99番地", "url": "https://www.kaigokensaku.mhlw.go.jp/07/index.php?action_kouhyou_detail_004_kani=true&JigyosyoCd=0791100043-00&ServiceCd=320&Type=search", "url2": "http://hakobe.net/" }, "geometry": { "type": "Point", "coordinates": [ 140.632103499999971, 37.4386868 ] } },
{ "type": "Feature", "properties": { "内容": "船引クリニック　グループホームすみれ【認知症対応型共同生活介護】福島県田村市船引町船引字砂子田1-1,1-2", "url": "https://www.kaigokensaku.mhlw.go.jp/07/index.php?action_kouhyou_detail_004_kani=true&JigyosyoCd=0773100508-00&ServiceCd=320&Type=search", "url2": "http://funehiki.clinic/" }, "geometry": { "type": "Point", "coordinates": [ 140.571969599999989, 37.4451546 ] } },
{ "type": "Feature", "properties": { "内容": "グループホーム「さくら」【認知症対応型共同生活介護】福島県田村市船引町船引字馬場39-1", "url": "https://www.kaigokensaku.mhlw.go.jp/07/index.php?action_kouhyou_detail_004_kani=true&JigyosyoCd=0771100013-00&ServiceCd=320&Type=search", "url2": null }, "geometry": { "type": "Point", "coordinates": [ 140.569428300000027, 37.4427493 ] } },
{ "type": "Feature", "properties": { "内容": "グループホーム今泉【認知症対応型共同生活介護】福島県田村市船引町今泉字台ノ前11-2", "url": "https://www.kaigokensaku.mhlw.go.jp/07/index.php?action_kouhyou_detail_004_kani=true&JigyosyoCd=0791100118-00&ServiceCd=320&Type=search", "url2": "https://care.living-platform.com/facility/78" }, "geometry": { "type": "Point", "coordinates": [ 140.592916800000012, 37.4300339 ] } },
{ "type": "Feature", "properties": { "内容": "グループホーム正寿苑【認知症対応型共同生活介護】福島県田村市船引町東部台3-47", "url": "https://www.kaigokensaku.mhlw.go.jp/07/index.php?action_kouhyou_detail_004_kani=true&JigyosyoCd=0791100126-00&ServiceCd=320&Type=search", "url2": "https://care.living-platform.com/facility/77" }, "geometry": { "type": "Point", "coordinates": [ 140.586386677662659, 37.442869443242003 ] } },
{ "type": "Feature", "properties": { "内容": "グループホームオリーブの家【認知症対応型共同生活介護】福島県南相馬市原町区雫字上江２５２－１", "url": "https://www.kaigokensaku.mhlw.go.jp/07/index.php?action_kouhyou_detail_004_kani=true&JigyosyoCd=0791200082-00&ServiceCd=320&Type=search", "url2": "Somanosato,Inc." }, "geometry": { "type": "Point", "coordinates": [ 140.9948851532601, 37.617891501312393 ] } },
{ "type": "Feature", "properties": { "内容": "ホームズくにみの郷【認知症対応型共同生活介護】福島県南相馬市原町区国見町二丁目11-1", "url": "https://www.kaigokensaku.mhlw.go.jp/07/index.php?action_kouhyou_detail_004_kani=true&JigyosyoCd=0791200033-00&ServiceCd=320&Type=search", "url2": "https://kuniminosato.co.jp/" }, "geometry": { "type": "Point", "coordinates": [ 140.951738306745938, 37.628442177640622 ] } },
{ "type": "Feature", "properties": { "内容": "グループホームたんぽぽ【認知症対応型共同生活介護】福島県南相馬市鹿島区西町三丁目３番地", "url": "https://www.kaigokensaku.mhlw.go.jp/07/index.php?action_kouhyou_detail_004_kani=true&JigyosyoCd=0773300199-00&ServiceCd=320&Type=search", "url2": "https://minamisoma.ask-daiko.co.jp" }, "geometry": { "type": "Point", "coordinates": [ 140.960342699999956, 37.7093258 ] } },
{ "type": "Feature", "properties": { "内容": "グループホームヨッシーⅣ【認知症対応型共同生活介護】原町区石神字赤坂１１０番地１", "url": "https://www.kaigokensaku.mhlw.go.jp/07/index.php?action_kouhyou_detail_004_kani=true&JigyosyoCd=0791200124-00&ServiceCd=320&Type=search", "url2": "jiseikai-mc.jp/" }, "geometry": { "type": "Point", "coordinates": [ 140.924366700000064, 37.6434999 ] } },
{ "type": "Feature", "properties": { "内容": "認知症高齢者グループホーム　田園【認知症対応型共同生活介護】福島県南相馬市鹿島区山下字北山下２1番地", "url": "https://www.kaigokensaku.mhlw.go.jp/07/index.php?action_kouhyou_detail_004_kani=true&JigyosyoCd=0773300249-00&ServiceCd=320&Type=search", "url2": null }, "geometry": { "type": "Point", "coordinates": [ 140.928002900000024, 37.7264645 ] } },
{ "type": "Feature", "properties": { "内容": "グループホーム石神【認知症対応型共同生活介護】福島県南相馬市原町区大木戸字西原71-1", "url": "https://www.kaigokensaku.mhlw.go.jp/07/index.php?action_kouhyou_detail_004_kani=true&JigyosyoCd=0791200058-00&ServiceCd=320&Type=search", "url2": "http://minamisomafukushikai/or.jp/" }, "geometry": { "type": "Point", "coordinates": [ 140.931092199999966, 37.6323831 ] } },
{ "type": "Feature", "properties": { "内容": "グループホームゆめみらい【認知症対応型共同生活介護】福島県伊達市水抜12番地", "url": "https://www.kaigokensaku.mhlw.go.jp/07/index.php?action_kouhyou_detail_004_kani=true&JigyosyoCd=0791300239-00&ServiceCd=320&Type=search", "url2": null }, "geometry": { "type": "Point", "coordinates": [ 140.50815190000003, 37.817588100000016 ] } },
{ "type": "Feature", "properties": { "内容": "グループホームゆめひかり【認知症対応型共同生活介護】福島県伊達市川原町5-1番地", "url": "https://www.kaigokensaku.mhlw.go.jp/07/index.php?action_kouhyou_detail_004_kani=true&JigyosyoCd=0791300304-00&ServiceCd=320&Type=search", "url2": null }, "geometry": { "type": "Point", "coordinates": [ 140.4964506, 37.8120222 ] } },
{ "type": "Feature", "properties": { "内容": "愛の家グループホーム伊達保原【認知症対応型共同生活介護】福島県伊達市保原町字京門23-1", "url": "https://www.kaigokensaku.mhlw.go.jp/07/index.php?action_kouhyou_detail_004_kani=true&JigyosyoCd=0791300163-00&ServiceCd=320&Type=search", "url2": "http://www.mcsg.co.jp" }, "geometry": { "type": "Point", "coordinates": [ 140.551555529638676, 37.812377512384607 ] } },
{ "type": "Feature", "properties": { "内容": "グループホームほばら【認知症対応型共同生活介護】福島県伊達市保原町字西町162", "url": "https://www.kaigokensaku.mhlw.go.jp/07/index.php?action_kouhyou_detail_004_kani=true&JigyosyoCd=0791300148-00&ServiceCd=320&Type=search", "url2": "http://www.nagomi-w.or.jp" }, "geometry": { "type": "Point", "coordinates": [ 140.552983899999958, 37.8239876 ] } },
{ "type": "Feature", "properties": { "内容": "グループホームやながわ【認知症対応型共同生活介護】福島県伊達市梁川町字北本町１７－３", "url": "https://www.kaigokensaku.mhlw.go.jp/07/index.php?action_kouhyou_detail_004_kani=true&JigyosyoCd=0791300064-00&ServiceCd=320&Type=search", "url2": "www.happyisland.org/" }, "geometry": { "type": "Point", "coordinates": [ 140.603511799999978, 37.8565275 ] } },
{ "type": "Feature", "properties": { "内容": "グループホームももの里【認知症対応型共同生活介護】福島県伊達市沓形18番地2", "url": "https://www.kaigokensaku.mhlw.go.jp/07/index.php?action_kouhyou_detail_004_kani=true&JigyosyoCd=0791300155-00&ServiceCd=320&Type=search", "url2": "cosmo-m-s.co.jp/" }, "geometry": { "type": "Point", "coordinates": [ 140.4968182, 37.8230871 ] } },
{ "type": "Feature", "properties": { "内容": "グループホームまいんど万世【認知症対応型共同生活介護】福島県本宮市本宮字万世137番5", "url": "https://www.kaigokensaku.mhlw.go.jp/07/index.php?action_kouhyou_detail_004_kani=true&JigyosyoCd=0791400013-00&ServiceCd=320&Type=search", "url2": "http://www.mind-gr.co.jp" }, "geometry": { "type": "Point", "coordinates": [ 140.3961541, 37.513709 ] } },
{ "type": "Feature", "properties": { "内容": "まいんど万世二番館（グループホーム）【認知症対応型共同生活介護】福島県本宮市本宮字万世134-1", "url": "https://www.kaigokensaku.mhlw.go.jp/07/index.php?action_kouhyou_detail_004_kani=true&JigyosyoCd=0791400039-00&ServiceCd=320&Type=search", "url2": "http://www.mind-gr.co.jp" }, "geometry": { "type": "Point", "coordinates": [ 140.39622538769683, 37.513502701068035 ] } },
{ "type": "Feature", "properties": { "内容": "グループホーム　みなみ【認知症対応型共同生活介護】福島県本宮市糠沢字南箕内102-3", "url": "https://www.kaigokensaku.mhlw.go.jp/07/index.php?action_kouhyou_detail_004_kani=true&JigyosyoCd=0791400047-00&ServiceCd=320&Type=search", "url2": "https://ai-nosato.jp/" }, "geometry": { "type": "Point", "coordinates": [ 140.425300559524544, 37.487834669717842 ] } },
{ "type": "Feature", "properties": { "内容": "グループホームクローバーこおり【認知症対応型共同生活介護】福島県伊達郡桑折町大字万正寺字弁天水12グループホームクローバー", "url": "https://www.kaigokensaku.mhlw.go.jp/07/index.php?action_kouhyou_detail_004_kani=true&JigyosyoCd=0792000010-00&ServiceCd=320&Type=search", "url2": "http://www.clover-kaigo.com/" }, "geometry": { "type": "Point", "coordinates": [ 140.512680153967267, 37.84463591058239 ] } },
{ "type": "Feature", "properties": { "内容": "グループホーム　国見の丘【認知症対応型共同生活介護】福島県伊達郡国見町小坂南３番地", "url": "https://www.kaigokensaku.mhlw.go.jp/07/index.php?action_kouhyou_detail_004_kani=true&JigyosyoCd=0792000036-00&ServiceCd=320&Type=search", "url2": "kunimi-sato.or.jp" }, "geometry": { "type": "Point", "coordinates": [ 140.528105500000038, 37.8879907 ] } },
{ "type": "Feature", "properties": { "内容": "あいの里　つむぎ【認知症対応型共同生活介護】福島県伊達郡川俣町八反田1-3", "url": "https://www.kaigokensaku.mhlw.go.jp/07/index.php?action_kouhyou_detail_004_kani=true&JigyosyoCd=0792000028-00&ServiceCd=320&Type=search", "url2": "http://aino-sato.co.jp/" }, "geometry": { "type": "Point", "coordinates": [ 140.600796354792948, 37.666881647419054 ] } },
{ "type": "Feature", "properties": { "内容": "あいの里　かえでの森【認知症対応型共同生活介護】福島県伊達郡川俣町八反田３－２", "url": "https://www.kaigokensaku.mhlw.go.jp/07/index.php?action_kouhyou_detail_004_kani=true&JigyosyoCd=0792020018-00&ServiceCd=320&Type=search", "url2": "http://aino-sato.co.jp" }, "geometry": { "type": "Point", "coordinates": [ 140.6188532, 37.6679334 ] } },
{ "type": "Feature", "properties": { "内容": "グループホーム　まいんど満天【認知症対応型共同生活介護】福島県安達郡大玉村玉井字北東町54-1", "url": "https://www.kaigokensaku.mhlw.go.jp/07/index.php?action_kouhyou_detail_004_kani=true&JigyosyoCd=0792100018-00&ServiceCd=320&Type=search", "url2": "http://www.mind-gr.co.jp" }, "geometry": { "type": "Point", "coordinates": [ 140.372497599999946, 37.5297787 ] } },
{ "type": "Feature", "properties": { "内容": "グループホームありあ【認知症対応型共同生活介護】福島県岩瀬郡鏡石町高久田136-1-2", "url": "https://www.kaigokensaku.mhlw.go.jp/07/index.php?action_kouhyou_detail_004_kani=true&JigyosyoCd=0792200040-00&ServiceCd=320&Type=search", "url2": null }, "geometry": { "type": "Point", "coordinates": [ 140.35608773558198, 37.267534929140147 ] } },
{ "type": "Feature", "properties": { "内容": "グループホームなでしこ【認知症対応型共同生活介護】福島県岩瀬郡鏡石町高久田136番地1", "url": "https://www.kaigokensaku.mhlw.go.jp/07/index.php?action_kouhyou_detail_004_kani=true&JigyosyoCd=0792200057-00&ServiceCd=320&Type=search", "url2": "https://www.living-platform.com/" }, "geometry": { "type": "Point", "coordinates": [ 140.35609310000001, 37.2674837 ] } },
{ "type": "Feature", "properties": { "内容": "グループホームてんえい【認知症対応型共同生活介護】福島県岩瀬郡天栄村大字飯豊字大行４５－１", "url": "https://www.kaigokensaku.mhlw.go.jp/07/index.php?action_kouhyou_detail_004_kani=true&JigyosyoCd=0792200065-00&ServiceCd=320&Type=search", "url2": "https://care.living-platform.com/" }, "geometry": { "type": "Point", "coordinates": [ 140.28228357116393, 37.24583959677949 ] } },
{ "type": "Feature", "properties": { "内容": "グループホーム郷の家【認知症対応型共同生活介護】福島県南会津郡下郷町大字塩生字下タ原1313-1", "url": "https://www.kaigokensaku.mhlw.go.jp/07/index.php?action_kouhyou_detail_004_kani=true&JigyosyoCd=0792300014-00&ServiceCd=320&Type=search", "url2": "http://shoseikai.or.jp/age07.htm" }, "geometry": { "type": "Point", "coordinates": [ 139.87104260000001, 37.2503917 ] } },
{ "type": "Feature", "properties": { "内容": "グループホーム和の里【認知症対応型共同生活介護】福島県南会津郡只見町大字小林字七十苅622-1", "url": "https://www.kaigokensaku.mhlw.go.jp/07/index.php?action_kouhyou_detail_004_kani=true&JigyosyoCd=0792320012-00&ServiceCd=320&Type=search", "url2": null }, "geometry": { "type": "Point", "coordinates": [ 139.4510592, 37.3072903 ] } },
{ "type": "Feature", "properties": { "内容": "グループホーム花南会津【認知症対応型共同生活介護】福島県南会津郡南会津町丹藤字中川原675-6", "url": "https://www.kaigokensaku.mhlw.go.jp/07/index.php?action_kouhyou_detail_004_kani=true&JigyosyoCd=0772300497-00&ServiceCd=320&Type=search", "url2": null }, "geometry": { "type": "Point", "coordinates": [ 139.7718347, 37.2079132 ] } },
{ "type": "Feature", "properties": { "内容": "グループホームさくら【認知症対応型共同生活介護】福島県耶麻郡北塩原村大字下吉字堂ノ下２番地", "url": "https://www.kaigokensaku.mhlw.go.jp/07/index.php?action_kouhyou_detail_004_kani=true&JigyosyoCd=0792500019-00&ServiceCd=320&Type=search", "url2": "http://sawara.or.jp" }, "geometry": { "type": "Point", "coordinates": [ 139.919028927618427, 37.656585434895362 ] } },
{ "type": "Feature", "properties": { "内容": "医療法人社団小野病院　グループホームラポール【認知症対応型共同生活介護】福島県耶麻郡北塩原村大字北山字地蔵堂２９０４番地", "url": "https://www.kaigokensaku.mhlw.go.jp/07/index.php?action_kouhyou_detail_004_kani=true&JigyosyoCd=0772500401-00&ServiceCd=320&Type=search", "url2": "https://onohp.jp" }, "geometry": { "type": "Point", "coordinates": [ 139.9355607, 37.6551925 ] } },
{ "type": "Feature", "properties": { "内容": "認知症対応型共同生活介護事業所　グループホームのぞみ【認知症対応型共同生活介護】福島県耶麻郡西会津町登世島字田畑乙２０４２－６０", "url": "https://www.kaigokensaku.mhlw.go.jp/07/index.php?action_kouhyou_detail_004_kani=true&JigyosyoCd=0772500393-00&ServiceCd=320&Type=search", "url2": null }, "geometry": { "type": "Point", "coordinates": [ 139.637429046943652, 37.597694434969569 ] } },
{ "type": "Feature", "properties": { "内容": "グループホーム西会津しょうぶ苑桐【認知症対応型共同生活介護】福島県耶麻郡西会津町野沢字下小屋上乙3229番1", "url": "https://www.kaigokensaku.mhlw.go.jp/07/index.php?action_kouhyou_detail_004_kani=true&JigyosyoCd=0792510026-00&ServiceCd=320&Type=search", "url2": "https://keiwakai.net/" }, "geometry": { "type": "Point", "coordinates": [ 139.646634269836426, 37.588426989147592 ] } },
{ "type": "Feature", "properties": { "内容": "グループホーム西会津しょうぶ苑おとめゆり【認知症対応型共同生活介護】福島県耶麻郡西会津町野沢字下小屋上乙3229番1", "url": "https://www.kaigokensaku.mhlw.go.jp/07/index.php?action_kouhyou_detail_004_kani=true&JigyosyoCd=0792510034-00&ServiceCd=320&Type=search", "url2": "https://keiwakai.net/" }, "geometry": { "type": "Point", "coordinates": [ 139.646902490737943, 37.588448243313984 ] } },
{ "type": "Feature", "properties": { "内容": "ハーモニー磐梯【認知症対応型共同生活介護】福島県耶麻郡磐梯町大字磐梯字山道366番地", "url": "https://www.kaigokensaku.mhlw.go.jp/07/index.php?action_kouhyou_detail_004_kani=true&JigyosyoCd=0792520017-00&ServiceCd=320&Type=search", "url2": "http://www.sin-ai.com/" }, "geometry": { "type": "Point", "coordinates": [ 139.998592799999983, 37.560252 ] } },
{ "type": "Feature", "properties": { "内容": "いなわしろの憩【認知症対応型共同生活介護】福島県耶麻郡猪苗代町大字蚕養字沼尻山甲2855いなわしろの憩", "url": "https://www.kaigokensaku.mhlw.go.jp/07/index.php?action_kouhyou_detail_004_kani=true&JigyosyoCd=0792500035-00&ServiceCd=320&Type=search", "url2": "https://www.frontier-gp.jp" }, "geometry": { "type": "Point", "coordinates": [ 140.225259099999988, 37.6233031 ] } },
{ "type": "Feature", "properties": { "内容": "ハーモニー猪苗代【認知症対応型共同生活介護】福島県耶麻郡猪苗代町字城南１３１番地１", "url": "https://www.kaigokensaku.mhlw.go.jp/07/index.php?action_kouhyou_detail_004_kani=true&JigyosyoCd=0792530040-00&ServiceCd=320&Type=search", "url2": "sin-ai.com" }, "geometry": { "type": "Point", "coordinates": [ 140.1040494, 37.559332 ] } },
{ "type": "Feature", "properties": { "内容": "グループホームすみれ・梨の木【認知症対応型共同生活介護】福島県耶麻郡猪苗代町字梨木西４４－１", "url": "https://www.kaigokensaku.mhlw.go.jp/07/index.php?action_kouhyou_detail_004_kani=true&JigyosyoCd=0792530032-00&ServiceCd=320&Type=search", "url2": "https://funehiki.clinic/" }, "geometry": { "type": "Point", "coordinates": [ 140.1127596, 37.5594351 ] } },
{ "type": "Feature", "properties": { "内容": "グループホーム結和【認知症対応型共同生活介護】福島県河沼郡会津坂下町字中岩田91", "url": "https://www.kaigokensaku.mhlw.go.jp/07/index.php?action_kouhyou_detail_004_kani=true&JigyosyoCd=0792600041-00&ServiceCd=320&Type=search", "url2": "www.magokoro-egao-anshin.com/" }, "geometry": { "type": "Point", "coordinates": [ 139.812148983828706, 37.561095595125423 ] } },
{ "type": "Feature", "properties": { "内容": "グループホーム杵が森【認知症対応型共同生活介護】福島県河沼郡会津坂下町字稲荷塚127", "url": "https://www.kaigokensaku.mhlw.go.jp/07/index.php?action_kouhyou_detail_004_kani=true&JigyosyoCd=0792600033-00&ServiceCd=320&Type=search", "url2": "https://keiwakai.net/" }, "geometry": { "type": "Point", "coordinates": [ 139.812837700000046, 37.565569 ] } },
{ "type": "Feature", "properties": { "内容": "グループホーム　もも太郎さん坂下【認知症対応型共同生活介護】福島県河沼郡会津坂下町見明字古屋敷771-1", "url": "https://www.kaigokensaku.mhlw.go.jp/07/index.php?action_kouhyou_detail_004_kani=true&JigyosyoCd=0792600025-00&ServiceCd=320&Type=search", "url2": "http://www.momotarousan.com/" }, "geometry": { "type": "Point", "coordinates": [ 139.7974308, 37.5858087 ] } },
{ "type": "Feature", "properties": { "内容": "グループホームあじさい【認知症対応型共同生活介護】福島県河沼郡湯川村大字浜崎字城東1589-1", "url": "https://www.kaigokensaku.mhlw.go.jp/07/index.php?action_kouhyou_detail_004_kani=true&JigyosyoCd=0792610016-00&ServiceCd=320&Type=search", "url2": "https://keiwakai.net/" }, "geometry": { "type": "Point", "coordinates": [ 139.890187500000025, 37.5877886 ] } },
{ "type": "Feature", "properties": { "内容": "グループホーム柳の杜【認知症対応型共同生活介護】福島県河沼郡柳津町大字郷戸字川口原丙1106-22グループホーム柳の杜", "url": "https://www.kaigokensaku.mhlw.go.jp/07/index.php?action_kouhyou_detail_004_kani=true&JigyosyoCd=0792620015-00&ServiceCd=320&Type=search", "url2": null }, "geometry": { "type": "Point", "coordinates": [ 139.7022256, 37.5083081 ] } },
{ "type": "Feature", "properties": { "内容": "グループホームかねやま【認知症対応型共同生活介護】福島県大沼郡金山町大字中川字沖根原１２２３－１", "url": "https://www.kaigokensaku.mhlw.go.jp/07/index.php?action_kouhyou_detail_004_kani=true&JigyosyoCd=0792710014-00&ServiceCd=320&Type=search", "url2": "http://www.cosmo-ph.co.jp/group/sapport/" }, "geometry": { "type": "Point", "coordinates": [ 139.5300049, 37.4731463 ] } },
{ "type": "Feature", "properties": { "内容": "グループホーム第２あけぼの【認知症対応型共同生活介護】福島県大沼郡会津美里町下堀字中川４６", "url": "https://www.kaigokensaku.mhlw.go.jp/07/index.php?action_kouhyou_detail_004_kani=true&JigyosyoCd=0792730038-00&ServiceCd=320&Type=search", "url2": null }, "geometry": { "type": "Point", "coordinates": [ 139.844258299999979, 37.4556849 ] } },
{ "type": "Feature", "properties": { "内容": "グループホーム　あけぼの【認知症対応型共同生活介護】福島県会津美里町下堀字中川46番地", "url": "https://www.kaigokensaku.mhlw.go.jp/07/index.php?action_kouhyou_detail_004_kani=true&JigyosyoCd=0792730012-00&ServiceCd=320&Type=search", "url2": null }, "geometry": { "type": "Point", "coordinates": [ 139.844258299999979, 37.455699804410727 ] } },
{ "type": "Feature", "properties": { "内容": "ハーモニーみさと【認知症対応型共同生活介護】福島県大沼郡会津美里町字北川原甲2370番地1", "url": "https://www.kaigokensaku.mhlw.go.jp/07/index.php?action_kouhyou_detail_004_kani=true&JigyosyoCd=0792700023-00&ServiceCd=320&Type=search", "url2": "https://sin-ai.com/" }, "geometry": { "type": "Point", "coordinates": [ 139.8870062, 37.4520761 ] } },
{ "type": "Feature", "properties": { "内容": "グループホーム「かりん」【認知症対応型共同生活介護】福島県大沼郡会津美里町荻窪字上野185番地", "url": "https://www.kaigokensaku.mhlw.go.jp/07/index.php?action_kouhyou_detail_004_kani=true&JigyosyoCd=0772700266-00&ServiceCd=320&Type=search", "url2": "http://www.heiseikai-group.com/" }, "geometry": { "type": "Point", "coordinates": [ 139.809317127508507, 37.450248080959391 ] } },
{ "type": "Feature", "properties": { "内容": "グループホーム　星の郷みらい【認知症対応型共同生活介護】福島県西白河郡西郷村大字米字中山前157", "url": "https://www.kaigokensaku.mhlw.go.jp/07/index.php?action_kouhyou_detail_004_kani=true&JigyosyoCd=0792800096-00&ServiceCd=320&Type=search", "url2": "cosmo-m-s.co.jp" }, "geometry": { "type": "Point", "coordinates": [ 140.190702095106559, 37.1355093 ] } },
{ "type": "Feature", "properties": { "内容": "グループホームひよりの里【認知症対応型共同生活介護】福島県西白河郡西郷村大字小田倉字大平１０３－７", "url": "https://www.kaigokensaku.mhlw.go.jp/07/index.php?action_kouhyou_detail_004_kani=true&JigyosyoCd=0772800470-00&ServiceCd=320&Type=search", "url2": "http://taro-rlcs.com" }, "geometry": { "type": "Point", "coordinates": [ 140.160617099999968, 37.1109132 ] } },
{ "type": "Feature", "properties": { "内容": "さかえハートホーム矢吹【認知症対応型共同生活介護】福島県西白河郡矢吹町小松222番地", "url": "https://www.kaigokensaku.mhlw.go.jp/07/index.php?action_kouhyou_detail_004_kani=true&JigyosyoCd=0792830044-00&ServiceCd=320&Type=search", "url2": "http://www.sakaenaika.jp" }, "geometry": { "type": "Point", "coordinates": [ 140.330413136492922, 37.208230171518643 ] } },
{ "type": "Feature", "properties": { "内容": "グループホーム　あゆりの里【認知症対応型共同生活介護】福島県西白河郡矢吹町井戸尻496-1", "url": "https://www.kaigokensaku.mhlw.go.jp/07/index.php?action_kouhyou_detail_004_kani=true&JigyosyoCd=0792830028-00&ServiceCd=320&Type=search", "url2": null }, "geometry": { "type": "Point", "coordinates": [ 140.307486700000027, 37.2020798 ] } },
{ "type": "Feature", "properties": { "内容": "グループホームみらい【認知症対応型共同生活介護】福島県西白河郡矢吹町八幡町827グループホームみらい", "url": "https://www.kaigokensaku.mhlw.go.jp/07/index.php?action_kouhyou_detail_004_kani=true&JigyosyoCd=0792800120-00&ServiceCd=320&Type=search", "url2": null }, "geometry": { "type": "Point", "coordinates": [ 140.329915168122852, 37.192557593517087 ] } },
{ "type": "Feature", "properties": { "内容": "グループホームほうすい【認知症対応型共同生活介護】福島県西白河郡矢吹町北町85", "url": "https://www.kaigokensaku.mhlw.go.jp/07/index.php?action_kouhyou_detail_004_kani=true&JigyosyoCd=0792800138-00&ServiceCd=320&Type=search", "url2": null }, "geometry": { "type": "Point", "coordinates": [ 140.328943400000014, 37.2175881 ] } },
{ "type": "Feature", "properties": { "内容": "グループホーム志宝台【認知症対応型共同生活介護】福島県東白川郡棚倉町大字関口字上志宝73", "url": "https://www.kaigokensaku.mhlw.go.jp/07/index.php?action_kouhyou_detail_004_kani=true&JigyosyoCd=0792900029-00&ServiceCd=320&Type=search", "url2": null }, "geometry": { "type": "Point", "coordinates": [ 140.388250689408324, 37.036062788815101 ] } },
{ "type": "Feature", "properties": { "内容": "グループホームさめがわ【認知症対応型共同生活介護】福島県東白川郡鮫川村大字西山字水口３１", "url": "https://www.kaigokensaku.mhlw.go.jp/07/index.php?action_kouhyou_detail_004_kani=true&JigyosyoCd=0792930018-00&ServiceCd=320&Type=search", "url2": null }, "geometry": { "type": "Point", "coordinates": [ 140.483162600000014, 37.0694619 ] } },
{ "type": "Feature", "properties": { "内容": "グループホームクローバーいしかわ【認知症対応型共同生活介護】福島県石川郡石川町湯郷度湯坂３９－１グループホームクローバーいしかわ", "url": "https://www.kaigokensaku.mhlw.go.jp/07/index.php?action_kouhyou_detail_004_kani=true&JigyosyoCd=0793000019-00&ServiceCd=320&Type=search", "url2": "http://www.clover-kaigo.com/" }, "geometry": { "type": "Point", "coordinates": [ 140.4686183, 37.1662732 ] } },
{ "type": "Feature", "properties": { "内容": "グループホーム森のくまさん石川【認知症対応型共同生活介護】福島県石川郡石川町大字双里字神主46-1", "url": "https://www.kaigokensaku.mhlw.go.jp/07/index.php?action_kouhyou_detail_004_kani=true&JigyosyoCd=0793000043-00&ServiceCd=320&Type=search", "url2": null }, "geometry": { "type": "Point", "coordinates": [ 140.4766988, 37.1470722 ] } },
{ "type": "Feature", "properties": { "内容": "誠励会グループホーム芝桜【認知症対応型共同生活介護】福島県石川郡平田村大字上蓬田字清水内15番地", "url": "https://www.kaigokensaku.mhlw.go.jp/07/index.php?action_kouhyou_detail_004_kani=true&JigyosyoCd=0793020017-00&ServiceCd=320&Type=search", "url2": "http://www.seireikai.net" }, "geometry": { "type": "Point", "coordinates": [ 140.5669479, 37.2427232 ] } },
{ "type": "Feature", "properties": { "内容": "けあビジョンホーム古殿【認知症対応型共同生活介護】福島県石川郡古殿町大字鎌田字若神子45番2", "url": "https://www.kaigokensaku.mhlw.go.jp/07/index.php?action_kouhyou_detail_004_kani=true&JigyosyoCd=0793000035-00&ServiceCd=320&Type=search", "url2": null }, "geometry": { "type": "Point", "coordinates": [ 140.5149523, 37.0920322 ] } },
{ "type": "Feature", "properties": { "内容": "グループホーム楓【認知症対応型共同生活介護】福島県田村郡三春町大字貝山字沼倉177", "url": "https://www.kaigokensaku.mhlw.go.jp/07/index.php?action_kouhyou_detail_004_kani=true&JigyosyoCd=0793100074-00&ServiceCd=320&Type=search", "url2": null }, "geometry": { "type": "Point", "coordinates": [ 140.479019398286482, 37.432631708636123 ] } },
{ "type": "Feature", "properties": { "内容": "は～とらいふ三春【認知症対応型共同生活介護】福島県田村郡三春町大字平沢字担橋140－3認知症型対応協同生活介護", "url": "https://www.kaigokensaku.mhlw.go.jp/07/index.php?action_kouhyou_detail_004_kani=true&JigyosyoCd=0793100090-00&ServiceCd=320&Type=search", "url2": null }, "geometry": { "type": "Point", "coordinates": [ 140.480860600000028, 37.4500558 ] } },
{ "type": "Feature", "properties": { "内容": "グループホーム　ほほえみ【認知症対応型共同生活介護】福島県田村郡三春町字小浜海道38-4グループホームほほえみ", "url": "https://www.kaigokensaku.mhlw.go.jp/07/index.php?action_kouhyou_detail_004_kani=true&JigyosyoCd=0793100033-00&ServiceCd=320&Type=search", "url2": "http://.www.fuji-i.co.jp/th-home/hohoemi.html" }, "geometry": { "type": "Point", "coordinates": [ 140.489226799999983, 37.4483438 ] } },
{ "type": "Feature", "properties": { "内容": "なごみの里グループホーム【認知症対応型共同生活介護】福島県田村郡三春町大字熊耳字上荒井８２番地の１なごみの里グループホーム", "url": "https://www.kaigokensaku.mhlw.go.jp/07/index.php?action_kouhyou_detail_004_kani=true&JigyosyoCd=0793100017-00&ServiceCd=320&Type=search", "url2": "https://www.nagomi-miharu.com/" }, "geometry": { "type": "Point", "coordinates": [ 140.503503200000068, 37.445864 ] } },
{ "type": "Feature", "properties": { "内容": "グループホームみはる【認知症対応型共同生活介護】福島県田村郡三春町一本松26", "url": "https://www.kaigokensaku.mhlw.go.jp/07/index.php?action_kouhyou_detail_004_kani=true&JigyosyoCd=0793100181-00&ServiceCd=320&Type=search", "url2": "https://care.living-platform.com/facility/149" }, "geometry": { "type": "Point", "coordinates": [ 140.4761129, 37.4416471 ] } },
{ "type": "Feature", "properties": { "内容": "グループホーム楓【認知症対応型共同生活介護】福島県田村郡三春町大字貝山字沼倉117", "url": "https://www.kaigokensaku.mhlw.go.jp/07/index.php?action_kouhyou_detail_004_kani=true&JigyosyoCd=0793100199-00&ServiceCd=320&Type=search", "url2": "https://www.living-platform.com/" }, "geometry": { "type": "Point", "coordinates": [ 140.4779917, 37.4330502 ] } },
{ "type": "Feature", "properties": { "内容": "グループホームさくらんぼ仲町【認知症対応型共同生活介護】福島県田村郡小野町大字小野新町字仲町9番地", "url": "https://www.kaigokensaku.mhlw.go.jp/07/index.php?action_kouhyou_detail_004_kani=true&JigyosyoCd=0793110024-00&ServiceCd=320&Type=search", "url2": "www3.ocn.ne.jp/~onosk/matidukuri/" }, "geometry": { "type": "Point", "coordinates": [ 140.627193799999986, 37.2856061 ] } },
{ "type": "Feature", "properties": { "内容": "グループホームさくらんぼ【認知症対応型共同生活介護】福島県田村郡小野町大字小野新町字知宗５７番4", "url": "https://www.kaigokensaku.mhlw.go.jp/07/index.php?action_kouhyou_detail_004_kani=true&JigyosyoCd=0773100649-00&ServiceCd=320&Type=search", "url2": null }, "geometry": { "type": "Point", "coordinates": [ 140.624441100000013, 37.2926497 ] } },
{ "type": "Feature", "properties": { "内容": "グループホーム　あすか【認知症対応型共同生活介護】福島県田村郡小野町大字谷津作字池ノ平73番地1", "url": "https://www.kaigokensaku.mhlw.go.jp/07/index.php?action_kouhyou_detail_004_kani=true&JigyosyoCd=0793100140-00&ServiceCd=320&Type=search", "url2": "https://www.asuka-shinshin.com" }, "geometry": { "type": "Point", "coordinates": [ 140.639744799999988, 37.2702312 ] } },
{ "type": "Feature", "properties": { "内容": "グループホームなかまちの憩【認知症対応型共同生活介護】福島県田村郡小野町大字小野新町字仲町9", "url": "https://www.kaigokensaku.mhlw.go.jp/07/index.php?action_kouhyou_detail_004_kani=true&JigyosyoCd=0773100854-00&ServiceCd=320&Type=search", "url2": "https://www.frontier-gp.jp" }, "geometry": { "type": "Point", "coordinates": [ 140.6276057, 37.2855889 ] } },
{ "type": "Feature", "properties": { "内容": "グループホーム　おのまちの憩【認知症対応型共同生活介護】福島県田村郡小野町大字小野新町字知宗５７番4", "url": "https://www.kaigokensaku.mhlw.go.jp/07/index.php?action_kouhyou_detail_004_kani=true&JigyosyoCd=0773100847-00&ServiceCd=320&Type=search", "url2": "http：//www.frontier-gp" }, "geometry": { "type": "Point", "coordinates": [ 140.624392199999988, 37.2926537 ] } },
{ "type": "Feature", "properties": { "内容": "グループホームきずな【認知症対応型共同生活介護】福島県田村郡小野町大字谷津作字高山3番地5", "url": "https://www.kaigokensaku.mhlw.go.jp/07/index.php?action_kouhyou_detail_004_kani=true&JigyosyoCd=0793100173-00&ServiceCd=320&Type=search", "url2": "https://care.living-platform.com/facility/147" }, "geometry": { "type": "Point", "coordinates": [ 140.6283637, 37.2706951 ] } },
{ "type": "Feature", "properties": { "内容": "高原の家【認知症対応型共同生活介護】福島県双葉郡川内村大字下川内字田ノ入18-3", "url": "https://www.kaigokensaku.mhlw.go.jp/07/index.php?action_kouhyou_detail_004_kani=true&JigyosyoCd=0793230020-00&ServiceCd=320&Type=search", "url2": null }, "geometry": { "type": "Point", "coordinates": [ 140.84257070000001, 37.3340463 ] } },
{ "type": "Feature", "properties": { "内容": "グループホーム　せんだんの家【認知症対応型共同生活介護】福島県双葉郡双葉町大字長塚字谷沢町25-1（現在：福島県いわき市錦町江栗馬場９－１", "url": "https://www.kaigokensaku.mhlw.go.jp/07/index.php?action_kouhyou_detail_004_kani=true&JigyosyoCd=0773200613-00&ServiceCd=320&Type=search", "url2": "https://futaba-fukusikai.or.jp/" }, "geometry": { "type": "Point", "coordinates": [ 141.012614478020595, 37.453251972276931 ] } },
{ "type": "Feature", "properties": { "内容": "グループホーム虹の家【認知症対応型共同生活介護】福島県双葉郡浪江町大字立野字根渡１８３番地（福島県本宮市荒井字山神14-1）", "url": "https://www.kaigokensaku.mhlw.go.jp/07/index.php?action_kouhyou_detail_004_kani=true&JigyosyoCd=0773200563-00&ServiceCd=320&Type=search", "url2": null }, "geometry": { "type": "Point", "coordinates": [ 140.954163, 37.5200851 ] } },
{ "type": "Feature", "properties": { "内容": "認知症高齢者グループホーム　ゆい【認知症対応型共同生活介護】福島県相馬郡新地町小川字山海道30番地", "url": "https://www.kaigokensaku.mhlw.go.jp/07/index.php?action_kouhyou_detail_004_kani=true&JigyosyoCd=0793300013-00&ServiceCd=320&Type=search", "url2": null }, "geometry": { "type": "Point", "coordinates": [ 140.913645, 37.865922 ] } }
]
}
