{
"type": "FeatureCollection",
"name": "geo_07_中学校",
"crs": { "type": "name", "properties": { "name": "urn:ogc:def:crs:EPSG::6668" } },
"features": [
{ "type": "Feature", "properties": { "P29_001": "07201", "P29_002": "C107110000012", "P29_003": "16002", "P29_004": "福島大学附属中学校", "P29_005": "福島県福島市浜田町12-26", "P29_006": "1", "P29_007": "1", "P29_008": "00", "P29_009": null }, "geometry": { "type": "Point", "coordinates": [ 140.476698098174808, 37.758797051719192 ] } },
{ "type": "Feature", "properties": { "P29_001": "07201", "P29_002": "C107220140010", "P29_003": "16002", "P29_004": "福島市立福島第一中学校", "P29_005": "福島県福島市南町480", "P29_006": "3", "P29_007": "1", "P29_008": "00", "P29_009": null }, "geometry": { "type": "Point", "coordinates": [ 140.463706538054339, 37.741228417675401 ] } },
{ "type": "Feature", "properties": { "P29_001": "07201", "P29_002": "C107220140029", "P29_003": "16002", "P29_004": "福島市立福島第二中学校", "P29_005": "福島県福島市桜木町5-20", "P29_006": "3", "P29_007": "1", "P29_008": "00", "P29_009": null }, "geometry": { "type": "Point", "coordinates": [ 140.478417765669803, 37.761888501630601 ] } },
{ "type": "Feature", "properties": { "P29_001": "07201", "P29_002": "C107220140038", "P29_003": "16002", "P29_004": "福島市立福島第三中学校", "P29_005": "福島県福島市古川44-2", "P29_006": "3", "P29_007": "1", "P29_008": "00", "P29_009": null }, "geometry": { "type": "Point", "coordinates": [ 140.490631819600793, 37.776439805889744 ] } },
{ "type": "Feature", "properties": { "P29_001": "07201", "P29_002": "C107220140047", "P29_003": "16002", "P29_004": "福島市立福島第四中学校", "P29_005": "福島県福島市南平5-8", "P29_006": "3", "P29_007": "1", "P29_008": "00", "P29_009": null }, "geometry": { "type": "Point", "coordinates": [ 140.462155723996688, 37.76651786995302 ] } },
{ "type": "Feature", "properties": { "P29_001": "07201", "P29_002": "C107220140056", "P29_003": "16002", "P29_004": "福島市立岳陽中学校", "P29_005": "福島県福島市須川町1-33", "P29_006": "3", "P29_007": "1", "P29_008": "00", "P29_009": null }, "geometry": { "type": "Point", "coordinates": [ 140.45431349388312, 37.751233451761202 ] } },
{ "type": "Feature", "properties": { "P29_001": "07201", "P29_002": "C107220140065", "P29_003": "16002", "P29_004": "福島市立渡利中学校", "P29_005": "福島県福島市渡利字平内町106", "P29_006": "3", "P29_007": "1", "P29_008": "00", "P29_009": null }, "geometry": { "type": "Point", "coordinates": [ 140.479148566103305, 37.745344749045316 ] } },
{ "type": "Feature", "properties": { "P29_001": "07201", "P29_002": "C107220140074", "P29_003": "16002", "P29_004": "福島市立蓬莱中学校", "P29_005": "福島県福島市蓬莱町5-14-1", "P29_006": "3", "P29_007": "1", "P29_008": "00", "P29_009": null }, "geometry": { "type": "Point", "coordinates": [ 140.479545948379382, 37.695676206166318 ] } },
{ "type": "Feature", "properties": { "P29_001": "07201", "P29_002": "C107220140083", "P29_003": "16002", "P29_004": "福島市立清水中学校", "P29_005": "福島県福島市南沢又字清水端23", "P29_006": "3", "P29_007": "1", "P29_008": "00", "P29_009": null }, "geometry": { "type": "Point", "coordinates": [ 140.436101117161883, 37.772806625051196 ] } },
{ "type": "Feature", "properties": { "P29_001": "07201", "P29_002": "C107220140092", "P29_003": "16002", "P29_004": "福島市立信陵中学校", "P29_005": "福島県福島市笹谷字島原2", "P29_006": "3", "P29_007": "1", "P29_008": "00", "P29_009": null }, "geometry": { "type": "Point", "coordinates": [ 140.432753227954919, 37.789403758051058 ] } },
{ "type": "Feature", "properties": { "P29_001": "07201", "P29_002": "C107220140109", "P29_003": "16002", "P29_004": "福島市立北信中学校", "P29_005": "福島県福島市鎌田字御仮家20", "P29_006": "3", "P29_007": "1", "P29_008": "00", "P29_009": null }, "geometry": { "type": "Point", "coordinates": [ 140.480284551882391, 37.798693122501135 ] } },
{ "type": "Feature", "properties": { "P29_001": "07201", "P29_002": "C107220140118", "P29_003": "16002", "P29_004": "福島市立西信中学校", "P29_005": "福島県福島市上名倉字道上6", "P29_006": "3", "P29_007": "1", "P29_008": "00", "P29_009": null }, "geometry": { "type": "Point", "coordinates": [ 140.385455385507044, 37.7273670981387 ] } },
{ "type": "Feature", "properties": { "P29_001": "07201", "P29_002": "C107220140136", "P29_003": "16002", "P29_004": "福島市立大鳥中学校", "P29_005": "福島県福島市飯坂町字舘11", "P29_006": "3", "P29_007": "1", "P29_008": "00", "P29_009": null }, "geometry": { "type": "Point", "coordinates": [ 140.445450014835131, 37.83169486188379 ] } },
{ "type": "Feature", "properties": { "P29_001": "07201", "P29_002": "C107220140145", "P29_003": "16002", "P29_004": "福島市立平野中学校", "P29_005": "福島県福島市飯坂町平野字舘ノ前3-3", "P29_006": "3", "P29_007": "1", "P29_008": "00", "P29_009": null }, "geometry": { "type": "Point", "coordinates": [ 140.438469803272454, 37.803794882505819 ] } },
{ "type": "Feature", "properties": { "P29_001": "07201", "P29_002": "C107220140154", "P29_003": "16002", "P29_004": "福島市立西根中学校", "P29_005": "福島県福島市飯坂町湯野字大平2", "P29_006": "3", "P29_007": "1", "P29_008": "00", "P29_009": null }, "geometry": { "type": "Point", "coordinates": [ 140.466610379070914, 37.833054963668417 ] } },
{ "type": "Feature", "properties": { "P29_001": "07201", "P29_002": "C107220140163", "P29_003": "16002", "P29_004": "福島市立松陵中学校", "P29_005": "福島県福島市松川町字上桜内3-4", "P29_006": "3", "P29_007": "1", "P29_008": "00", "P29_009": null }, "geometry": { "type": "Point", "coordinates": [ 140.461221487640444, 37.656564591588108 ] } },
{ "type": "Feature", "properties": { "P29_001": "07201", "P29_002": "C107220140172", "P29_003": "16002", "P29_004": "福島市立信夫中学校", "P29_005": "福島県福島市大森字南内町31-1", "P29_006": "3", "P29_007": "1", "P29_008": "00", "P29_009": null }, "geometry": { "type": "Point", "coordinates": [ 140.436154661479833, 37.723359013103384 ] } },
{ "type": "Feature", "properties": { "P29_001": "07201", "P29_002": "C107220140181", "P29_003": "16002", "P29_004": "福島市立野田中学校", "P29_005": "福島県福島市笹木野字市街道28-1", "P29_006": "3", "P29_007": "1", "P29_008": "00", "P29_009": null }, "geometry": { "type": "Point", "coordinates": [ 140.421292249663168, 37.76066621519481 ] } },
{ "type": "Feature", "properties": { "P29_001": "07201", "P29_002": "C107220140190", "P29_003": "16002", "P29_004": "福島市立吾妻中学校", "P29_005": "福島県福島市町庭坂字原田8", "P29_006": "3", "P29_007": "1", "P29_008": "00", "P29_009": null }, "geometry": { "type": "Point", "coordinates": [ 140.377277885767228, 37.764389109119129 ] } },
{ "type": "Feature", "properties": { "P29_001": "07201", "P29_002": "C107220140207", "P29_003": "16002", "P29_004": "福島市立飯野中学校", "P29_005": "福島県福島市飯野町西志保井1-1", "P29_006": "3", "P29_007": "1", "P29_008": "00", "P29_009": null }, "geometry": { "type": "Point", "coordinates": [ 140.531490425937591, 37.658741635441984 ] } },
{ "type": "Feature", "properties": { "P29_001": "07202", "P29_002": "C107220240019", "P29_003": "16002", "P29_004": "会津若松市立第一中学校", "P29_005": "福島県会津若松市蚕養町11-1", "P29_006": "3", "P29_007": "1", "P29_008": "00", "P29_009": null }, "geometry": { "type": "Point", "coordinates": [ 139.935430313891942, 37.505974619011276 ] } },
{ "type": "Feature", "properties": { "P29_001": "07202", "P29_002": "C107220240028", "P29_003": "16002", "P29_004": "会津若松市立第二中学校", "P29_005": "福島県会津若松市城前1-7", "P29_006": "3", "P29_007": "1", "P29_008": "00", "P29_009": null }, "geometry": { "type": "Point", "coordinates": [ 139.933899404832033, 37.490394581955883 ] } },
{ "type": "Feature", "properties": { "P29_001": "07202", "P29_002": "C107220240037", "P29_003": "16002", "P29_004": "会津若松市立第三中学校", "P29_005": "福島県会津若松市湯川町4-20", "P29_006": "3", "P29_007": "1", "P29_008": "00", "P29_009": null }, "geometry": { "type": "Point", "coordinates": [ 139.918749154737753, 37.488199635002637 ] } },
{ "type": "Feature", "properties": { "P29_001": "07202", "P29_002": "C107220240046", "P29_003": "16002", "P29_004": "会津若松市立第四中学校", "P29_005": "福島県会津若松市桜町110", "P29_006": "3", "P29_007": "1", "P29_008": "00", "P29_009": null }, "geometry": { "type": "Point", "coordinates": [ 139.912883701618455, 37.481674562304988 ] } },
{ "type": "Feature", "properties": { "P29_001": "07202", "P29_002": "C107220240055", "P29_003": "16002", "P29_004": "会津若松市立第五中学校", "P29_005": "福島県会津若松市門田町大字御山字村下314", "P29_006": "3", "P29_007": "1", "P29_008": "00", "P29_009": null }, "geometry": { "type": "Point", "coordinates": [ 139.925512058784136, 37.470084449257669 ] } },
{ "type": "Feature", "properties": { "P29_001": "07202", "P29_002": "C107220240064", "P29_003": "16002", "P29_004": "会津若松市立第六中学校", "P29_005": "福島県会津若松市神指町大字黒川字湯川東296", "P29_006": "3", "P29_007": "1", "P29_008": "00", "P29_009": null }, "geometry": { "type": "Point", "coordinates": [ 139.910972025187959, 37.511146256533848 ] } },
{ "type": "Feature", "properties": { "P29_001": "07202", "P29_002": "C107220240073", "P29_003": "16002", "P29_004": "会津若松市立湊中学校", "P29_005": "福島県会津若松市湊町大字共和字上馬渡266-1", "P29_006": "3", "P29_007": "1", "P29_008": "00", "P29_009": null }, "geometry": { "type": "Point", "coordinates": [ 140.009888862213842, 37.469252710824641 ] } },
{ "type": "Feature", "properties": { "P29_001": "07202", "P29_002": "C107220240082", "P29_003": "16002", "P29_004": "会津若松市立一箕中学校", "P29_005": "福島県会津若松市一箕町大字八幡字堰下70", "P29_006": "3", "P29_007": "1", "P29_008": "00", "P29_009": null }, "geometry": { "type": "Point", "coordinates": [ 139.954399967759201, 37.51723340460223 ] } },
{ "type": "Feature", "properties": { "P29_001": "07202", "P29_002": "C107220240091", "P29_003": "16002", "P29_004": "会津若松市立大戸中学校", "P29_005": "福島県会津若松市大戸町上三寄香塩211-1", "P29_006": "3", "P29_007": "1", "P29_008": "00", "P29_009": null }, "geometry": { "type": "Point", "coordinates": [ 139.937020131912988, 37.395714286208715 ] } },
{ "type": "Feature", "properties": { "P29_001": "07202", "P29_002": "C107220240108", "P29_003": "16002", "P29_004": "会津若松市立北会津中学校", "P29_005": "福島県会津若松市北会津町中荒井2107-1", "P29_006": "3", "P29_007": "1", "P29_008": "00", "P29_009": null }, "geometry": { "type": "Point", "coordinates": [ 139.872169991803446, 37.497208906257868 ] } },
{ "type": "Feature", "properties": { "P29_001": "07202", "P29_002": "C107220240126", "P29_003": "16002", "P29_004": "会津学鳳中学校", "P29_005": "福島県会津若松市一箕町大字八幡字八幡1-1", "P29_006": "2", "P29_007": "1", "P29_008": "00", "P29_009": null }, "geometry": { "type": "Point", "coordinates": [ 139.943324686877276, 37.511011958481717 ] } },
{ "type": "Feature", "properties": { "P29_001": "07203", "P29_002": "C107220340018", "P29_003": "16002", "P29_004": "郡山市立日和田中学校", "P29_005": "福島県郡山市日和田町字中林27", "P29_006": "3", "P29_007": "1", "P29_008": "00", "P29_009": null }, "geometry": { "type": "Point", "coordinates": [ 140.383114708241123, 37.454475971614592 ] } },
{ "type": "Feature", "properties": { "P29_001": "07203", "P29_002": "C107220340027", "P29_003": "16002", "P29_004": "郡山市立行健中学校", "P29_005": "福島県郡山市富久山町久保田字大原16", "P29_006": "3", "P29_007": "1", "P29_008": "00", "P29_009": null }, "geometry": { "type": "Point", "coordinates": [ 140.380380132813883, 37.421794957809986 ] } },
{ "type": "Feature", "properties": { "P29_001": "07203", "P29_002": "C107220340036", "P29_003": "16002", "P29_004": "郡山市立明健中学校", "P29_005": "福島県郡山市富久山町八山田字大森新田70", "P29_006": "3", "P29_007": "1", "P29_008": "00", "P29_009": null }, "geometry": { "type": "Point", "coordinates": [ 140.385709805559969, 37.430566423811989 ] } },
{ "type": "Feature", "properties": { "P29_001": "07203", "P29_002": "C107220340045", "P29_003": "16002", "P29_004": "郡山市立安積中学校", "P29_005": "福島県郡山市成山町1", "P29_006": "3", "P29_007": "1", "P29_008": "00", "P29_009": null }, "geometry": { "type": "Point", "coordinates": [ 140.362605503472594, 37.365464956398149 ] } },
{ "type": "Feature", "properties": { "P29_001": "07203", "P29_002": "C107220340054", "P29_003": "16002", "P29_004": "郡山市立安積第二中学校", "P29_005": "福島県郡山市安積町成田字兎田向1-1", "P29_006": "3", "P29_007": "1", "P29_008": "00", "P29_009": null }, "geometry": { "type": "Point", "coordinates": [ 140.339898213145744, 37.354100855270005 ] } },
{ "type": "Feature", "properties": { "P29_001": "07203", "P29_002": "C107220340063", "P29_003": "16002", "P29_004": "郡山市立三穂田中学校", "P29_005": "福島県郡山市三穂田町富岡字葛幡20", "P29_006": "3", "P29_007": "1", "P29_008": "00", "P29_009": null }, "geometry": { "type": "Point", "coordinates": [ 140.288419905198538, 37.356527817467651 ] } },
{ "type": "Feature", "properties": { "P29_001": "07203", "P29_002": "C107220340072", "P29_003": "16002", "P29_004": "郡山市立逢瀬中学校", "P29_005": "福島県郡山市逢瀬町多田野字長倉山1-1", "P29_006": "3", "P29_007": "1", "P29_008": "00", "P29_009": null }, "geometry": { "type": "Point", "coordinates": [ 140.271851257100082, 37.406728649782089 ] } },
{ "type": "Feature", "properties": { "P29_001": "07203", "P29_002": "C107220340081", "P29_003": "16002", "P29_004": "郡山市立片平中学校", "P29_005": "福島県郡山市片平町字大笠松4", "P29_006": "3", "P29_007": "1", "P29_008": "00", "P29_009": null }, "geometry": { "type": "Point", "coordinates": [ 140.311796946351336, 37.421287584372195 ] } },
{ "type": "Feature", "properties": { "P29_001": "07203", "P29_002": "C107220340090", "P29_003": "16002", "P29_004": "郡山市立喜久田中学校", "P29_005": "福島県郡山市喜久田町堀之内字下上ノ台19", "P29_006": "3", "P29_007": "1", "P29_008": "00", "P29_009": null }, "geometry": { "type": "Point", "coordinates": [ 140.342546786758788, 37.455204267622094 ] } },
{ "type": "Feature", "properties": { "P29_001": "07203", "P29_002": "C107220340107", "P29_003": "16002", "P29_004": "郡山市立熱海中学校", "P29_005": "福島県郡山市熱海町玉川字阿曽沢山19-2", "P29_006": "3", "P29_007": "1", "P29_008": "00", "P29_009": null }, "geometry": { "type": "Point", "coordinates": [ 140.289202010243457, 37.484285621711798 ] } },
{ "type": "Feature", "properties": { "P29_001": "07203", "P29_002": "C107220340116", "P29_003": "16002", "P29_004": "郡山市立守山中学校", "P29_005": "福島県郡山市田村町山中字団子田177-2", "P29_006": "3", "P29_007": "1", "P29_008": "00", "P29_009": null }, "geometry": { "type": "Point", "coordinates": [ 140.397157264140304, 37.338720895086603 ] } },
{ "type": "Feature", "properties": { "P29_001": "07203", "P29_002": "C107220340125", "P29_003": "16002", "P29_004": "郡山市立高瀬中学校", "P29_005": "福島県郡山市田村町上行合字北山田1", "P29_006": "3", "P29_007": "1", "P29_008": "00", "P29_009": null }, "geometry": { "type": "Point", "coordinates": [ 140.410995237897566, 37.365466081980863 ] } },
{ "type": "Feature", "properties": { "P29_001": "07203", "P29_002": "C107220340134", "P29_003": "16002", "P29_004": "郡山市立郡山第一中学校", "P29_005": "福島県郡山市菜根2-1-31", "P29_006": "3", "P29_007": "1", "P29_008": "00", "P29_009": null }, "geometry": { "type": "Point", "coordinates": [ 140.360443321546313, 37.38974291632136 ] } },
{ "type": "Feature", "properties": { "P29_001": "07203", "P29_002": "C107220340143", "P29_003": "16002", "P29_004": "郡山市立郡山第二中学校", "P29_005": "福島県郡山市神明町5-10", "P29_006": "3", "P29_007": "1", "P29_008": "00", "P29_009": null }, "geometry": { "type": "Point", "coordinates": [ 140.372352907413131, 37.401334497345985 ] } },
{ "type": "Feature", "properties": { "P29_001": "07203", "P29_002": "C107220340152", "P29_003": "16002", "P29_004": "郡山市立郡山第三中学校", "P29_005": "福島県郡山市菜根3-1-13", "P29_006": "3", "P29_007": "1", "P29_008": "00", "P29_009": null }, "geometry": { "type": "Point", "coordinates": [ 140.369527463019466, 37.386319863607525 ] } },
{ "type": "Feature", "properties": { "P29_001": "07203", "P29_002": "C107220340161", "P29_003": "16002", "P29_004": "郡山市立郡山第四中学校", "P29_005": "福島県郡山市横塚6-25-31", "P29_006": "3", "P29_007": "1", "P29_008": "00", "P29_009": null }, "geometry": { "type": "Point", "coordinates": [ 140.40655013578052, 37.391075605755212 ] } },
{ "type": "Feature", "properties": { "P29_001": "07203", "P29_002": "C107220340170", "P29_003": "16002", "P29_004": "郡山市立郡山第五中学校", "P29_005": "福島県郡山市桜木2-20-5", "P29_006": "3", "P29_007": "1", "P29_008": "00", "P29_009": null }, "geometry": { "type": "Point", "coordinates": [ 140.368285764573699, 37.40954646812915 ] } },
{ "type": "Feature", "properties": { "P29_001": "07203", "P29_002": "C107220340189", "P29_003": "16002", "P29_004": "郡山市立郡山第六中学校", "P29_005": "福島県郡山市富田町字十文字2", "P29_006": "3", "P29_007": "1", "P29_008": "00", "P29_009": null }, "geometry": { "type": "Point", "coordinates": [ 140.34346822974274, 37.412900860963965 ] } },
{ "type": "Feature", "properties": { "P29_001": "07203", "P29_002": "C107220340198", "P29_003": "16002", "P29_004": "郡山市立郡山第七中学校", "P29_005": "福島県郡山市御前南2-110", "P29_006": "3", "P29_007": "1", "P29_008": "00", "P29_009": null }, "geometry": { "type": "Point", "coordinates": [ 140.332609573722976, 37.380750339060405 ] } },
{ "type": "Feature", "properties": { "P29_001": "07203", "P29_002": "C107220340205", "P29_003": "16002", "P29_004": "郡山市立緑ケ丘中学校", "P29_005": "福島県郡山市緑ケ丘西4-1-1", "P29_006": "3", "P29_007": "1", "P29_008": "00", "P29_009": null }, "geometry": { "type": "Point", "coordinates": [ 140.430057561707429, 37.390024688847227 ] } },
{ "type": "Feature", "properties": { "P29_001": "07203", "P29_002": "C107220340214", "P29_003": "16002", "P29_004": "郡山市立富田中学校", "P29_005": "福島県郡山市富田町字細田83-1", "P29_006": "3", "P29_007": "1", "P29_008": "00", "P29_009": null }, "geometry": { "type": "Point", "coordinates": [ 140.360837434565099, 37.421710472392775 ] } },
{ "type": "Feature", "properties": { "P29_001": "07203", "P29_002": "C107220340223", "P29_003": "16002", "P29_004": "郡山市立大槻中学校", "P29_005": "福島県郡山市大槻町西ノ宮西4-1", "P29_006": "3", "P29_007": "1", "P29_008": "00", "P29_009": null }, "geometry": { "type": "Point", "coordinates": [ 140.319688209331815, 37.396170662086938 ] } },
{ "type": "Feature", "properties": { "P29_001": "07203", "P29_002": "C107220340232", "P29_003": "16002", "P29_004": "郡山市立小原田中学校", "P29_005": "福島県郡山市小原田3-20-41", "P29_006": "3", "P29_007": "1", "P29_008": "00", "P29_009": null }, "geometry": { "type": "Point", "coordinates": [ 140.388379114321282, 37.380180452550086 ] } },
{ "type": "Feature", "properties": { "P29_001": "07203", "P29_002": "C107220340241", "P29_003": "16002", "P29_004": "郡山市立宮城中学校", "P29_005": "福島県郡山市中田町高倉字古御舘178-1", "P29_006": "3", "P29_007": "1", "P29_008": "00", "P29_009": null }, "geometry": { "type": "Point", "coordinates": [ 140.446328599208329, 37.372612825559834 ] } },
{ "type": "Feature", "properties": { "P29_001": "07203", "P29_002": "C107220340250", "P29_003": "16002", "P29_004": "郡山市立御舘中学校", "P29_005": "福島県郡山市中田町中津川字町田前388", "P29_006": "3", "P29_007": "1", "P29_008": "00", "P29_009": null }, "geometry": { "type": "Point", "coordinates": [ 140.512491966139436, 37.363160019689481 ] } },
{ "type": "Feature", "properties": { "P29_001": "07204", "P29_002": "C107220440017", "P29_003": "16002", "P29_004": "いわき市立平第一中学校", "P29_005": "福島県いわき市平字揚土1", "P29_006": "3", "P29_007": "1", "P29_008": "00", "P29_009": null }, "geometry": { "type": "Point", "coordinates": [ 140.883354975488373, 37.058693342171601 ] } },
{ "type": "Feature", "properties": { "P29_001": "07204", "P29_002": "C107220440026", "P29_003": "16002", "P29_004": "いわき市立平第二中学校", "P29_005": "福島県いわき市平鎌田字味噌能2", "P29_006": "3", "P29_007": "1", "P29_008": "00", "P29_009": null }, "geometry": { "type": "Point", "coordinates": [ 140.906778115196886, 37.06020590173754 ] } },
{ "type": "Feature", "properties": { "P29_001": "07204", "P29_002": "C107220440035", "P29_003": "16002", "P29_004": "いわき市立平第三中学校", "P29_005": "福島県いわき市平谷川瀬字吉野作56-2", "P29_006": "3", "P29_007": "1", "P29_008": "00", "P29_009": null }, "geometry": { "type": "Point", "coordinates": [ 140.895193533056641, 37.041946198723636 ] } },
{ "type": "Feature", "properties": { "P29_001": "07204", "P29_002": "C107220440044", "P29_003": "16002", "P29_004": "いわき市立中央台北中学校", "P29_005": "福島県いわき市中央台飯野5-2-1", "P29_006": "3", "P29_007": "1", "P29_008": "00", "P29_009": null }, "geometry": { "type": "Point", "coordinates": [ 140.910823542266002, 37.020279520734327 ] } },
{ "type": "Feature", "properties": { "P29_001": "07204", "P29_002": "C107220440053", "P29_003": "16002", "P29_004": "いわき市立中央台南中学校", "P29_005": "福島県いわき市中央台鹿島2-42-1", "P29_006": "3", "P29_007": "1", "P29_008": "00", "P29_009": null }, "geometry": { "type": "Point", "coordinates": [ 140.925293133408417, 37.003346377962778 ] } },
{ "type": "Feature", "properties": { "P29_001": "07204", "P29_002": "C107220440062", "P29_003": "16002", "P29_004": "いわき市立豊間中学校", "P29_005": "福島県いわき市平薄磯字南作62", "P29_006": "3", "P29_007": "1", "P29_008": "00", "P29_009": null }, "geometry": { "type": "Point", "coordinates": [ 140.973682504708052, 37.001369174016638 ] } },
{ "type": "Feature", "properties": { "P29_001": "07204", "P29_002": "C107220440071", "P29_003": "16002", "P29_004": "いわき市立藤間中学校", "P29_005": "福島県いわき市平藤間字千ヶ久保76-6", "P29_006": "3", "P29_007": "1", "P29_008": "00", "P29_009": null }, "geometry": { "type": "Point", "coordinates": [ 140.964305451263954, 37.036023751103961 ] } },
{ "type": "Feature", "properties": { "P29_001": "07204", "P29_002": "C107220440080", "P29_003": "16002", "P29_004": "いわき市立草野中学校", "P29_005": "福島県いわき市平下神谷字宿25", "P29_006": "3", "P29_007": "1", "P29_008": "00", "P29_009": null }, "geometry": { "type": "Point", "coordinates": [ 140.946803676502839, 37.070678876761029 ] } },
{ "type": "Feature", "properties": { "P29_001": "07204", "P29_002": "C107220440099", "P29_003": "16002", "P29_004": "いわき市立赤井中学校", "P29_005": "福島県いわき市平赤井字大門13", "P29_006": "3", "P29_007": "1", "P29_008": "00", "P29_009": null }, "geometry": { "type": "Point", "coordinates": [ 140.853099239794915, 37.085165252361605 ] } },
{ "type": "Feature", "properties": { "P29_001": "07204", "P29_002": "C107220440106", "P29_003": "16002", "P29_004": "いわき市立四倉中学校", "P29_005": "福島県いわき市四倉町字東1-65", "P29_006": "3", "P29_007": "1", "P29_008": "00", "P29_009": null }, "geometry": { "type": "Point", "coordinates": [ 140.984734614178848, 37.099289076511198 ] } },
{ "type": "Feature", "properties": { "P29_001": "07204", "P29_002": "C107220440124", "P29_003": "16002", "P29_004": "いわき市立久之浜中学校", "P29_005": "福島県いわき市久之浜町久之浜字大場72-1", "P29_006": "3", "P29_007": "1", "P29_008": "00", "P29_009": null }, "geometry": { "type": "Point", "coordinates": [ 140.98764414363356, 37.145060946066913 ] } },
{ "type": "Feature", "properties": { "P29_001": "07204", "P29_002": "C107220440133", "P29_003": "16002", "P29_004": "いわき市立小川中学校", "P29_005": "福島県いわき市小川町上平字竹ノ内63", "P29_006": "3", "P29_007": "1", "P29_008": "00", "P29_009": null }, "geometry": { "type": "Point", "coordinates": [ 140.857530105608106, 37.129178390609532 ] } },
{ "type": "Feature", "properties": { "P29_001": "07204", "P29_002": "C107220440142", "P29_003": "16002", "P29_004": "いわき市立川前中学校", "P29_005": "福島県いわき市川前町川前字中ノ萱25-1", "P29_006": "3", "P29_007": "1", "P29_008": "00", "P29_009": null }, "geometry": { "type": "Point", "coordinates": [ 140.752776992783765, 37.205580618405882 ] } },
{ "type": "Feature", "properties": { "P29_001": "07204", "P29_002": "C107220440151", "P29_003": "16002", "P29_004": "いわき市立桶売中学校", "P29_005": "福島県いわき市川前町下桶売字久保田96-2", "P29_006": "3", "P29_007": "1", "P29_008": "00", "P29_009": null }, "geometry": { "type": "Point", "coordinates": [ 140.722492347560717, 37.244193592320279 ] } },
{ "type": "Feature", "properties": { "P29_001": "07204", "P29_002": "C107220440160", "P29_003": "16002", "P29_004": "いわき市立小白井中学校", "P29_005": "福島県いわき市川前町小白井字将監小屋94-1", "P29_006": "3", "P29_007": "1", "P29_008": "00", "P29_009": null }, "geometry": { "type": "Point", "coordinates": [ 140.707751697435782, 37.299202970802874 ] } },
{ "type": "Feature", "properties": { "P29_001": "07204", "P29_002": "C107220440179", "P29_003": "16002", "P29_004": "いわき市立内郷第一中学校", "P29_005": "福島県いわき市内郷高坂町立野129-1", "P29_006": "3", "P29_007": "1", "P29_008": "00", "P29_009": null }, "geometry": { "type": "Point", "coordinates": [ 140.85109632571249, 37.043233575628612 ] } },
{ "type": "Feature", "properties": { "P29_001": "07204", "P29_002": "C107220440188", "P29_003": "16002", "P29_004": "いわき市立内郷第二中学校", "P29_005": "福島県いわき市内郷宮町金坂114", "P29_006": "3", "P29_007": "1", "P29_008": "00", "P29_009": null }, "geometry": { "type": "Point", "coordinates": [ 140.843466134369436, 37.043455720688399 ] } },
{ "type": "Feature", "properties": { "P29_001": "07204", "P29_002": "C107220440197", "P29_003": "16002", "P29_004": "いわき市立内郷第三中学校", "P29_005": "福島県いわき市内郷高野町中倉82-3", "P29_006": "3", "P29_007": "1", "P29_008": "00", "P29_009": null }, "geometry": { "type": "Point", "coordinates": [ 140.796019503262414, 37.054251218074121 ] } },
{ "type": "Feature", "properties": { "P29_001": "07204", "P29_002": "C107220440204", "P29_003": "16002", "P29_004": "いわき市立好間中学校", "P29_005": "福島県いわき市好間町小谷作字竹ノ内1-1", "P29_006": "3", "P29_007": "1", "P29_008": "00", "P29_009": null }, "geometry": { "type": "Point", "coordinates": [ 140.861591739224281, 37.068031346041863 ] } },
{ "type": "Feature", "properties": { "P29_001": "07204", "P29_002": "C107220440213", "P29_003": "16002", "P29_004": "いわき市立三和中学校", "P29_005": "福島県いわき市三和町中寺字桶ノ口4-2", "P29_006": "3", "P29_007": "1", "P29_008": "00", "P29_009": null }, "geometry": { "type": "Point", "coordinates": [ 140.686896761261266, 37.143220693418947 ] } },
{ "type": "Feature", "properties": { "P29_001": "07204", "P29_002": "C107220440222", "P29_003": "16002", "P29_004": "いわき市立小名浜第一中学校", "P29_005": "福島県いわき市小名浜岡小名字山田作9-1", "P29_006": "3", "P29_007": "1", "P29_008": "00", "P29_009": null }, "geometry": { "type": "Point", "coordinates": [ 140.896950781406758, 36.966924146890939 ] } },
{ "type": "Feature", "properties": { "P29_001": "07204", "P29_002": "C107220440231", "P29_003": "16002", "P29_004": "いわき市立小名浜第二中学校", "P29_005": "福島県いわき市小名浜岡小名字池袋11", "P29_006": "3", "P29_007": "1", "P29_008": "00", "P29_009": null }, "geometry": { "type": "Point", "coordinates": [ 140.912077498856377, 36.955904168611269 ] } },
{ "type": "Feature", "properties": { "P29_001": "07204", "P29_002": "C107220440240", "P29_003": "16002", "P29_004": "いわき市立玉川中学校", "P29_005": "福島県いわき市小名浜玉川町西24", "P29_006": "3", "P29_007": "1", "P29_008": "00", "P29_009": null }, "geometry": { "type": "Point", "coordinates": [ 140.882411034805614, 36.983168011150902 ] } },
{ "type": "Feature", "properties": { "P29_001": "07204", "P29_002": "C107220440259", "P29_003": "16002", "P29_004": "いわき市立江名中学校", "P29_005": "福島県いわき市永崎字館1", "P29_006": "3", "P29_007": "1", "P29_008": "00", "P29_009": null }, "geometry": { "type": "Point", "coordinates": [ 140.940979223891276, 36.959199120011974 ] } },
{ "type": "Feature", "properties": { "P29_001": "07204", "P29_002": "C107220440268", "P29_003": "16002", "P29_004": "いわき市立泉中学校", "P29_005": "福島県いわき市泉町玉露字吉野作42", "P29_006": "3", "P29_007": "1", "P29_008": "00", "P29_009": null }, "geometry": { "type": "Point", "coordinates": [ 140.852653369845711, 36.962806866285526 ] } },
{ "type": "Feature", "properties": { "P29_001": "07204", "P29_002": "C107220440277", "P29_003": "16002", "P29_004": "いわき市立湯本第一中学校", "P29_005": "福島県いわき市常磐湯本町吹谷11-1", "P29_006": "3", "P29_007": "1", "P29_008": "00", "P29_009": null }, "geometry": { "type": "Point", "coordinates": [ 140.843177015435458, 37.006205489154468 ] } },
{ "type": "Feature", "properties": { "P29_001": "07204", "P29_002": "C107220440286", "P29_003": "16002", "P29_004": "いわき市立湯本第二中学校", "P29_005": "福島県いわき市常磐湯本町上浅貝103-2", "P29_006": "3", "P29_007": "1", "P29_008": "00", "P29_009": null }, "geometry": { "type": "Point", "coordinates": [ 140.858089479368175, 37.015199821158745 ] } },
{ "type": "Feature", "properties": { "P29_001": "07204", "P29_002": "C107220440295", "P29_003": "16002", "P29_004": "いわき市立湯本第三中学校", "P29_005": "福島県いわき市常磐湯本町高倉3-3", "P29_006": "3", "P29_007": "1", "P29_008": "00", "P29_009": null }, "geometry": { "type": "Point", "coordinates": [ 140.832350029876807, 37.013950424037702 ] } },
{ "type": "Feature", "properties": { "P29_001": "07204", "P29_002": "C107220440302", "P29_003": "16002", "P29_004": "いわき市立磐崎中学校", "P29_005": "福島県いわき市常磐下湯長谷町家中跡28-5", "P29_006": "3", "P29_007": "1", "P29_008": "00", "P29_009": null }, "geometry": { "type": "Point", "coordinates": [ 140.844337857243147, 36.990667509440357 ] } },
{ "type": "Feature", "properties": { "P29_001": "07204", "P29_002": "C107220440311", "P29_003": "16002", "P29_004": "いわき市立植田中学校", "P29_005": "福島県いわき市植田町根小屋25-4", "P29_006": "3", "P29_007": "1", "P29_008": "00", "P29_009": null }, "geometry": { "type": "Point", "coordinates": [ 140.787000038946019, 36.919275274439656 ] } },
{ "type": "Feature", "properties": { "P29_001": "07204", "P29_002": "C107220440320", "P29_003": "16002", "P29_004": "いわき市立植田東中学校", "P29_005": "福島県いわき市石塚町国分175-2", "P29_006": "3", "P29_007": "1", "P29_008": "00", "P29_009": null }, "geometry": { "type": "Point", "coordinates": [ 140.814682996728919, 36.928948004720652 ] } },
{ "type": "Feature", "properties": { "P29_001": "07204", "P29_002": "C107220440339", "P29_003": "16002", "P29_004": "いわき市立錦中学校", "P29_005": "福島県いわき市錦町飯盛町1-1", "P29_006": "3", "P29_007": "1", "P29_008": "00", "P29_009": null }, "geometry": { "type": "Point", "coordinates": [ 140.788148358178375, 36.902500168349953 ] } },
{ "type": "Feature", "properties": { "P29_001": "07204", "P29_002": "C107220440348", "P29_003": "16002", "P29_004": "いわき市立勿来第一中学校", "P29_005": "福島県いわき市勿来町窪田伊賀屋敷102-2", "P29_006": "3", "P29_007": "1", "P29_008": "00", "P29_009": null }, "geometry": { "type": "Point", "coordinates": [ 140.762414526503761, 36.894584971450719 ] } },
{ "type": "Feature", "properties": { "P29_001": "07204", "P29_002": "C107220440357", "P29_003": "16002", "P29_004": "いわき市立勿来第二中学校", "P29_005": "福島県いわき市勿来町関田北作6", "P29_006": "3", "P29_007": "1", "P29_008": "00", "P29_009": null }, "geometry": { "type": "Point", "coordinates": [ 140.784000257978875, 36.881014302475769 ] } },
{ "type": "Feature", "properties": { "P29_001": "07204", "P29_002": "C107220440366", "P29_003": "16002", "P29_004": "いわき市立川部中学校", "P29_005": "福島県いわき市川部町坂下18-1", "P29_006": "3", "P29_007": "1", "P29_008": "00", "P29_009": null }, "geometry": { "type": "Point", "coordinates": [ 140.727249564881959, 36.903982231963866 ] } },
{ "type": "Feature", "properties": { "P29_001": "07204", "P29_002": "C107220440375", "P29_003": "16002", "P29_004": "いわき市立上遠野中学校", "P29_005": "福島県いわき市遠野町上遠野字根小屋30", "P29_006": "3", "P29_007": "1", "P29_008": "00", "P29_009": null }, "geometry": { "type": "Point", "coordinates": [ 140.750065886777151, 37.010596389515243 ] } },
{ "type": "Feature", "properties": { "P29_001": "07204", "P29_002": "C107220440384", "P29_003": "16002", "P29_004": "いわき市立入遠野中学校", "P29_005": "福島県いわき市遠野町上根本字荒神平20", "P29_006": "3", "P29_007": "1", "P29_008": "00", "P29_009": null }, "geometry": { "type": "Point", "coordinates": [ 140.716697004265342, 37.032416723089597 ] } },
{ "type": "Feature", "properties": { "P29_001": "07204", "P29_002": "C107220440393", "P29_003": "16002", "P29_004": "いわき市立田人中学校", "P29_005": "福島県いわき市田人町黒田字中野18-1", "P29_006": "3", "P29_007": "1", "P29_008": "00", "P29_009": null }, "geometry": { "type": "Point", "coordinates": [ 140.704360002763138, 36.963672261922376 ] } },
{ "type": "Feature", "properties": { "P29_001": "07205", "P29_002": "C107220540016", "P29_003": "16002", "P29_004": "白河市立白河中央中学校", "P29_005": "福島県白河市明戸72-5", "P29_006": "3", "P29_007": "1", "P29_008": "00", "P29_009": null }, "geometry": { "type": "Point", "coordinates": [ 140.221760312790508, 37.127814360877387 ] } },
{ "type": "Feature", "properties": { "P29_001": "07205", "P29_002": "C107220540025", "P29_003": "16002", "P29_004": "白河市立白河第二中学校", "P29_005": "福島県白河市和尚壇2-1", "P29_006": "3", "P29_007": "1", "P29_008": "00", "P29_009": null }, "geometry": { "type": "Point", "coordinates": [ 140.189558235971589, 37.128740349984817 ] } },
{ "type": "Feature", "properties": { "P29_001": "07205", "P29_002": "C107220540034", "P29_003": "16002", "P29_004": "白河市立東北中学校", "P29_005": "福島県白河市泉田南之内1", "P29_006": "3", "P29_007": "1", "P29_008": "00", "P29_009": null }, "geometry": { "type": "Point", "coordinates": [ 140.255187412578181, 37.143012885414038 ] } },
{ "type": "Feature", "properties": { "P29_001": "07205", "P29_002": "C107220540043", "P29_003": "16002", "P29_004": "白河市立白河南中学校", "P29_005": "福島県白河市白坂芳野68-1", "P29_006": "3", "P29_007": "1", "P29_008": "00", "P29_009": null }, "geometry": { "type": "Point", "coordinates": [ 140.207049662790212, 37.096252461109614 ] } },
{ "type": "Feature", "properties": { "P29_001": "07205", "P29_002": "C107220540052", "P29_003": "16002", "P29_004": "白河市立五箇中学校", "P29_005": "福島県白河市田島結城舘43-2", "P29_006": "3", "P29_007": "1", "P29_008": "00", "P29_009": null }, "geometry": { "type": "Point", "coordinates": [ 140.287813406190111, 37.114651224132935 ] } },
{ "type": "Feature", "properties": { "P29_001": "07205", "P29_002": "C107220540061", "P29_003": "16002", "P29_004": "白河市立表郷中学校", "P29_005": "福島県白河市表郷番沢字柳沼60", "P29_006": "3", "P29_007": "1", "P29_008": "00", "P29_009": null }, "geometry": { "type": "Point", "coordinates": [ 140.293769083029758, 37.060423038939334 ] } },
{ "type": "Feature", "properties": { "P29_001": "07205", "P29_002": "C107220540070", "P29_003": "16002", "P29_004": "白河市立東中学校", "P29_005": "福島県白河市東釜子字狐内25", "P29_006": "3", "P29_007": "1", "P29_008": "00", "P29_009": null }, "geometry": { "type": "Point", "coordinates": [ 140.36056891141962, 37.101995024749812 ] } },
{ "type": "Feature", "properties": { "P29_001": "07205", "P29_002": "C107220540089", "P29_003": "16002", "P29_004": "白河市立大信中学校", "P29_005": "福島県白河市大信町屋字渋川山70", "P29_006": "3", "P29_007": "1", "P29_008": "00", "P29_009": null }, "geometry": { "type": "Point", "coordinates": [ 140.244292941272505, 37.208934494264298 ] } },
{ "type": "Feature", "properties": { "P29_001": "07207", "P29_002": "C107220740014", "P29_003": "16002", "P29_004": "須賀川市立第一中学校", "P29_005": "福島県須賀川市稲荷町130", "P29_006": "3", "P29_007": "1", "P29_008": "00", "P29_009": null }, "geometry": { "type": "Point", "coordinates": [ 140.36681362031905, 37.279904779035029 ] } },
{ "type": "Feature", "properties": { "P29_001": "07207", "P29_002": "C107220740023", "P29_003": "16002", "P29_004": "須賀川市立第二中学校", "P29_005": "福島県須賀川市岩瀬森46", "P29_006": "3", "P29_007": "1", "P29_008": "00", "P29_009": null }, "geometry": { "type": "Point", "coordinates": [ 140.372312811179967, 37.302765065493432 ] } },
{ "type": "Feature", "properties": { "P29_001": "07207", "P29_002": "C107220740032", "P29_003": "16002", "P29_004": "須賀川市立第三中学校", "P29_005": "福島県須賀川市朝日田54", "P29_006": "3", "P29_007": "1", "P29_008": "00", "P29_009": null }, "geometry": { "type": "Point", "coordinates": [ 140.387556239449282, 37.277969658707377 ] } },
{ "type": "Feature", "properties": { "P29_001": "07207", "P29_002": "C107220740041", "P29_003": "16002", "P29_004": "須賀川市立西袋中学校", "P29_005": "福島県須賀川市吉美根字土橋680", "P29_006": "3", "P29_007": "1", "P29_008": "00", "P29_009": null }, "geometry": { "type": "Point", "coordinates": [ 140.338899003700476, 37.307044000426394 ] } },
{ "type": "Feature", "properties": { "P29_001": "07207", "P29_002": "C107220740069", "P29_003": "16002", "P29_004": "須賀川市立小塩江中学校", "P29_005": "福島県須賀川市塩田字中丸木85", "P29_006": "3", "P29_007": "1", "P29_008": "00", "P29_009": null }, "geometry": { "type": "Point", "coordinates": [ 140.424761677243083, 37.294742498860046 ] } },
{ "type": "Feature", "properties": { "P29_001": "07207", "P29_002": "C107220740078", "P29_003": "16002", "P29_004": "須賀川市立仁井田中学校", "P29_005": "福島県須賀川市仁井田字北明石田30", "P29_006": "3", "P29_007": "1", "P29_008": "00", "P29_009": null }, "geometry": { "type": "Point", "coordinates": [ 140.332967676685513, 37.33292520244369 ] } },
{ "type": "Feature", "properties": { "P29_001": "07207", "P29_002": "C107220740087", "P29_003": "16002", "P29_004": "須賀川市立大東中学校", "P29_005": "福島県須賀川市雨田字芳ヶ平62", "P29_006": "3", "P29_007": "1", "P29_008": "00", "P29_009": null }, "geometry": { "type": "Point", "coordinates": [ 140.422864731685337, 37.263802859826207 ] } },
{ "type": "Feature", "properties": { "P29_001": "07207", "P29_002": "C107220740096", "P29_003": "16002", "P29_004": "須賀川市立長沼中学校", "P29_005": "福島県須賀川市志茂字六角5", "P29_006": "3", "P29_007": "1", "P29_008": "00", "P29_009": null }, "geometry": { "type": "Point", "coordinates": [ 140.239669615243287, 37.285794548640396 ] } },
{ "type": "Feature", "properties": { "P29_001": "07207", "P29_002": "C107220740103", "P29_003": "16002", "P29_004": "須賀川市立岩瀬中学校", "P29_005": "福島県須賀川市柱田字南谷地前42", "P29_006": "3", "P29_007": "1", "P29_008": "00", "P29_009": null }, "geometry": { "type": "Point", "coordinates": [ 140.265261358482803, 37.317476533386731 ] } },
{ "type": "Feature", "properties": { "P29_001": "07208", "P29_002": "C107220840013", "P29_003": "16002", "P29_004": "喜多方市立第一中学校", "P29_005": "福島県喜多方市字谷地田上7573", "P29_006": "3", "P29_007": "1", "P29_008": "00", "P29_009": null }, "geometry": { "type": "Point", "coordinates": [ 139.875621090640209, 37.645345853936988 ] } },
{ "type": "Feature", "properties": { "P29_001": "07208", "P29_002": "C107220840022", "P29_003": "16002", "P29_004": "喜多方市立第二中学校", "P29_005": "福島県喜多方市字常盤台25", "P29_006": "3", "P29_007": "1", "P29_008": "00", "P29_009": null }, "geometry": { "type": "Point", "coordinates": [ 139.873708617613886, 37.667484824752812 ] } },
{ "type": "Feature", "properties": { "P29_001": "07208", "P29_002": "C107220840031", "P29_003": "16002", "P29_004": "喜多方市立第三中学校", "P29_005": "福島県喜多方市字南原3475", "P29_006": "3", "P29_007": "1", "P29_008": "00", "P29_009": null }, "geometry": { "type": "Point", "coordinates": [ 139.888418675608449, 37.656789779763301 ] } },
{ "type": "Feature", "properties": { "P29_001": "07208", "P29_002": "C107220840040", "P29_003": "16002", "P29_004": "喜多方市立会北中学校", "P29_005": "福島県喜多方市熱塩加納町米岡字下台乙839", "P29_006": "3", "P29_007": "1", "P29_008": "00", "P29_009": null }, "geometry": { "type": "Point", "coordinates": [ 139.862643315779962, 37.720773145973176 ] } },
{ "type": "Feature", "properties": { "P29_001": "07208", "P29_002": "C107220840059", "P29_003": "16002", "P29_004": "喜多方市立塩川中学校", "P29_005": "福島県喜多方市塩川町字高道1551", "P29_006": "3", "P29_007": "1", "P29_008": "00", "P29_009": null }, "geometry": { "type": "Point", "coordinates": [ 139.891144320812401, 37.600348651459676 ] } },
{ "type": "Feature", "properties": { "P29_001": "07208", "P29_002": "C107220840068", "P29_003": "16002", "P29_004": "喜多方市立山都中学校", "P29_005": "福島県喜多方市山都町字上ノ原道西875", "P29_006": "3", "P29_007": "1", "P29_008": "00", "P29_009": null }, "geometry": { "type": "Point", "coordinates": [ 139.771046237664649, 37.645156161049663 ] } },
{ "type": "Feature", "properties": { "P29_001": "07208", "P29_002": "C107220840077", "P29_003": "16002", "P29_004": "喜多方市立高郷中学校", "P29_005": "福島県喜多方市高郷町上郷字中平94", "P29_006": "3", "P29_007": "1", "P29_008": "00", "P29_009": null }, "geometry": { "type": "Point", "coordinates": [ 139.732023718385506, 37.608067956844252 ] } },
{ "type": "Feature", "properties": { "P29_001": "07209", "P29_002": "C107220940012", "P29_003": "16002", "P29_004": "相馬市立中村第一中学校", "P29_005": "福島県相馬市中村字本町132-1", "P29_006": "3", "P29_007": "1", "P29_008": "00", "P29_009": null }, "geometry": { "type": "Point", "coordinates": [ 140.907226567082745, 37.799820640655014 ] } },
{ "type": "Feature", "properties": { "P29_001": "07209", "P29_002": "C107220940021", "P29_003": "16002", "P29_004": "相馬市立中村第二中学校", "P29_005": "福島県相馬市和田字北迫185-13", "P29_006": "3", "P29_007": "1", "P29_008": "00", "P29_009": null }, "geometry": { "type": "Point", "coordinates": [ 140.945816388853444, 37.817461029984187 ] } },
{ "type": "Feature", "properties": { "P29_001": "07209", "P29_002": "C107220940030", "P29_003": "16002", "P29_004": "相馬市立向陽中学校", "P29_005": "福島県相馬市中野字桜町76", "P29_006": "3", "P29_007": "1", "P29_008": "00", "P29_009": null }, "geometry": { "type": "Point", "coordinates": [ 140.919915956313787, 37.792015934911305 ] } },
{ "type": "Feature", "properties": { "P29_001": "07209", "P29_002": "C107220940049", "P29_003": "16002", "P29_004": "相馬市立磯部中学校", "P29_005": "福島県相馬市磯部字狐穴647", "P29_006": "3", "P29_007": "1", "P29_008": "00", "P29_009": null }, "geometry": { "type": "Point", "coordinates": [ 140.987948579042694, 37.761468286535845 ] } },
{ "type": "Feature", "properties": { "P29_001": "07210", "P29_002": "C107221040019", "P29_003": "16002", "P29_004": "二本松市立二本松第一中学校", "P29_005": "福島県二本松市郭内2-56-1", "P29_006": "3", "P29_007": "1", "P29_008": "00", "P29_009": null }, "geometry": { "type": "Point", "coordinates": [ 140.440273261370351, 37.601766906368226 ] } },
{ "type": "Feature", "properties": { "P29_001": "07210", "P29_002": "C107221040028", "P29_003": "16002", "P29_004": "二本松市立二本松第二中学校", "P29_005": "福島県二本松市沖3-301", "P29_006": "3", "P29_007": "1", "P29_008": "00", "P29_009": null }, "geometry": { "type": "Point", "coordinates": [ 140.46690210237341, 37.568541465015954 ] } },
{ "type": "Feature", "properties": { "P29_001": "07210", "P29_002": "C107221040037", "P29_003": "16002", "P29_004": "二本松市立二本松第三中学校", "P29_005": "福島県二本松市大作165", "P29_006": "3", "P29_007": "1", "P29_008": "00", "P29_009": null }, "geometry": { "type": "Point", "coordinates": [ 140.411269454227465, 37.57194703760802 ] } },
{ "type": "Feature", "properties": { "P29_001": "07210", "P29_002": "C107221040046", "P29_003": "16002", "P29_004": "二本松市立安達中学校", "P29_005": "福島県二本松市油井字田向100", "P29_006": "3", "P29_007": "1", "P29_008": "00", "P29_009": null }, "geometry": { "type": "Point", "coordinates": [ 140.465049231534152, 37.617066790217017 ] } },
{ "type": "Feature", "properties": { "P29_001": "07210", "P29_002": "C107221040055", "P29_003": "16002", "P29_004": "二本松市立小浜中学校", "P29_005": "福島県二本松市小浜字反町411", "P29_006": "3", "P29_007": "1", "P29_008": "00", "P29_009": null }, "geometry": { "type": "Point", "coordinates": [ 140.504657185070187, 37.553215963736712 ] } },
{ "type": "Feature", "properties": { "P29_001": "07210", "P29_002": "C107221040064", "P29_003": "16002", "P29_004": "二本松市立岩代中学校", "P29_005": "福島県二本松市西新殿字一本木188", "P29_006": "3", "P29_007": "1", "P29_008": "00", "P29_009": null }, "geometry": { "type": "Point", "coordinates": [ 140.563911715773941, 37.526896932203826 ] } },
{ "type": "Feature", "properties": { "P29_001": "07210", "P29_002": "C107221040073", "P29_003": "16002", "P29_004": "二本松市立東和中学校", "P29_005": "福島県二本松市針道字大町西1", "P29_006": "3", "P29_007": "1", "P29_008": "00", "P29_009": null }, "geometry": { "type": "Point", "coordinates": [ 140.570733682078497, 37.591050934820672 ] } },
{ "type": "Feature", "properties": { "P29_001": "07211", "P29_002": "C107221140018", "P29_003": "16002", "P29_004": "田村市立滝根中学校", "P29_005": "福島県田村市滝根町神俣字中広土192", "P29_006": "3", "P29_007": "1", "P29_008": "00", "P29_009": null }, "geometry": { "type": "Point", "coordinates": [ 140.66264799219843, 37.32616840027228 ] } },
{ "type": "Feature", "properties": { "P29_001": "07211", "P29_002": "C107221140027", "P29_003": "16002", "P29_004": "田村市立大越中学校", "P29_005": "福島県田村市大越町上大越字古町230", "P29_006": "3", "P29_007": "1", "P29_008": "00", "P29_009": null }, "geometry": { "type": "Point", "coordinates": [ 140.625970113620127, 37.389125384992866 ] } },
{ "type": "Feature", "properties": { "P29_001": "07211", "P29_002": "C107221140036", "P29_003": "16002", "P29_004": "田村市立都路中学校", "P29_005": "福島県田村市都路町古道字北町4-6", "P29_006": "3", "P29_007": "1", "P29_008": "00", "P29_009": null }, "geometry": { "type": "Point", "coordinates": [ 140.792466313547692, 37.436516582536214 ] } },
{ "type": "Feature", "properties": { "P29_001": "07211", "P29_002": "C107221140045", "P29_003": "16002", "P29_004": "田村市立常葉中学校", "P29_005": "福島県田村市常葉町常葉字上野175", "P29_006": "3", "P29_007": "1", "P29_008": "00", "P29_009": null }, "geometry": { "type": "Point", "coordinates": [ 140.644043263483979, 37.440520342443456 ] } },
{ "type": "Feature", "properties": { "P29_001": "07211", "P29_002": "C107221140054", "P29_003": "16002", "P29_004": "田村市立船引南中学校", "P29_005": "福島県田村市船引町堀越字丸森70", "P29_006": "3", "P29_007": "1", "P29_008": "00", "P29_009": null }, "geometry": { "type": "Point", "coordinates": [ 140.572450997048151, 37.397871491492012 ] } },
{ "type": "Feature", "properties": { "P29_001": "07211", "P29_002": "C107221140063", "P29_003": "16002", "P29_004": "田村市立船引中学校", "P29_005": "福島県田村市船引町東部台2-1", "P29_006": "3", "P29_007": "1", "P29_008": "00", "P29_009": null }, "geometry": { "type": "Point", "coordinates": [ 140.580311245968062, 37.44267968754103 ] } },
{ "type": "Feature", "properties": { "P29_001": "07212", "P29_002": "C107221240017", "P29_003": "16002", "P29_004": "南相馬市立原町第一中学校", "P29_005": "福島県南相馬市原町区南町3-23", "P29_006": "3", "P29_007": "1", "P29_008": "00", "P29_009": null }, "geometry": { "type": "Point", "coordinates": [ 140.956430258411558, 37.631546897526761 ] } },
{ "type": "Feature", "properties": { "P29_001": "07212", "P29_002": "C107221240026", "P29_003": "16002", "P29_004": "南相馬市立原町第二中学校", "P29_005": "福島県南相馬市原町区桜井町1-152", "P29_006": "3", "P29_007": "1", "P29_008": "00", "P29_009": null }, "geometry": { "type": "Point", "coordinates": [ 140.980644876577514, 37.636829126216234 ] } },
{ "type": "Feature", "properties": { "P29_001": "07212", "P29_002": "C107221240035", "P29_003": "16002", "P29_004": "南相馬市立原町第三中学校", "P29_005": "福島県南相馬市原町区下太田字川内前12-2", "P29_006": "3", "P29_007": "1", "P29_008": "00", "P29_009": null }, "geometry": { "type": "Point", "coordinates": [ 140.982129491844347, 37.614021707751043 ] } },
{ "type": "Feature", "properties": { "P29_001": "07212", "P29_002": "C107221240044", "P29_003": "16002", "P29_004": "南相馬市立石神中学校", "P29_005": "福島県南相馬市原町区石神字北畑47-1", "P29_006": "3", "P29_007": "1", "P29_008": "00", "P29_009": null }, "geometry": { "type": "Point", "coordinates": [ 140.934186142031166, 37.642073166841783 ] } },
{ "type": "Feature", "properties": { "P29_001": "07212", "P29_002": "C107221240053", "P29_003": "16002", "P29_004": "南相馬市立鹿島中学校", "P29_005": "福島県南相馬市鹿島区寺内字落合28", "P29_006": "3", "P29_007": "1", "P29_008": "00", "P29_009": null }, "geometry": { "type": "Point", "coordinates": [ 140.955359916644682, 37.705273275456122 ] } },
{ "type": "Feature", "properties": { "P29_001": "07212", "P29_002": "C107221240062", "P29_003": "16002", "P29_004": "南相馬市立小高中学校", "P29_005": "福島県南相馬市小高区吉名字中坪1", "P29_006": "3", "P29_007": "1", "P29_008": "00", "P29_009": null }, "geometry": { "type": "Point", "coordinates": [ 140.984355552650214, 37.559324332738001 ] } },
{ "type": "Feature", "properties": { "P29_001": "07213", "P29_002": "C107221340016", "P29_003": "16002", "P29_004": "伊達市立伊達中学校", "P29_005": "福島県伊達市箱崎字沖110", "P29_006": "3", "P29_007": "1", "P29_008": "00", "P29_009": null }, "geometry": { "type": "Point", "coordinates": [ 140.515237775856463, 37.821391885923482 ] } },
{ "type": "Feature", "properties": { "P29_001": "07213", "P29_002": "C107221340025", "P29_003": "16002", "P29_004": "伊達市立梁川中学校", "P29_005": "福島県伊達市梁川町字菖蒲沢141-6", "P29_006": "3", "P29_007": "1", "P29_008": "00", "P29_009": null }, "geometry": { "type": "Point", "coordinates": [ 140.614455046652211, 37.85447829681511 ] } },
{ "type": "Feature", "properties": { "P29_001": "07213", "P29_002": "C107221340034", "P29_003": "16002", "P29_004": "伊達市立松陽中学校", "P29_005": "福島県伊達市保原町大柳字向山1", "P29_006": "3", "P29_007": "1", "P29_008": "00", "P29_009": null }, "geometry": { "type": "Point", "coordinates": [ 140.554720619590739, 37.80021730414088 ] } },
{ "type": "Feature", "properties": { "P29_001": "07213", "P29_002": "C107221340043", "P29_003": "16002", "P29_004": "伊達市立桃陵中学校", "P29_005": "福島県伊達市保原町字豊田1-1", "P29_006": "3", "P29_007": "1", "P29_008": "00", "P29_009": null }, "geometry": { "type": "Point", "coordinates": [ 140.558696857307751, 37.832349498087041 ] } },
{ "type": "Feature", "properties": { "P29_001": "07213", "P29_002": "C107221340052", "P29_003": "16002", "P29_004": "伊達市立霊山中学校", "P29_005": "福島県伊達市霊山町掛田字下川原30", "P29_006": "3", "P29_007": "1", "P29_008": "00", "P29_009": null }, "geometry": { "type": "Point", "coordinates": [ 140.595488185693995, 37.788703847760146 ] } },
{ "type": "Feature", "properties": { "P29_001": "07213", "P29_002": "C107221340061", "P29_003": "16002", "P29_004": "伊達市立月舘学園中学校", "P29_005": "福島県伊達市月舘町月舘字久保田1", "P29_006": "3", "P29_007": "1", "P29_008": "00", "P29_009": null }, "geometry": { "type": "Point", "coordinates": [ 140.608816978003745, 37.733244180174644 ] } },
{ "type": "Feature", "properties": { "P29_001": "07214", "P29_002": "C107221440015", "P29_003": "16002", "P29_004": "本宮市立本宮第一中学校", "P29_005": "福島県本宮市本宮字懸鉄15", "P29_006": "3", "P29_007": "1", "P29_008": "00", "P29_009": null }, "geometry": { "type": "Point", "coordinates": [ 140.39146698880657, 37.517290975437199 ] } },
{ "type": "Feature", "properties": { "P29_001": "07214", "P29_002": "C107221440024", "P29_003": "16002", "P29_004": "本宮市立本宮第二中学校", "P29_005": "福島県本宮市荒井字団子森28", "P29_006": "3", "P29_007": "1", "P29_008": "00", "P29_009": null }, "geometry": { "type": "Point", "coordinates": [ 140.366878983370128, 37.484503143478221 ] } },
{ "type": "Feature", "properties": { "P29_001": "07214", "P29_002": "C107221440033", "P29_003": "16002", "P29_004": "本宮市立白沢中学校", "P29_005": "福島県本宮市白岩字柳内835", "P29_006": "3", "P29_007": "1", "P29_008": "00", "P29_009": null }, "geometry": { "type": "Point", "coordinates": [ 140.450271491966532, 37.504871654950549 ] } },
{ "type": "Feature", "properties": { "P29_001": "07301", "P29_002": "C107230140019", "P29_003": "16002", "P29_004": "伊達郡桑折町立醸芳中学校", "P29_005": "福島県伊達郡桑折町大字上郡字柳下5", "P29_006": "3", "P29_007": "1", "P29_008": "00", "P29_009": null }, "geometry": { "type": "Point", "coordinates": [ 140.525592020052898, 37.850649881245587 ] } },
{ "type": "Feature", "properties": { "P29_001": "07303", "P29_002": "C107230340017", "P29_003": "16002", "P29_004": "国見町立県北中学校", "P29_005": "福島県伊達郡国見町大字森山字西上野20", "P29_006": "3", "P29_007": "1", "P29_008": "00", "P29_009": null }, "geometry": { "type": "Point", "coordinates": [ 140.561028065641807, 37.884267978585086 ] } },
{ "type": "Feature", "properties": { "P29_001": "07308", "P29_002": "C107230840012", "P29_003": "16002", "P29_004": "川俣町立川俣中学校", "P29_005": "福島県伊達郡川俣町字宮ノ脇14", "P29_006": "3", "P29_007": "1", "P29_008": "00", "P29_009": null }, "geometry": { "type": "Point", "coordinates": [ 140.597638847336128, 37.667759805488593 ] } },
{ "type": "Feature", "properties": { "P29_001": "07308", "P29_002": "C107230840021", "P29_003": "16002", "P29_004": "川俣町立山木屋中学校", "P29_005": "福島県伊達郡川俣町山木屋字小塚山9-1", "P29_006": "3", "P29_007": "1", "P29_008": "00", "P29_009": null }, "geometry": { "type": "Point", "coordinates": [ 140.676170594009449, 37.602870051017796 ] } },
{ "type": "Feature", "properties": { "P29_001": "07322", "P29_002": "C107232240014", "P29_003": "16002", "P29_004": "大玉村立大玉中学校", "P29_005": "福島県安達郡大玉村玉井字的場93", "P29_006": "3", "P29_007": "1", "P29_008": "00", "P29_009": null }, "geometry": { "type": "Point", "coordinates": [ 140.370916127632, 37.537078150402991 ] } },
{ "type": "Feature", "properties": { "P29_001": "07342", "P29_002": "C107234240010", "P29_003": "16002", "P29_004": "鏡石町立鏡石中学校", "P29_005": "福島県岩瀬郡鏡石町旭町158", "P29_006": "3", "P29_007": "1", "P29_008": "00", "P29_009": null }, "geometry": { "type": "Point", "coordinates": [ 140.349498215290311, 37.246263294433327 ] } },
{ "type": "Feature", "properties": { "P29_001": "07344", "P29_002": "C107234440018", "P29_003": "16002", "P29_004": "天栄村立天栄中学校", "P29_005": "福島県岩瀬郡天栄村白子字西原5", "P29_006": "3", "P29_007": "1", "P29_008": "00", "P29_009": null }, "geometry": { "type": "Point", "coordinates": [ 140.249268220859705, 37.258891766424114 ] } },
{ "type": "Feature", "properties": { "P29_001": "07362", "P29_002": "C107236240015", "P29_003": "16002", "P29_004": "南会津郡下郷町立下郷中学校", "P29_005": "福島県南会津郡下郷町中妻字大百刈5", "P29_006": "3", "P29_007": "1", "P29_008": "00", "P29_009": null }, "geometry": { "type": "Point", "coordinates": [ 139.872572579811958, 37.25996952994921 ] } },
{ "type": "Feature", "properties": { "P29_001": "07364", "P29_002": "C107236440013", "P29_003": "16002", "P29_004": "南会津郡檜枝岐村立檜枝岐中学校", "P29_005": "福島県南会津郡檜枝岐村字下ノ原892", "P29_006": "3", "P29_007": "1", "P29_008": "00", "P29_009": null }, "geometry": { "type": "Point", "coordinates": [ 139.388148775297481, 37.025103538181824 ] } },
{ "type": "Feature", "properties": { "P29_001": "07367", "P29_002": "C107236740010", "P29_003": "16002", "P29_004": "南会津郡只見町立只見中学校", "P29_005": "福島県南会津郡只見町大字黒谷字上野300", "P29_006": "3", "P29_007": "1", "P29_008": "00", "P29_009": null }, "geometry": { "type": "Point", "coordinates": [ 139.362967732728151, 37.302398977076017 ] } },
{ "type": "Feature", "properties": { "P29_001": "07368", "P29_002": "C107236840019", "P29_003": "16002", "P29_004": "南会津郡南会津町立田島中学校", "P29_005": "福島県南会津郡南会津町田島字後原甲3437", "P29_006": "3", "P29_007": "1", "P29_008": "00", "P29_009": null }, "geometry": { "type": "Point", "coordinates": [ 139.773843909691578, 37.197000098269086 ] } },
{ "type": "Feature", "properties": { "P29_001": "07368", "P29_002": "C107236840028", "P29_003": "16002", "P29_004": "南会津郡南会津町立荒海中学校", "P29_005": "福島県南会津郡南会津町糸沢字馬場原446-15", "P29_006": "3", "P29_007": "1", "P29_008": "00", "P29_009": null }, "geometry": { "type": "Point", "coordinates": [ 139.734547543829649, 37.150363645831781 ] } },
{ "type": "Feature", "properties": { "P29_001": "07368", "P29_002": "C107236840037", "P29_003": "16002", "P29_004": "南会津郡南会津町立舘岩中学校", "P29_005": "福島県南会津郡南会津町水石19", "P29_006": "3", "P29_007": "1", "P29_008": "00", "P29_009": null }, "geometry": { "type": "Point", "coordinates": [ 139.539824821274294, 37.088809841670333 ] } },
{ "type": "Feature", "properties": { "P29_001": "07368", "P29_002": "C107236840046", "P29_003": "16002", "P29_004": "南会津町立南会津中学校", "P29_005": "福島県南会津郡南会津町鴇巣字平林573", "P29_006": "3", "P29_007": "1", "P29_008": "00", "P29_009": null }, "geometry": { "type": "Point", "coordinates": [ 139.543425723924599, 37.239547903070914 ] } },
{ "type": "Feature", "properties": { "P29_001": "07402", "P29_002": "C107240240017", "P29_003": "16002", "P29_004": "北塩原村立第一中学校", "P29_005": "福島県耶麻郡北塩原村大字北山字上ノ台2850", "P29_006": "3", "P29_007": "1", "P29_008": "00", "P29_009": null }, "geometry": { "type": "Point", "coordinates": [ 139.939160025357438, 37.656382652618582 ] } },
{ "type": "Feature", "properties": { "P29_001": "07402", "P29_002": "C107240240026", "P29_003": "16002", "P29_004": "北塩原村立裏磐梯中学校", "P29_005": "福島県耶麻郡北塩原村大字桧原字剣ヶ峯1093-732", "P29_006": "3", "P29_007": "1", "P29_008": "00", "P29_009": null }, "geometry": { "type": "Point", "coordinates": [ 140.083360047402834, 37.65821330576378 ] } },
{ "type": "Feature", "properties": { "P29_001": "07405", "P29_002": "C107240540014", "P29_003": "16002", "P29_004": "耶麻郡西会津町立西会津中学校", "P29_005": "福島県耶麻郡西会津町尾野本字新森野87", "P29_006": "3", "P29_007": "1", "P29_008": "00", "P29_009": null }, "geometry": { "type": "Point", "coordinates": [ 139.65320946362425, 37.589761226997943 ] } },
{ "type": "Feature", "properties": { "P29_001": "07407", "P29_002": "C107240740012", "P29_003": "16002", "P29_004": "耶麻郡磐梯町立磐梯中学校", "P29_005": "福島県耶麻郡磐梯町大字磐梯字仁渡914", "P29_006": "3", "P29_007": "1", "P29_008": "00", "P29_009": null }, "geometry": { "type": "Point", "coordinates": [ 139.991951506719971, 37.562944530017866 ] } },
{ "type": "Feature", "properties": { "P29_001": "07408", "P29_002": "C107240840048", "P29_003": "16002", "P29_004": "猪苗代町立猪苗代中学校", "P29_005": "福島県耶麻郡猪苗代町大字千代田字中島5-1", "P29_006": "3", "P29_007": "1", "P29_008": "00", "P29_009": null }, "geometry": { "type": "Point", "coordinates": [ 140.109389588752805, 37.553070286422937 ] } },
{ "type": "Feature", "properties": { "P29_001": "07421", "P29_002": "C107242140014", "P29_003": "16002", "P29_004": "会津坂下町立坂下中学校", "P29_005": "福島県河沼郡会津坂下町字惣六83", "P29_006": "3", "P29_007": "1", "P29_008": "00", "P29_009": null }, "geometry": { "type": "Point", "coordinates": [ 139.812029767415112, 37.563826905125026 ] } },
{ "type": "Feature", "properties": { "P29_001": "07422", "P29_002": "C107242240013", "P29_003": "16002", "P29_004": "河沼郡湯川村立湯川中学校", "P29_005": "福島県河沼郡湯川村大字笈川字殿田37", "P29_006": "3", "P29_007": "1", "P29_008": "00", "P29_009": null }, "geometry": { "type": "Point", "coordinates": [ 139.886728445998472, 37.566940127748182 ] } },
{ "type": "Feature", "properties": { "P29_001": "07423", "P29_002": "C107242340012", "P29_003": "16002", "P29_004": "柳津町立会津柳津学園中学校", "P29_005": "福島県河沼郡柳津町大字柳津字上村道下乙1580", "P29_006": "3", "P29_007": "1", "P29_008": "00", "P29_009": null }, "geometry": { "type": "Point", "coordinates": [ 139.72168803375277, 37.523778474407642 ] } },
{ "type": "Feature", "properties": { "P29_001": "07444", "P29_002": "C107244440017", "P29_003": "16002", "P29_004": "三島町立三島中学校", "P29_005": "福島県大沼郡三島町大字宮下字上ノ原2099", "P29_006": "3", "P29_007": "1", "P29_008": "00", "P29_009": null }, "geometry": { "type": "Point", "coordinates": [ 139.638429561080898, 37.467988594568531 ] } },
{ "type": "Feature", "properties": { "P29_001": "07445", "P29_002": "C107244540016", "P29_003": "16002", "P29_004": "金山町立金山中学校", "P29_005": "福島県大沼郡金山町大字川口字谷地400", "P29_006": "3", "P29_007": "1", "P29_008": "00", "P29_009": null }, "geometry": { "type": "Point", "coordinates": [ 139.525188338198177, 37.454531147513897 ] } },
{ "type": "Feature", "properties": { "P29_001": "07446", "P29_002": "C107244640015", "P29_003": "16002", "P29_004": "昭和村立昭和中学校", "P29_005": "福島県大沼郡昭和村下中津川字中島向1755", "P29_006": "3", "P29_007": "1", "P29_008": "00", "P29_009": null }, "geometry": { "type": "Point", "coordinates": [ 139.610489589037797, 37.333694228312659 ] } },
{ "type": "Feature", "properties": { "P29_001": "07447", "P29_002": "C107244740014", "P29_003": "16002", "P29_004": "大沼郡会津美里町立高田中学校", "P29_005": "福島県大沼郡会津美里町字布才地570", "P29_006": "3", "P29_007": "1", "P29_008": "00", "P29_009": null }, "geometry": { "type": "Point", "coordinates": [ 139.834456783580094, 37.461583316930508 ] } },
{ "type": "Feature", "properties": { "P29_001": "07447", "P29_002": "C107244740023", "P29_003": "16002", "P29_004": "大沼郡会津美里町立本郷中学校", "P29_005": "福島県大沼郡会津美里町川原町1933", "P29_006": "3", "P29_007": "1", "P29_008": "00", "P29_009": null }, "geometry": { "type": "Point", "coordinates": [ 139.883984293441102, 37.454535203551259 ] } },
{ "type": "Feature", "properties": { "P29_001": "07447", "P29_002": "C107244740032", "P29_003": "16002", "P29_004": "大沼郡会津美里町立新鶴中学校", "P29_005": "福島県大沼郡会津美里町鶴野辺字北三百苅830", "P29_006": "3", "P29_007": "1", "P29_008": "00", "P29_009": null }, "geometry": { "type": "Point", "coordinates": [ 139.83085204016345, 37.513487223506075 ] } },
{ "type": "Feature", "properties": { "P29_001": "07461", "P29_002": "C107246140015", "P29_003": "16002", "P29_004": "西白河郡西郷村立西郷第一中学校", "P29_005": "福島県西白河郡西郷村大字熊倉字火打山5", "P29_006": "3", "P29_007": "1", "P29_008": "00", "P29_009": null }, "geometry": { "type": "Point", "coordinates": [ 140.162096871951206, 37.15641882847153 ] } },
{ "type": "Feature", "properties": { "P29_001": "07461", "P29_002": "C107246140024", "P29_003": "16002", "P29_004": "西白河郡西郷村立西郷第二中学校", "P29_005": "福島県西白河郡西郷村大字小田倉字上野原459-1", "P29_006": "3", "P29_007": "1", "P29_008": "00", "P29_009": null }, "geometry": { "type": "Point", "coordinates": [ 140.143866163096817, 37.118611449509814 ] } },
{ "type": "Feature", "properties": { "P29_001": "07461", "P29_002": "C107246140033", "P29_003": "16002", "P29_004": "西白河郡西郷村立川谷中学校", "P29_005": "福島県西白河郡西郷村大字真船字蒲日向269", "P29_006": "3", "P29_007": "1", "P29_008": "00", "P29_009": null }, "geometry": { "type": "Point", "coordinates": [ 140.093112565956119, 37.160919474429072 ] } },
{ "type": "Feature", "properties": { "P29_001": "07464", "P29_002": "C107246440012", "P29_003": "16002", "P29_004": "西白河郡泉崎村立泉崎中学校", "P29_005": "福島県西白河郡泉崎村泉崎字上陣場14", "P29_006": "3", "P29_007": "1", "P29_008": "00", "P29_009": null }, "geometry": { "type": "Point", "coordinates": [ 140.315686521071427, 37.153132969823197 ] } },
{ "type": "Feature", "properties": { "P29_001": "07465", "P29_002": "C107246540011", "P29_003": "16002", "P29_004": "西白河郡中島村立中島中学校", "P29_005": "福島県西白河郡中島村大字滑津字中島西14", "P29_006": "3", "P29_007": "1", "P29_008": "00", "P29_009": null }, "geometry": { "type": "Point", "coordinates": [ 140.351000171240315, 37.14858025263586 ] } },
{ "type": "Feature", "properties": { "P29_001": "07466", "P29_002": "C107246640010", "P29_003": "16002", "P29_004": "矢吹町立矢吹中学校", "P29_005": "福島県西白河郡矢吹町文京町118", "P29_006": "3", "P29_007": "1", "P29_008": "00", "P29_009": null }, "geometry": { "type": "Point", "coordinates": [ 140.342078937463839, 37.191822502556512 ] } },
{ "type": "Feature", "properties": { "P29_001": "07481", "P29_002": "C107248140011", "P29_003": "16002", "P29_004": "棚倉町立棚倉中学校", "P29_005": "福島県東白川郡棚倉町大字棚倉字城跡88-5", "P29_006": "3", "P29_007": "1", "P29_008": "00", "P29_009": null }, "geometry": { "type": "Point", "coordinates": [ 140.383067172308841, 37.02968943558048 ] } },
{ "type": "Feature", "properties": { "P29_001": "07482", "P29_002": "C107248240010", "P29_003": "16002", "P29_004": "東白川郡矢祭町立矢祭中学校", "P29_005": "福島県東白川郡矢祭町東舘字大寄40", "P29_006": "3", "P29_007": "1", "P29_008": "00", "P29_009": null }, "geometry": { "type": "Point", "coordinates": [ 140.424417832445585, 36.878466367975911 ] } },
{ "type": "Feature", "properties": { "P29_001": "07483", "P29_002": "C107248340019", "P29_003": "16002", "P29_004": "塙町立塙中学校", "P29_005": "福島県東白川郡塙町大字竹之内字草田3", "P29_006": "3", "P29_007": "1", "P29_008": "00", "P29_009": null }, "geometry": { "type": "Point", "coordinates": [ 140.427379567083193, 36.958033618825105 ] } },
{ "type": "Feature", "properties": { "P29_001": "07484", "P29_002": "C107248440018", "P29_003": "16002", "P29_004": "東白川郡鮫川村立鮫川中学校", "P29_005": "福島県東白川郡鮫川村大字赤坂中野字巡ヶ作130-4", "P29_006": "3", "P29_007": "1", "P29_008": "00", "P29_009": null }, "geometry": { "type": "Point", "coordinates": [ 140.506995692662372, 37.038070226931808 ] } },
{ "type": "Feature", "properties": { "P29_001": "07501", "P29_002": "C107250140017", "P29_003": "16002", "P29_004": "石川町立石川中学校", "P29_005": "福島県石川郡石川町大字双里字川向165", "P29_006": "3", "P29_007": "1", "P29_008": "00", "P29_009": null }, "geometry": { "type": "Point", "coordinates": [ 140.466124457650324, 37.145939687861301 ] } },
{ "type": "Feature", "properties": { "P29_001": "07502", "P29_002": "C107250240016", "P29_003": "16002", "P29_004": "玉川村立玉川中学校", "P29_005": "福島県石川郡玉川村大字中字前作田71", "P29_006": "3", "P29_007": "1", "P29_008": "00", "P29_009": null }, "geometry": { "type": "Point", "coordinates": [ 140.410921437826886, 37.218761261901939 ] } },
{ "type": "Feature", "properties": { "P29_001": "07503", "P29_002": "C107250340015", "P29_003": "16002", "P29_004": "平田村立ひらた清風中学校", "P29_005": "福島県石川郡平田村大字永田字堂作145-1", "P29_006": "3", "P29_007": "1", "P29_008": "00", "P29_009": null }, "geometry": { "type": "Point", "coordinates": [ 140.569614514641387, 37.214013464410783 ] } },
{ "type": "Feature", "properties": { "P29_001": "07504", "P29_002": "C107250440014", "P29_003": "16002", "P29_004": "浅川町立浅川中学校", "P29_005": "福島県石川郡浅川町大字浅川字大明塚120", "P29_006": "3", "P29_007": "1", "P29_008": "00", "P29_009": null }, "geometry": { "type": "Point", "coordinates": [ 140.410972416862052, 37.080555323343845 ] } },
{ "type": "Feature", "properties": { "P29_001": "07505", "P29_002": "C107250540013", "P29_003": "16002", "P29_004": "古殿町立古殿中学校", "P29_005": "福島県石川郡古殿町大字松川字横川462", "P29_006": "3", "P29_007": "1", "P29_008": "00", "P29_009": null }, "geometry": { "type": "Point", "coordinates": [ 140.5597027998584, 37.089473329020031 ] } },
{ "type": "Feature", "properties": { "P29_001": "07521", "P29_002": "C107252140013", "P29_003": "16002", "P29_004": "三春町立三春中学校", "P29_005": "福島県田村郡三春町大字貝山字泉沢100-4", "P29_006": "3", "P29_007": "1", "P29_008": "00", "P29_009": null }, "geometry": { "type": "Point", "coordinates": [ 140.492943198240511, 37.429671395907384 ] } },
{ "type": "Feature", "properties": { "P29_001": "07521", "P29_002": "C107252140022", "P29_003": "16002", "P29_004": "三春町立岩江中学校", "P29_005": "福島県田村郡三春町上舞木字向田53", "P29_006": "3", "P29_007": "1", "P29_008": "00", "P29_009": null }, "geometry": { "type": "Point", "coordinates": [ 140.446106966387845, 37.424744493108271 ] } },
{ "type": "Feature", "properties": { "P29_001": "07522", "P29_002": "C107252240012", "P29_003": "16002", "P29_004": "田村郡小野町立小野中学校", "P29_005": "福島県田村郡小野町大字谷津作字和久59", "P29_006": "3", "P29_007": "1", "P29_008": "00", "P29_009": null }, "geometry": { "type": "Point", "coordinates": [ 140.627644191659414, 37.275575193908608 ] } },
{ "type": "Feature", "properties": { "P29_001": "07541", "P29_002": "C107254140019", "P29_003": "16002", "P29_004": "双葉郡広野町立広野中学校", "P29_005": "福島県双葉郡広野町大字下浅見川字築地12", "P29_006": "3", "P29_007": "1", "P29_008": "00", "P29_009": null }, "geometry": { "type": "Point", "coordinates": [ 140.996385559096012, 37.213039798760036 ] } },
{ "type": "Feature", "properties": { "P29_001": "07541", "P29_002": "C107254140028", "P29_003": "16002", "P29_004": "福島県立ふたば未来学園中学校", "P29_005": "福島県双葉郡広野町中央台1-6-3", "P29_006": "2", "P29_007": "1", "P29_008": "00", "P29_009": null }, "geometry": { "type": "Point", "coordinates": [ 140.988941155435299, 37.212467812407802 ] } },
{ "type": "Feature", "properties": { "P29_001": "07542", "P29_002": "C107254240018", "P29_003": "16002", "P29_004": "楢葉町立楢葉中学校", "P29_005": "福島県双葉郡楢葉町北田字鐘突堂2-1", "P29_006": "3", "P29_007": "1", "P29_008": "00", "P29_009": null }, "geometry": { "type": "Point", "coordinates": [ 140.994238001249698, 37.284432004912446 ] } },
{ "type": "Feature", "properties": { "P29_001": "07543", "P29_002": "C107254340053", "P29_003": "16002", "P29_004": "富岡町立富岡中学校", "P29_005": "福島県双葉郡富岡町大字小浜字中央237-2", "P29_006": "3", "P29_007": "1", "P29_008": "00", "P29_009": null }, "geometry": { "type": "Point", "coordinates": [ 141.017160477694489, 37.338470128010357 ] } },
{ "type": "Feature", "properties": { "P29_001": "07546", "P29_002": "C107254640014", "P29_003": "16002", "P29_004": "双葉郡双葉町立双葉中学校", "P29_005": "福島県双葉郡双葉町大字新山字東舘1", "P29_006": "3", "P29_007": "1", "P29_008": "00", "P29_009": null }, "geometry": { "type": "Point", "coordinates": [ 141.00202454724274, 37.448718130149544 ] } },
{ "type": "Feature", "properties": { "P29_001": "07547", "P29_002": "C107254740040", "P29_003": "16002", "P29_004": "浪江町立なみえ創成中学校", "P29_005": "福島県双葉郡浪江町大字幾世橋字来福寺西73", "P29_006": "3", "P29_007": "1", "P29_008": "00", "P29_009": null }, "geometry": { "type": "Point", "coordinates": [ 141.007683857621203, 37.492189170378744 ] } },
{ "type": "Feature", "properties": { "P29_001": "07548", "P29_002": "C107254840012", "P29_003": "16002", "P29_004": "葛尾村立葛尾中学校", "P29_005": "福島県双葉郡葛尾村大字落合字菅ノ又14-2", "P29_006": "3", "P29_007": "1", "P29_008": "00", "P29_009": null }, "geometry": { "type": "Point", "coordinates": [ 140.763747594848809, 37.499030797114393 ] } },
{ "type": "Feature", "properties": { "P29_001": "07561", "P29_002": "C107256140014", "P29_003": "16002", "P29_004": "相馬郡新地町立尚英中学校", "P29_005": "福島県相馬郡新地町谷地小屋字愛宕38", "P29_006": "3", "P29_007": "1", "P29_008": "00", "P29_009": null }, "geometry": { "type": "Point", "coordinates": [ 140.914593734272643, 37.873088468932359 ] } },
{ "type": "Feature", "properties": { "P29_001": "07201", "P29_002": "C107320141017", "P29_003": "16002", "P29_004": "桜の聖母学院中学校", "P29_005": "福島県福島市野田町7-11-1", "P29_006": "4", "P29_007": "1", "P29_008": "00", "P29_009": null }, "geometry": { "type": "Point", "coordinates": [ 140.445171996229476, 37.760425357967321 ] } },
{ "type": "Feature", "properties": { "P29_001": "07201", "P29_002": "C107320141026", "P29_003": "16002", "P29_004": "福島成蹊中学校", "P29_005": "福島県福島市腰浜町15-21", "P29_006": "4", "P29_007": "1", "P29_008": "00", "P29_009": null }, "geometry": { "type": "Point", "coordinates": [ 140.48194584423436, 37.75699713333767 ] } },
{ "type": "Feature", "properties": { "P29_001": "07202", "P29_002": "C107320241016", "P29_003": "16002", "P29_004": "会津若松ザベリオ学園中学校", "P29_005": "福島県会津若松市西栄町1-18", "P29_006": "4", "P29_007": "1", "P29_008": "00", "P29_009": null }, "geometry": { "type": "Point", "coordinates": [ 139.925152489839803, 37.492755989901845 ] } },
{ "type": "Feature", "properties": { "P29_001": "07203", "P29_002": "C107320341015", "P29_003": "16002", "P29_004": "郡山ザベリオ学園中学校", "P29_005": "福島県郡山市大槻町字古屋敷102", "P29_006": "4", "P29_007": "1", "P29_008": "00", "P29_009": null }, "geometry": { "type": "Point", "coordinates": [ 140.323370461109732, 37.401051872659096 ] } },
{ "type": "Feature", "properties": { "P29_001": "07204", "P29_002": "C107320441014", "P29_003": "16002", "P29_004": "東日本国際大学附属昌平中学校", "P29_005": "福島県いわき市平上片寄字上ノ内152", "P29_006": "4", "P29_007": "1", "P29_008": "00", "P29_009": null }, "geometry": { "type": "Point", "coordinates": [ 140.913499939138006, 37.080968245244811 ] } },
{ "type": "Feature", "properties": { "P29_001": "07204", "P29_002": "C107320441023", "P29_003": "16002", "P29_004": "磐城緑蔭中学校", "P29_005": "福島県いわき市平南白土字勝負田11", "P29_006": "4", "P29_007": "1", "P29_008": "00", "P29_009": null }, "geometry": { "type": "Point", "coordinates": [ 140.909578603788788, 37.044003681695273 ] } },
{ "type": "Feature", "properties": { "P29_001": "07204", "P29_002": "C107320441032", "P29_003": "16002", "P29_004": "いわき秀英中学校", "P29_005": "福島県いわき市泉町字滝ノ沢3-1", "P29_006": "4", "P29_007": "1", "P29_008": "00", "P29_009": null }, "geometry": { "type": "Point", "coordinates": [ 140.84038989020118, 36.949406050766314 ] } },
{ "type": "Feature", "properties": { "P29_001": "07501", "P29_002": "C107350141014", "P29_003": "16002", "P29_004": "石川義塾中学校", "P29_005": "福島県石川郡石川町字大室502", "P29_006": "4", "P29_007": "1", "P29_008": "00", "P29_009": null }, "geometry": { "type": "Point", "coordinates": [ 140.452892345899642, 37.141961650485442 ] } }
]
}
