{
"type": "FeatureCollection",
"name": "geo_07_福祉用具貸与",
"crs": { "type": "name", "properties": { "name": "urn:ogc:def:crs:OGC:1.3:CRS84" } },
"features": [
{ "type": "Feature", "properties": { "内容": "介護ショップ　マルフジ【福祉用具貸与】福島県福島市南矢野目字鼓原18-8", "url2": "https://www.kaigokensaku.mhlw.go.jp/07/index.php?action_kouhyou_detail_004_kani=true&JigyosyoCd=0770104487-00&ServiceCd=170&Type=search" }, "geometry": { "type": "Point", "coordinates": [ 140.468489526305689, 37.784874421803046 ] } },
{ "type": "Feature", "properties": { "内容": "ケアサポートプランニング【福祉用具貸与】福島市伏拝字台田7-4カトーマンション1F", "url2": "https://www.kaigokensaku.mhlw.go.jp/07/index.php?action_kouhyou_detail_004_kani=true&JigyosyoCd=0770105211-00&ServiceCd=170&Type=search" }, "geometry": { "type": "Point", "coordinates": [ 140.458811698633212, 37.723630167938651 ] } },
{ "type": "Feature", "properties": { "内容": "有限会社エヌケイ商事【福祉用具貸与】福島県福島市蓬莱町8丁目1-8", "url2": "https://www.kaigokensaku.mhlw.go.jp/07/index.php?action_kouhyou_detail_004_kani=true&JigyosyoCd=0770100550-00&ServiceCd=170&Type=search" }, "geometry": { "type": "Point", "coordinates": [ 140.486710899999906, 37.6921998 ] } },
{ "type": "Feature", "properties": { "内容": "株式会社　ハッピーケア福島支店【福祉用具貸与】福島県福島市入江町１６番３０号", "url2": "https://www.kaigokensaku.mhlw.go.jp/07/index.php?action_kouhyou_detail_004_kani=true&JigyosyoCd=0770100451-00&ServiceCd=170&Type=search" }, "geometry": { "type": "Point", "coordinates": [ 140.4822021, 37.7704163 ] } },
{ "type": "Feature", "properties": { "内容": "株式会社同仁社　ヘルスケア営業　福島営業所【福祉用具貸与】福島県福島市北中央３丁目9-2", "url2": "https://www.kaigokensaku.mhlw.go.jp/07/index.php?action_kouhyou_detail_004_kani=true&JigyosyoCd=0770104511-00&ServiceCd=170&Type=search" }, "geometry": { "type": "Point", "coordinates": [ 140.430956628836071, 37.762913895757762 ] } },
{ "type": "Feature", "properties": { "内容": "株式会社　ウイング【福祉用具貸与】福島県福島市北沢又字下釜北6-8シンフォニービル1階", "url2": "https://www.kaigokensaku.mhlw.go.jp/07/index.php?action_kouhyou_detail_004_kani=true&JigyosyoCd=0770103638-00&ServiceCd=170&Type=search" }, "geometry": { "type": "Point", "coordinates": [ 140.43586322229001, 37.788306617368015 ] } },
{ "type": "Feature", "properties": { "内容": "福祉用具たゆたふ【福祉用具貸与】福島県福島市太田町12-20", "url2": "https://www.kaigokensaku.mhlw.go.jp/07/index.php?action_kouhyou_detail_004_kani=true&JigyosyoCd=0770106086-00&ServiceCd=170&Type=search" }, "geometry": { "type": "Point", "coordinates": [ 140.4558227, 37.7549901 ] } },
{ "type": "Feature", "properties": { "内容": "介護用品　遊悠【福祉用具貸与】福島県福島市鎌田字鏡田５番地の２", "url2": "https://www.kaigokensaku.mhlw.go.jp/07/index.php?action_kouhyou_detail_004_kani=true&JigyosyoCd=0770104875-00&ServiceCd=170&Type=search" }, "geometry": { "type": "Point", "coordinates": [ 140.485995300000013, 37.7976723 ] } },
{ "type": "Feature", "properties": { "内容": "ＪＡふくしま未来介護レンタルステーション【福祉用具貸与】福島県福島市飯野町字戸ノ内13-7", "url2": "https://www.kaigokensaku.mhlw.go.jp/07/index.php?action_kouhyou_detail_004_kani=true&JigyosyoCd=0770106060-00&ServiceCd=170&Type=search" }, "geometry": { "type": "Point", "coordinates": [ 140.5336462, 37.6570447 ] } },
{ "type": "Feature", "properties": { "内容": "株式会社ファミリーケア【福祉用具貸与】福島県福島市浜田町6-5", "url2": "https://www.kaigokensaku.mhlw.go.jp/07/index.php?action_kouhyou_detail_004_kani=true&JigyosyoCd=0770100691-00&ServiceCd=170&Type=search" }, "geometry": { "type": "Point", "coordinates": [ 140.475378200000023, 37.7593533 ] } },
{ "type": "Feature", "properties": { "内容": "株式会社　カンノ住研【福祉用具貸与】福島県福島市町庭坂字長林23-5", "url2": "https://www.kaigokensaku.mhlw.go.jp/07/index.php?action_kouhyou_detail_004_kani=true&JigyosyoCd=0770100949-00&ServiceCd=170&Type=search" }, "geometry": { "type": "Point", "coordinates": [ 140.393566600000014, 37.767981399999989 ] } },
{ "type": "Feature", "properties": { "内容": "ここから住まいサポート【福祉用具貸与】福島県福島市大森字日蔭115-2", "url2": "https://www.kaigokensaku.mhlw.go.jp/07/index.php?action_kouhyou_detail_004_kani=true&JigyosyoCd=0770106185-00&ServiceCd=170&Type=search" }, "geometry": { "type": "Point", "coordinates": [ 140.4369654, 37.7330591 ] } },
{ "type": "Feature", "properties": { "内容": "日本ウイール・チェアー株式会社　福島支店【福祉用具貸与】福島県福島市方木田字上仲田1-3", "url2": "https://www.kaigokensaku.mhlw.go.jp/07/index.php?action_kouhyou_detail_004_kani=true&JigyosyoCd=0770101418-00&ServiceCd=170&Type=search" }, "geometry": { "type": "Point", "coordinates": [ 140.45404439999993, 37.7417355 ] } },
{ "type": "Feature", "properties": { "内容": "福祉用具貸与　悠と里【福祉用具貸与】福島県福島市南矢野目字桜内３６－１", "url2": "https://www.kaigokensaku.mhlw.go.jp/07/index.php?action_kouhyou_detail_004_kani=true&JigyosyoCd=0770103984-00&ServiceCd=170&Type=search" }, "geometry": { "type": "Point", "coordinates": [ 140.459327937743268, 37.787747816167204 ] } },
{ "type": "Feature", "properties": { "内容": "よろこび介護サービス【福祉用具貸与】福島県福島市渡利字川岸町24-5", "url2": "https://www.kaigokensaku.mhlw.go.jp/07/index.php?action_kouhyou_detail_004_kani=true&JigyosyoCd=0770101400-00&ServiceCd=170&Type=search" }, "geometry": { "type": "Point", "coordinates": [ 140.482014199999981, 37.751232 ] } },
{ "type": "Feature", "properties": { "内容": "すこやかサービスセンター【福祉用具貸与】福島県福島市南沢又字上並松8番地の6", "url2": "https://www.kaigokensaku.mhlw.go.jp/07/index.php?action_kouhyou_detail_004_kani=true&JigyosyoCd=0770100600-00&ServiceCd=170&Type=search" }, "geometry": { "type": "Point", "coordinates": [ 140.442460799999907, 37.7844277 ] } },
{ "type": "Feature", "properties": { "内容": "株式会社　エヌジェイアイ　ケアヘルス福島店【福祉用具貸与】福島県福島市方木田水口２７メゾン・ミカートテナントA", "url2": "https://www.kaigokensaku.mhlw.go.jp/07/index.php?action_kouhyou_detail_004_kani=true&JigyosyoCd=0770102358-00&ServiceCd=170&Type=search" }, "geometry": { "type": "Point", "coordinates": [ 140.446303599999965, 37.740416 ] } },
{ "type": "Feature", "properties": { "内容": "ダスキンヘルスレント福島ステーション【福祉用具貸与】福島県福島市下野寺字醴2番地の1", "url2": "https://www.kaigokensaku.mhlw.go.jp/07/index.php?action_kouhyou_detail_004_kani=true&JigyosyoCd=0770103364-00&ServiceCd=170&Type=search" }, "geometry": { "type": "Point", "coordinates": [ 140.4267744, 37.7581577 ] } },
{ "type": "Feature", "properties": { "内容": "株式会社モリヨシ技研　ケアサポートあい【福祉用具貸与】福島県福島市松川町字市坂9-8", "url2": "https://www.kaigokensaku.mhlw.go.jp/07/index.php?action_kouhyou_detail_004_kani=true&JigyosyoCd=0770103349-00&ServiceCd=170&Type=search" }, "geometry": { "type": "Point", "coordinates": [ 140.466909783095048, 37.659885320830256 ] } },
{ "type": "Feature", "properties": { "内容": "株式会社セイダイ　福島営業所介護事業　介護事業部【福祉用具貸与】福島県福島市西中央4丁目15-1西中央4丁目貸事務所102", "url2": "https://www.kaigokensaku.mhlw.go.jp/07/index.php?action_kouhyou_detail_004_kani=true&JigyosyoCd=0770106383-00&ServiceCd=170&Type=search" }, "geometry": { "type": "Point", "coordinates": [ 140.4309709, 37.7602514 ] } },
{ "type": "Feature", "properties": { "内容": "和光商事株式会社【福祉用具貸与】福島県会津若松市北会津町東小松字南古川2851-1", "url2": "https://www.kaigokensaku.mhlw.go.jp/07/index.php?action_kouhyou_detail_004_kani=true&JigyosyoCd=0772400024-00&ServiceCd=170&Type=search" }, "geometry": { "type": "Point", "coordinates": [ 139.890495200000032, 37.4736176 ] } },
{ "type": "Feature", "properties": { "内容": "株式会社キャノピー【福祉用具貸与】福島県会津若松市山見2丁目9番地の8", "url2": "https://www.kaigokensaku.mhlw.go.jp/07/index.php?action_kouhyou_detail_004_kani=true&JigyosyoCd=0770202133-00&ServiceCd=170&Type=search" }, "geometry": { "type": "Point", "coordinates": [ 139.9412333, 37.50993840000001 ] } },
{ "type": "Feature", "properties": { "内容": "有限会社　介護福太郎【福祉用具貸与】福島県会津若松市中央二丁目1-21", "url2": "https://www.kaigokensaku.mhlw.go.jp/07/index.php?action_kouhyou_detail_004_kani=true&JigyosyoCd=0770200152-00&ServiceCd=170&Type=search" }, "geometry": { "type": "Point", "coordinates": [ 139.93127069029083, 37.501230762712893 ] } },
{ "type": "Feature", "properties": { "内容": "マイム介護センター【福祉用具貸与】福島県会津若松市中央三丁目７－３０", "url2": "https://www.kaigokensaku.mhlw.go.jp/07/index.php?action_kouhyou_detail_004_kani=true&JigyosyoCd=0770200343-00&ServiceCd=170&Type=search" }, "geometry": { "type": "Point", "coordinates": [ 139.933572700000013, 37.50551 ] } },
{ "type": "Feature", "properties": { "内容": "株式会社JAライフクリエイト福島　介護福祉センター会津【福祉用具貸与】福島県会津若松市高野町大字中沼字東坂才甲594", "url2": "https://www.kaigokensaku.mhlw.go.jp/07/index.php?action_kouhyou_detail_004_kani=true&JigyosyoCd=0770202158-00&ServiceCd=170&Type=search" }, "geometry": { "type": "Point", "coordinates": [ 139.917828900000018, 37.5327011 ] } },
{ "type": "Feature", "properties": { "内容": "平次建設株式会社　介護事業部　すずらん【福祉用具貸与】門田町大字中野字大道西55", "url2": "https://www.kaigokensaku.mhlw.go.jp/07/index.php?action_kouhyou_detail_004_kani=true&JigyosyoCd=0770200392-00&ServiceCd=170&Type=search" }, "geometry": { "type": "Point", "coordinates": [ 139.9217052, 37.4646153 ] } },
{ "type": "Feature", "properties": { "内容": "株式会社　ハッピーケア会津支店【福祉用具貸与】福島県会津若松市天神町22-15", "url2": "https://www.kaigokensaku.mhlw.go.jp/07/index.php?action_kouhyou_detail_004_kani=true&JigyosyoCd=0770200103-00&ServiceCd=170&Type=search" }, "geometry": { "type": "Point", "coordinates": [ 139.93501917497133, 37.480447543345605 ] } },
{ "type": "Feature", "properties": { "内容": "介護ショップ暖らん【福祉用具貸与】福島県会津若松市町北町大字藤室字横道162番地5", "url2": "https://www.kaigokensaku.mhlw.go.jp/07/index.php?action_kouhyou_detail_004_kani=true&JigyosyoCd=0770202471-00&ServiceCd=170&Type=search" }, "geometry": { "type": "Point", "coordinates": [ 139.911678707424841, 37.51744695770217 ] } },
{ "type": "Feature", "properties": { "内容": "(株)同仁社ヘルスケア営業会津営業所【福祉用具貸与】福島県会津若松市河東町南高野字高塚227", "url2": "https://www.kaigokensaku.mhlw.go.jp/07/index.php?action_kouhyou_detail_004_kani=true&JigyosyoCd=0772600375-00&ServiceCd=170&Type=search" }, "geometry": { "type": "Point", "coordinates": [ 139.9515973, 37.5553712 ] } },
{ "type": "Feature", "properties": { "内容": "一般財団法人　竹田健康財団　たけだテクノエイドセンター【福祉用具貸与】福島県会津若松市湯川町1-58", "url2": "https://www.kaigokensaku.mhlw.go.jp/07/index.php?action_kouhyou_detail_004_kani=true&JigyosyoCd=0770202455-00&ServiceCd=170&Type=search" }, "geometry": { "type": "Point", "coordinates": [ 139.9211017, 37.4906048 ] } },
{ "type": "Feature", "properties": { "内容": "株式会社昭和総合サービスふれあいの輪【福祉用具貸与】福島県郡山市西ノ内二丁目11-54", "url2": "https://www.kaigokensaku.mhlw.go.jp/07/index.php?action_kouhyou_detail_004_kani=true&JigyosyoCd=0770300812-00&ServiceCd=170&Type=search" }, "geometry": { "type": "Point", "coordinates": [ 140.36486089999994, 37.4067035 ] } },
{ "type": "Feature", "properties": { "内容": "民間救急警備株式会社　郡山本社営業所【福祉用具貸与】福島県郡山市開成六丁目212番地の1", "url2": "https://www.kaigokensaku.mhlw.go.jp/07/index.php?action_kouhyou_detail_004_kani=true&JigyosyoCd=0770300390-00&ServiceCd=170&Type=search" }, "geometry": { "type": "Point", "coordinates": [ 140.3522616, 37.3862795 ] } },
{ "type": "Feature", "properties": { "内容": "株式会社星医療酸器郡山営業所【福祉用具貸与】福島県郡山市田村町金屋字上川原199-1", "url2": "https://www.kaigokensaku.mhlw.go.jp/07/index.php?action_kouhyou_detail_004_kani=true&JigyosyoCd=0770301885-00&ServiceCd=170&Type=search" }, "geometry": { "type": "Point", "coordinates": [ 140.388483399999984, 37.3692243 ] } },
{ "type": "Feature", "properties": { "内容": "福祉用具レンタル・販売のうらら【福祉用具貸与】郡山市提2-170大蔵ビル1F", "url2": "https://www.kaigokensaku.mhlw.go.jp/07/index.php?action_kouhyou_detail_004_kani=true&JigyosyoCd=0770302982-00&ServiceCd=170&Type=search" }, "geometry": { "type": "Point", "coordinates": [ 140.3351581, 37.396661 ] } },
{ "type": "Feature", "properties": { "内容": "有限会社　M&C【福祉用具貸与】福島県郡山市島二丁目７番８号", "url2": "https://www.kaigokensaku.mhlw.go.jp/07/index.php?action_kouhyou_detail_004_kani=true&JigyosyoCd=0770302586-00&ServiceCd=170&Type=search" }, "geometry": { "type": "Point", "coordinates": [ 140.347799892875429, 37.396984896009421 ] } },
{ "type": "Feature", "properties": { "内容": "ダスキンヘルスレント郡山ステーション【福祉用具貸与】福島県郡山市安積町日出山２丁目４番地", "url2": "https://www.kaigokensaku.mhlw.go.jp/07/index.php?action_kouhyou_detail_004_kani=true&JigyosyoCd=0770303402-00&ServiceCd=170&Type=search" }, "geometry": { "type": "Point", "coordinates": [ 140.383393399999932, 37.3763125 ] } },
{ "type": "Feature", "properties": { "内容": "介護ショップ　おあしす【福祉用具貸与】福島県郡山市上亀田23-13", "url2": "https://www.kaigokensaku.mhlw.go.jp/07/index.php?action_kouhyou_detail_004_kani=true&JigyosyoCd=0770303550-00&ServiceCd=170&Type=search" }, "geometry": { "type": "Point", "coordinates": [ 140.344009899999946, 37.4096304 ] } },
{ "type": "Feature", "properties": { "内容": "株式会社　あかね福祉　郡山営業所【福祉用具貸与】郡山市安積町荒井字雷神16-1", "url2": "https://www.kaigokensaku.mhlw.go.jp/07/index.php?action_kouhyou_detail_004_kani=true&JigyosyoCd=0770301216-00&ServiceCd=170&Type=search" }, "geometry": { "type": "Point", "coordinates": [ 140.335067799999933, 37.3740398 ] } },
{ "type": "Feature", "properties": { "内容": "株式会社かんきょう　郡山支店【福祉用具貸与】福島県郡山市並木五丁目15番地17", "url2": "https://www.kaigokensaku.mhlw.go.jp/07/index.php?action_kouhyou_detail_004_kani=true&JigyosyoCd=0770304335-00&ServiceCd=170&Type=search" }, "geometry": { "type": "Point", "coordinates": [ 140.361336604038428, 37.413621695854573 ] } },
{ "type": "Feature", "properties": { "内容": "愛宕商事株式会社　郡山支店　ライフサポート・ソリューション部【福祉用具貸与】福島県郡山市亀田西67番地", "url2": "https://www.kaigokensaku.mhlw.go.jp/07/index.php?action_kouhyou_detail_004_kani=true&JigyosyoCd=0770306371-00&ServiceCd=170&Type=search" }, "geometry": { "type": "Point", "coordinates": [ 140.342633899999981, 37.405193 ] } },
{ "type": "Feature", "properties": { "内容": "丸光産業株式会社　丸光ケアサービス　レンタル【福祉用具貸与】福島県郡山市名郷田１丁目１１カーサ名郷田１０２", "url2": "https://www.kaigokensaku.mhlw.go.jp/07/index.php?action_kouhyou_detail_004_kani=true&JigyosyoCd=0770304269-00&ServiceCd=170&Type=search" }, "geometry": { "type": "Point", "coordinates": [ 140.3640967, 37.4169163 ] } },
{ "type": "Feature", "properties": { "内容": "株式会社ＪＡライフクリエイト福島　介護福祉センター【福祉用具貸与】福島県郡山市田村町金屋字下タ川原76番１", "url2": "https://www.kaigokensaku.mhlw.go.jp/07/index.php?action_kouhyou_detail_004_kani=true&JigyosyoCd=0770303261-00&ServiceCd=170&Type=search" }, "geometry": { "type": "Point", "coordinates": [ 140.397476995037096, 37.374104680885367 ] } },
{ "type": "Feature", "properties": { "内容": "佐藤燃料株式会社　シルバーとっぷ郡山【福祉用具貸与】福島県郡山市方八町２丁目１－３７", "url2": "https://www.kaigokensaku.mhlw.go.jp/07/index.php?action_kouhyou_detail_004_kani=true&JigyosyoCd=0770303741-00&ServiceCd=170&Type=search" }, "geometry": { "type": "Point", "coordinates": [ 140.388648, 37.3943665 ] } },
{ "type": "Feature", "properties": { "内容": "株式会社　ハッピーケア郡山支店【福祉用具貸与】郡山市図景1丁目3-7", "url2": "https://www.kaigokensaku.mhlw.go.jp/07/index.php?action_kouhyou_detail_004_kani=true&JigyosyoCd=0770304160-00&ServiceCd=170&Type=search" }, "geometry": { "type": "Point", "coordinates": [ 140.378910064418051, 37.385136652413685 ] } },
{ "type": "Feature", "properties": { "内容": "株式会社ピース【福祉用具貸与】福島県郡山市堤下町１番２３号", "url2": "https://www.kaigokensaku.mhlw.go.jp/07/index.php?action_kouhyou_detail_004_kani=true&JigyosyoCd=0770305704-00&ServiceCd=170&Type=search" }, "geometry": { "type": "Point", "coordinates": [ 140.377880746001296, 37.3918917237336 ] } },
{ "type": "Feature", "properties": { "内容": "株式会社同仁社　ヘルスケア営業　郡山支店【福祉用具貸与】福島県郡山市田村町金屋字新家７０番地の１", "url2": "https://www.kaigokensaku.mhlw.go.jp/07/index.php?action_kouhyou_detail_004_kani=true&JigyosyoCd=0770300481-00&ServiceCd=170&Type=search" }, "geometry": { "type": "Point", "coordinates": [ 140.387876499999948, 37.3714046 ] } },
{ "type": "Feature", "properties": { "内容": "株式会社　エヌジェイアイ　ケアヘルス郡山店【福祉用具貸与】福島県郡山市八山田7丁目１０１", "url2": "https://www.kaigokensaku.mhlw.go.jp/07/index.php?action_kouhyou_detail_004_kani=true&JigyosyoCd=0770301067-00&ServiceCd=170&Type=search" }, "geometry": { "type": "Point", "coordinates": [ 140.384442, 37.421863300000012 ] } },
{ "type": "Feature", "properties": { "内容": "株式会社セイダイ郡山営業所介護事業部【福祉用具貸与】福島県郡山市島2丁目41－26クリーン島貸事務所B", "url2": "https://www.kaigokensaku.mhlw.go.jp/07/index.php?action_kouhyou_detail_004_kani=true&JigyosyoCd=0770306017-00&ServiceCd=170&Type=search" }, "geometry": { "type": "Point", "coordinates": [ 140.345257071302797, 37.397654315276654 ] } },
{ "type": "Feature", "properties": { "内容": "福祉用具のさがわ【福祉用具貸与】福島県いわき市小名浜花畑町35-1", "url2": "https://www.kaigokensaku.mhlw.go.jp/07/index.php?action_kouhyou_detail_004_kani=true&JigyosyoCd=0770408714-00&ServiceCd=170&Type=search" }, "geometry": { "type": "Point", "coordinates": [ 140.904685300000011, 36.9565719 ] } },
{ "type": "Feature", "properties": { "内容": "株式会社　アイカワ【福祉用具貸与】福島県いわき市四倉町上仁井田字東山20番地", "url2": "https://www.kaigokensaku.mhlw.go.jp/07/index.php?action_kouhyou_detail_004_kani=true&JigyosyoCd=0770401172-00&ServiceCd=170&Type=search" }, "geometry": { "type": "Point", "coordinates": [ 140.983177, 37.0953498 ] } },
{ "type": "Feature", "properties": { "内容": "有限会社　菅野写真商会　介護事業部【福祉用具貸与】福島県いわき市平中神谷字六本榎17-1", "url2": "https://www.kaigokensaku.mhlw.go.jp/07/index.php?action_kouhyou_detail_004_kani=true&JigyosyoCd=0770403426-00&ServiceCd=170&Type=search" }, "geometry": { "type": "Point", "coordinates": [ 140.926068666978466, 37.063169644691079 ] } },
{ "type": "Feature", "properties": { "内容": "株式会社エヌジェイアイ　ケアヘルスいわき店【福祉用具貸与】福島県いわき市内郷御厩町字久世原256", "url2": "https://www.kaigokensaku.mhlw.go.jp/07/index.php?action_kouhyou_detail_004_kani=true&JigyosyoCd=0770403541-00&ServiceCd=170&Type=search" }, "geometry": { "type": "Point", "coordinates": [ 140.86849829999997, 37.0432364 ] } },
{ "type": "Feature", "properties": { "内容": "有限会社伊勢屋商店【福祉用具貸与】福島県いわき市植田町本町１丁目７番地の９", "url2": "https://www.kaigokensaku.mhlw.go.jp/07/index.php?action_kouhyou_detail_004_kani=true&JigyosyoCd=0770404275-00&ServiceCd=170&Type=search" }, "geometry": { "type": "Point", "coordinates": [ 140.797143, 36.9169309 ] } },
{ "type": "Feature", "properties": { "内容": "介護と福祉の店ホートク【福祉用具貸与】福島県いわき市内郷御台境町鶴巻３３－１", "url2": "https://www.kaigokensaku.mhlw.go.jp/07/index.php?action_kouhyou_detail_004_kani=true&JigyosyoCd=0773200787-00&ServiceCd=170&Type=search" }, "geometry": { "type": "Point", "coordinates": [ 140.869738899999987, 37.0507399 ] } },
{ "type": "Feature", "properties": { "内容": "有限会社　矢吹薬局介護部アルプ【福祉用具貸与】福島県いわき市佐糠町東一丁目10-9", "url2": "https://www.kaigokensaku.mhlw.go.jp/07/index.php?action_kouhyou_detail_004_kani=true&JigyosyoCd=0770401073-00&ServiceCd=170&Type=search" }, "geometry": { "type": "Point", "coordinates": [ 140.805646600000046, 36.9188762 ] } },
{ "type": "Feature", "properties": { "内容": "ケアカート・リンクル【福祉用具貸与】福島県いわき市平字東町９‐９", "url2": "https://www.kaigokensaku.mhlw.go.jp/07/index.php?action_kouhyou_detail_004_kani=true&JigyosyoCd=0770403384-00&ServiceCd=170&Type=search" }, "geometry": { "type": "Point", "coordinates": [ 140.90601259999994, 37.0541973 ] } },
{ "type": "Feature", "properties": { "内容": "スマイルケアサービス【福祉用具貸与】福島県いわき市内郷内町立町14－1", "url2": "https://www.kaigokensaku.mhlw.go.jp/07/index.php?action_kouhyou_detail_004_kani=true&JigyosyoCd=0770404911-00&ServiceCd=170&Type=search" }, "geometry": { "type": "Point", "coordinates": [ 140.851305499999967, 37.0373721 ] } },
{ "type": "Feature", "properties": { "内容": "介護サポートふじ【福祉用具貸与】福島県いわき市内郷高坂町四方木田１６６", "url2": "https://www.kaigokensaku.mhlw.go.jp/07/index.php?action_kouhyou_detail_004_kani=true&JigyosyoCd=0770409258-00&ServiceCd=170&Type=search" }, "geometry": { "type": "Point", "coordinates": [ 140.8643615, 37.0435334 ] } },
{ "type": "Feature", "properties": { "内容": "Needs【福祉用具貸与】福島県いわき市内郷綴町沼尻64", "url2": "https://www.kaigokensaku.mhlw.go.jp/07/index.php?action_kouhyou_detail_004_kani=true&JigyosyoCd=0770407328-00&ServiceCd=170&Type=search" }, "geometry": { "type": "Point", "coordinates": [ 140.861668099999946, 37.0387809 ] } },
{ "type": "Feature", "properties": { "内容": "株式会社べる・すぷーん【福祉用具貸与】福島県いわき市泉町一丁目21-12　MビルD", "url2": "https://www.kaigokensaku.mhlw.go.jp/07/index.php?action_kouhyou_detail_004_kani=true&JigyosyoCd=0770408938-00&ServiceCd=170&Type=search" }, "geometry": { "type": "Point", "coordinates": [ 140.85629320000001, 37.0077668 ] } },
{ "type": "Feature", "properties": { "内容": "株式会社トータルライフ・アネシス【福祉用具貸与】福島県いわき市小名浜下神白字館の腰5-1", "url2": "https://www.kaigokensaku.mhlw.go.jp/07/index.php?action_kouhyou_detail_004_kani=true&JigyosyoCd=0770404838-00&ServiceCd=170&Type=search" }, "geometry": { "type": "Point", "coordinates": [ 140.929163900000049, 36.9492002 ] } },
{ "type": "Feature", "properties": { "内容": "株式会社　ハッピーケア　いわき支店【福祉用具貸与】福島県いわき市内郷御厩町前田111", "url2": "https://www.kaigokensaku.mhlw.go.jp/07/index.php?action_kouhyou_detail_004_kani=true&JigyosyoCd=0770400125-00&ServiceCd=170&Type=search" }, "geometry": { "type": "Point", "coordinates": [ 140.8757829, 37.0493552 ] } },
{ "type": "Feature", "properties": { "内容": "株式会社　シンエイ　あっとほーむケア・サービス【福祉用具貸与】福島県いわき市泉町下川字八合52", "url2": "https://www.kaigokensaku.mhlw.go.jp/07/index.php?action_kouhyou_detail_004_kani=true&JigyosyoCd=0770401552-00&ServiceCd=170&Type=search" }, "geometry": { "type": "Point", "coordinates": [ 140.852271100000053, 36.9406569 ] } },
{ "type": "Feature", "properties": { "内容": "すいとぴー介護ステーション中央台【福祉用具貸与】福島県いわき市中央台飯野４－７－２", "url2": "https://www.kaigokensaku.mhlw.go.jp/07/index.php?action_kouhyou_detail_004_kani=true&JigyosyoCd=0770404861-00&ServiceCd=170&Type=search" }, "geometry": { "type": "Point", "coordinates": [ 140.92101839999998, 37.0166611 ] } },
{ "type": "Feature", "properties": { "内容": "ケアショップ　さくら工房【福祉用具貸与】福島県いわき市常磐湯本町天王崎１－１６６番地", "url2": "https://www.kaigokensaku.mhlw.go.jp/07/index.php?action_kouhyou_detail_004_kani=true&JigyosyoCd=0770405306-00&ServiceCd=170&Type=search" }, "geometry": { "type": "Point", "coordinates": [ 140.848148400000014, 37.0077444 ] } },
{ "type": "Feature", "properties": { "内容": "ホートク物産介護事業部【福祉用具貸与】福島県いわき市内郷御厩町上宿84", "url2": "https://www.kaigokensaku.mhlw.go.jp/07/index.php?action_kouhyou_detail_004_kani=true&JigyosyoCd=0770400182-00&ServiceCd=170&Type=search" }, "geometry": { "type": "Point", "coordinates": [ 140.874617441746949, 37.048530089004949 ] } },
{ "type": "Feature", "properties": { "内容": "Y’sコーポレーション合同会社　あさ陽　福祉用具【福祉用具貸与】福島県いわき市内郷高坂町桜井93-102ヒルトップ桜井　103号", "url2": "https://www.kaigokensaku.mhlw.go.jp/07/index.php?action_kouhyou_detail_004_kani=true&JigyosyoCd=0770406577-00&ServiceCd=170&Type=search" }, "geometry": { "type": "Point", "coordinates": [ 140.851954911120202, 37.043874717910008 ] } },
{ "type": "Feature", "properties": { "内容": "株式会社同仁社　ヘルスケア営業　いわき営業所【福祉用具貸与】福島県いわき市平塩字古川76-1", "url2": "https://www.kaigokensaku.mhlw.go.jp/07/index.php?action_kouhyou_detail_004_kani=true&JigyosyoCd=0770400539-00&ServiceCd=170&Type=search" }, "geometry": { "type": "Point", "coordinates": [ 140.915616699999987, 37.058708 ] } },
{ "type": "Feature", "properties": { "内容": "株式会社ＪＡライフクリエイト福島　介護福祉センターいわき【福祉用具貸与】福島県いわき市自由ヶ丘39番地の2", "url2": "https://www.kaigokensaku.mhlw.go.jp/07/index.php?action_kouhyou_detail_004_kani=true&JigyosyoCd=0770408359-00&ServiceCd=170&Type=search" }, "geometry": { "type": "Point", "coordinates": [ 140.895089802871667, 37.027256607330941 ] } },
{ "type": "Feature", "properties": { "内容": "カンナケア【福祉用具貸与】福島県いわき市小名浜住吉字飯塚2番地ー1", "url2": "https://www.kaigokensaku.mhlw.go.jp/07/index.php?action_kouhyou_detail_004_kani=true&JigyosyoCd=0770409662-00&ServiceCd=170&Type=search" }, "geometry": { "type": "Point", "coordinates": [ 140.8876218, 36.9785225 ] } },
{ "type": "Feature", "properties": { "内容": "クリナップキャリアサービス株式会社【福祉用具貸与】福島県いわき市四倉町細谷字江向６", "url2": "https://www.kaigokensaku.mhlw.go.jp/07/index.php?action_kouhyou_detail_004_kani=true&JigyosyoCd=0770400174-00&ServiceCd=170&Type=search" }, "geometry": { "type": "Point", "coordinates": [ 140.9661377, 37.0842982 ] } },
{ "type": "Feature", "properties": { "内容": "ダスキンヘルスレント　いわきステーション【福祉用具貸与】福島県いわき市郷ヶ丘二丁目４７－１", "url2": "https://www.kaigokensaku.mhlw.go.jp/07/index.php?action_kouhyou_detail_004_kani=true&JigyosyoCd=0770405447-00&ServiceCd=170&Type=search" }, "geometry": { "type": "Point", "coordinates": [ 140.903713599999946, 37.0243904 ] } },
{ "type": "Feature", "properties": { "内容": "福祉用具のケアパートナー【福祉用具貸与】福島県いわき市平鎌田町1の2", "url2": "https://www.kaigokensaku.mhlw.go.jp/07/index.php?action_kouhyou_detail_004_kani=true&JigyosyoCd=0770403681-00&ServiceCd=170&Type=search" }, "geometry": { "type": "Point", "coordinates": [ 140.902757685922211, 37.056888493763886 ] } },
{ "type": "Feature", "properties": { "内容": "株式会社　吉田家具店　福祉用具事業部【福祉用具貸与】福島県いわき市植田町中央２丁目1-1", "url2": "https://www.kaigokensaku.mhlw.go.jp/07/index.php?action_kouhyou_detail_004_kani=true&JigyosyoCd=0770405017-00&ServiceCd=170&Type=search" }, "geometry": { "type": "Point", "coordinates": [ 140.798691769975221, 36.920942461839367 ] } },
{ "type": "Feature", "properties": { "内容": "株式会社アルプスビジネスクリエーション　いわき営業所【福祉用具貸与】福島県いわき市小名浜住吉字不毛１３－５", "url2": "https://www.kaigokensaku.mhlw.go.jp/07/index.php?action_kouhyou_detail_004_kani=true&JigyosyoCd=0770407898-00&ServiceCd=170&Type=search" }, "geometry": { "type": "Point", "coordinates": [ 140.8835977, 36.9760704 ] } },
{ "type": "Feature", "properties": { "内容": "株式会社　セイダイ【福祉用具貸与】福島県いわき市小名浜岡小名2丁目3-1丹野ビル2F", "url2": "https://www.kaigokensaku.mhlw.go.jp/07/index.php?action_kouhyou_detail_004_kani=true&JigyosyoCd=0770408193-00&ServiceCd=170&Type=search" }, "geometry": { "type": "Point", "coordinates": [ 140.906768599999964, 36.9614983 ] } },
{ "type": "Feature", "properties": { "内容": "緑川産業白河メディカル【福祉用具貸与】福島県白河市明戸１５番地の３", "url2": "https://www.kaigokensaku.mhlw.go.jp/07/index.php?action_kouhyou_detail_004_kani=true&JigyosyoCd=0770500791-00&ServiceCd=170&Type=search" }, "geometry": { "type": "Point", "coordinates": [ 140.224344299999984, 37.1246959 ] } },
{ "type": "Feature", "properties": { "内容": "株式会社　ケアシスト【福祉用具貸与】福島県白河市会津町93-21", "url2": "https://www.kaigokensaku.mhlw.go.jp/07/index.php?action_kouhyou_detail_004_kani=true&JigyosyoCd=0770501435-00&ServiceCd=170&Type=search" }, "geometry": { "type": "Point", "coordinates": [ 140.208665, 37.130339 ] } },
{ "type": "Feature", "properties": { "内容": "トーモク株式会社　ホームケア事業部「ひまわりショップ」【福祉用具貸与】福島県白河市池下向山1-3", "url2": "https://www.kaigokensaku.mhlw.go.jp/07/index.php?action_kouhyou_detail_004_kani=true&JigyosyoCd=0770500064-00&ServiceCd=170&Type=search" }, "geometry": { "type": "Point", "coordinates": [ 140.223017300000038, 37.1052982 ] } },
{ "type": "Feature", "properties": { "内容": "株式会社あかね福祉　白河営業所【福祉用具貸与】福島県白河市旭町2丁目44", "url2": "https://www.kaigokensaku.mhlw.go.jp/07/index.php?action_kouhyou_detail_004_kani=true&JigyosyoCd=0770500213-00&ServiceCd=170&Type=search" }, "geometry": { "type": "Point", "coordinates": [ 140.2091706, 37.1283339 ] } },
{ "type": "Feature", "properties": { "内容": "株式会社いーらいふ白河店【福祉用具貸与】福島県白河市大森ノ内36-4", "url2": "https://www.kaigokensaku.mhlw.go.jp/07/index.php?action_kouhyou_detail_004_kani=true&JigyosyoCd=0770501021-00&ServiceCd=170&Type=search" }, "geometry": { "type": "Point", "coordinates": [ 140.239226499999972, 37.1240242 ] } },
{ "type": "Feature", "properties": { "内容": "オーセント株式会社【福祉用具貸与】新白河一丁目39思太田サンプラザ１０２", "url2": "https://www.kaigokensaku.mhlw.go.jp/07/index.php?action_kouhyou_detail_004_kani=true&JigyosyoCd=0770501427-00&ServiceCd=170&Type=search" }, "geometry": { "type": "Point", "coordinates": [ 140.192601700000012, 37.1235172 ] } },
{ "type": "Feature", "properties": { "内容": "有限会社　渋川屋【福祉用具貸与】福島県須賀川市守谷舘１４－１", "url2": "https://www.kaigokensaku.mhlw.go.jp/07/index.php?action_kouhyou_detail_004_kani=true&JigyosyoCd=0770700094-00&ServiceCd=170&Type=search" }, "geometry": { "type": "Point", "coordinates": [ 140.376907, 37.2933906 ] } },
{ "type": "Feature", "properties": { "内容": "株式会社　福永福祉用具貸与事業所（株式会社福永介護予防福祉用具貸与事業所）【福祉用具貸与】福島県須賀川市牛袋町123-1", "url2": "https://www.kaigokensaku.mhlw.go.jp/07/index.php?action_kouhyou_detail_004_kani=true&JigyosyoCd=0770700797-00&ServiceCd=170&Type=search" }, "geometry": { "type": "Point", "coordinates": [ 140.354756100000031, 37.2924627 ] } },
{ "type": "Feature", "properties": { "内容": "株式会社アピックス介護事業部【福祉用具貸与】福島県須賀川市森宿字ヒジリ田５４－４", "url2": "https://www.kaigokensaku.mhlw.go.jp/07/index.php?action_kouhyou_detail_004_kani=true&JigyosyoCd=0770700300-00&ServiceCd=170&Type=search" }, "geometry": { "type": "Point", "coordinates": [ 140.3658292, 37.3124163 ] } },
{ "type": "Feature", "properties": { "内容": "株式会社エヌジェイアイ　ケアヘルス須賀川店【福祉用具貸与】福島県須賀川市森宿字辰根沢61-11", "url2": "https://www.kaigokensaku.mhlw.go.jp/07/index.php?action_kouhyou_detail_004_kani=true&JigyosyoCd=0770700847-00&ServiceCd=170&Type=search" }, "geometry": { "type": "Point", "coordinates": [ 140.358685400000013, 37.3124746 ] } },
{ "type": "Feature", "properties": { "内容": "有限会社　介護福太郎喜多方営業所【福祉用具貸与】福島県喜多方市関柴町西勝字井戸尻48-2", "url2": "https://www.kaigokensaku.mhlw.go.jp/07/index.php?action_kouhyou_detail_004_kani=true&JigyosyoCd=0770800837-00&ServiceCd=170&Type=search" }, "geometry": { "type": "Point", "coordinates": [ 139.88977460000001, 37.6337687 ] } },
{ "type": "Feature", "properties": { "内容": "温かいご事業部【福祉用具貸与】福島県相馬市中村字大町35-1", "url2": "https://www.kaigokensaku.mhlw.go.jp/07/index.php?action_kouhyou_detail_004_kani=true&JigyosyoCd=0770900710-00&ServiceCd=170&Type=search" }, "geometry": { "type": "Point", "coordinates": [ 140.921011815344229, 37.797675221217325 ] } },
{ "type": "Feature", "properties": { "内容": "アルプスビジネスクリエーション相馬営業所【福祉用具貸与】福島県相馬市沖ノ内一丁目２番地の１", "url2": "https://www.kaigokensaku.mhlw.go.jp/07/index.php?action_kouhyou_detail_004_kani=true&JigyosyoCd=0770900546-00&ServiceCd=170&Type=search" }, "geometry": { "type": "Point", "coordinates": [ 140.925754610381347, 37.804949073316095 ] } },
{ "type": "Feature", "properties": { "内容": "陽だまりの郷ケアステーション【福祉用具貸与】福島県二本松市表2丁目775", "url2": "https://www.kaigokensaku.mhlw.go.jp/07/index.php?action_kouhyou_detail_004_kani=true&JigyosyoCd=0771000510-00&ServiceCd=170&Type=search" }, "geometry": { "type": "Point", "coordinates": [ 140.443558, 37.603581299999981 ] } },
{ "type": "Feature", "properties": { "内容": "有限会社箱崎商店【福祉用具貸与】福島県田村市船引町船引字畑添６６番地", "url2": "https://www.kaigokensaku.mhlw.go.jp/07/index.php?action_kouhyou_detail_004_kani=true&JigyosyoCd=0773100300-00&ServiceCd=170&Type=search" }, "geometry": { "type": "Point", "coordinates": [ 140.576932296329886, 37.439898036406326 ] } },
{ "type": "Feature", "properties": { "内容": "株式会社　イーライフたむら【福祉用具貸与】福島県田村市常葉町西向字叶内5番地11", "url2": "https://www.kaigokensaku.mhlw.go.jp/07/index.php?action_kouhyou_detail_004_kani=true&JigyosyoCd=0771100260-00&ServiceCd=170&Type=search" }, "geometry": { "type": "Point", "coordinates": [ 140.611397718766852, 37.442225562384721 ] } },
{ "type": "Feature", "properties": { "内容": "ＪＡ福島さくら　たむらふれあいセンター【福祉用具貸与】福島県田村市船引町船引字南町通160番地", "url2": "https://www.kaigokensaku.mhlw.go.jp/07/index.php?action_kouhyou_detail_004_kani=true&JigyosyoCd=0771100351-00&ServiceCd=170&Type=search" }, "geometry": { "type": "Point", "coordinates": [ 140.541381900000033, 37.410216600000012 ] } },
{ "type": "Feature", "properties": { "内容": "合同会社くるみ【福祉用具貸与】福島県南相馬市鹿島区鹿島字御前ノ内54", "url2": "https://www.kaigokensaku.mhlw.go.jp/07/index.php?action_kouhyou_detail_004_kani=true&JigyosyoCd=0771200466-00&ServiceCd=170&Type=search" }, "geometry": { "type": "Point", "coordinates": [ 140.9693289, 37.7016258 ] } },
{ "type": "Feature", "properties": { "内容": "まめや福祉用具レンタル・販売部【福祉用具貸与】福島県南相馬市原町区南町一丁目133番地", "url2": "https://www.kaigokensaku.mhlw.go.jp/07/index.php?action_kouhyou_detail_004_kani=true&JigyosyoCd=0771200755-00&ServiceCd=170&Type=search" }, "geometry": { "type": "Point", "coordinates": [ 140.959159199999988, 37.6369052 ] } },
{ "type": "Feature", "properties": { "内容": "相馬の里ケアサプライ【福祉用具貸与】福島県南相馬市原町区旭町１丁目１０", "url2": "https://www.kaigokensaku.mhlw.go.jp/07/index.php?action_kouhyou_detail_004_kani=true&JigyosyoCd=0771200672-00&ServiceCd=170&Type=search" }, "geometry": { "type": "Point", "coordinates": [ 140.966740295106518, 37.638287512591347 ] } },
{ "type": "Feature", "properties": { "内容": "合資会社　共和木工所【福祉用具貸与】福島県南相馬市原町区旭町1-3", "url2": "https://www.kaigokensaku.mhlw.go.jp/07/index.php?action_kouhyou_detail_004_kani=true&JigyosyoCd=0770600278-00&ServiceCd=170&Type=search" }, "geometry": { "type": "Point", "coordinates": [ 140.965730600000029, 37.6385308 ] } },
{ "type": "Feature", "properties": { "内容": "緑ヶ丘パートナー【福祉用具貸与】福島県南相馬市原町区牛越字高田22-1", "url2": "https://www.kaigokensaku.mhlw.go.jp/07/index.php?action_kouhyou_detail_004_kani=true&JigyosyoCd=0771200540-00&ServiceCd=170&Type=search" }, "geometry": { "type": "Point", "coordinates": [ 140.944012775475557, 37.640801816843549 ] } },
{ "type": "Feature", "properties": { "内容": "株式会社すさ家具店【福祉用具貸与】福島県南相馬市鹿島区鹿島字町140番地", "url2": "https://www.kaigokensaku.mhlw.go.jp/07/index.php?action_kouhyou_detail_004_kani=true&JigyosyoCd=0771200169-00&ServiceCd=170&Type=search" }, "geometry": { "type": "Point", "coordinates": [ 140.96649530000002, 37.7032712 ] } },
{ "type": "Feature", "properties": { "内容": "株式会社ハッピーケア　原町支店【福祉用具貸与】福島県南相馬市原町区錦町2丁目67-32", "url2": "https://www.kaigokensaku.mhlw.go.jp/07/index.php?action_kouhyou_detail_004_kani=true&JigyosyoCd=0770600401-00&ServiceCd=170&Type=search" }, "geometry": { "type": "Point", "coordinates": [ 140.972707801852351, 37.641122144749673 ] } },
{ "type": "Feature", "properties": { "内容": "ホームケアプラス・福きたる【福祉用具貸与】福島県伊達市霊山町掛田字中町13-2", "url2": "https://www.kaigokensaku.mhlw.go.jp/07/index.php?action_kouhyou_detail_004_kani=true&JigyosyoCd=0771300902-00&ServiceCd=170&Type=search" }, "geometry": { "type": "Point", "coordinates": [ 140.5941968, 37.7827066 ] } },
{ "type": "Feature", "properties": { "内容": "株式会社　同仁社　ヘルスケア伊達【福祉用具貸与】福島県伊達市岡沼22番地", "url2": "https://www.kaigokensaku.mhlw.go.jp/07/index.php?action_kouhyou_detail_004_kani=true&JigyosyoCd=0772000816-00&ServiceCd=170&Type=search" }, "geometry": { "type": "Point", "coordinates": [ 140.5117616, 37.8252782 ] } },
{ "type": "Feature", "properties": { "内容": "ケアサービス「もりえの」【福祉用具貸与】福島県伊達市梁川町広瀬町158番地", "url2": "https://www.kaigokensaku.mhlw.go.jp/07/index.php?action_kouhyou_detail_004_kani=true&JigyosyoCd=0771300670-00&ServiceCd=170&Type=search" }, "geometry": { "type": "Point", "coordinates": [ 140.602762, 37.8512003 ] } },
{ "type": "Feature", "properties": { "内容": "東京インテリアＭＳ福島【福祉用具貸与】福島県本宮市荒井字清水１９－１", "url2": "https://www.kaigokensaku.mhlw.go.jp/07/index.php?action_kouhyou_detail_004_kani=true&JigyosyoCd=0771400207-00&ServiceCd=170&Type=search" }, "geometry": { "type": "Point", "coordinates": [ 140.3787542, 37.4791122 ] } },
{ "type": "Feature", "properties": { "内容": "株式会社福島ひかりのくに【福祉用具貸与】福島県伊達郡川俣町字日和田6", "url2": "https://www.kaigokensaku.mhlw.go.jp/07/index.php?action_kouhyou_detail_004_kani=true&JigyosyoCd=0772000428-00&ServiceCd=170&Type=search" }, "geometry": { "type": "Point", "coordinates": [ 140.6008454, 37.6629828 ] } },
{ "type": "Feature", "properties": { "内容": "介護ショップみうら【福祉用具貸与】福島県伊達郡川俣町字瓦町47", "url2": "https://www.kaigokensaku.mhlw.go.jp/07/index.php?action_kouhyou_detail_004_kani=true&JigyosyoCd=0772001186-00&ServiceCd=170&Type=search" }, "geometry": { "type": "Point", "coordinates": [ 140.602971300000036, 37.6671247 ] } },
{ "type": "Feature", "properties": { "内容": "有限会社あんしん【福祉用具貸与】福島県伊達郡川俣町大字鶴沢字伊豆後46-5", "url2": "https://www.kaigokensaku.mhlw.go.jp/07/index.php?action_kouhyou_detail_004_kani=true&JigyosyoCd=0772000808-00&ServiceCd=170&Type=search" }, "geometry": { "type": "Point", "coordinates": [ 140.588221598846076, 37.665676315186381 ] } },
{ "type": "Feature", "properties": { "内容": "株式会社ヤエザキ鏡石営業所【福祉用具貸与】福島県岩瀬郡鏡石町不時沼66-7", "url2": "https://www.kaigokensaku.mhlw.go.jp/07/index.php?action_kouhyou_detail_004_kani=true&JigyosyoCd=0772200317-00&ServiceCd=170&Type=search" }, "geometry": { "type": "Point", "coordinates": [ 140.3484556, 37.2581608 ] } },
{ "type": "Feature", "properties": { "内容": "株式会社　いーらいふ【福祉用具貸与】福島県岩瀬郡鏡石町中町426番地2", "url2": "https://www.kaigokensaku.mhlw.go.jp/07/index.php?action_kouhyou_detail_004_kani=true&JigyosyoCd=0772200218-00&ServiceCd=170&Type=search" }, "geometry": { "type": "Point", "coordinates": [ 140.343669686616039, 37.249052483244952 ] } },
{ "type": "Feature", "properties": { "内容": "介護ショップ　和楽【福祉用具貸与】福島県南会津郡南会津町田島字西町甲4370", "url2": "https://www.kaigokensaku.mhlw.go.jp/07/index.php?action_kouhyou_detail_004_kani=true&JigyosyoCd=0772300778-00&ServiceCd=170&Type=search" }, "geometry": { "type": "Point", "coordinates": [ 139.765583150926233, 37.203282754471466 ] } },
{ "type": "Feature", "properties": { "内容": "有限会社　聖光【福祉用具貸与】福島県南会津郡南会津町田島字大坪15", "url2": "https://www.kaigokensaku.mhlw.go.jp/07/index.php?action_kouhyou_detail_004_kani=true&JigyosyoCd=0772300364-00&ServiceCd=170&Type=search" }, "geometry": { "type": "Point", "coordinates": [ 139.7731708, 37.2050775 ] } },
{ "type": "Feature", "properties": { "内容": "家具のくりはし【福祉用具貸与】福島県南会津郡南会津町田島字田部原１０８－２", "url2": "https://www.kaigokensaku.mhlw.go.jp/07/index.php?action_kouhyou_detail_004_kani=true&JigyosyoCd=0772300505-00&ServiceCd=170&Type=search" }, "geometry": { "type": "Point", "coordinates": [ 139.801939700000048, 37.2115804 ] } },
{ "type": "Feature", "properties": { "内容": "介護サポートセンターさくら【福祉用具貸与】福島県南会津郡南会津町松戸原２２３番地", "url2": "https://www.kaigokensaku.mhlw.go.jp/07/index.php?action_kouhyou_detail_004_kani=true&JigyosyoCd=0772300596-00&ServiceCd=170&Type=search" }, "geometry": { "type": "Point", "coordinates": [ 139.533487199999968, 37.0933447 ] } },
{ "type": "Feature", "properties": { "内容": "有限会社　ヤマニ医療商会【福祉用具貸与】福島県河沼郡会津坂下町大字五香字道下208", "url2": "https://www.kaigokensaku.mhlw.go.jp/07/index.php?action_kouhyou_detail_004_kani=true&JigyosyoCd=0772600060-00&ServiceCd=170&Type=search" }, "geometry": { "type": "Point", "coordinates": [ 139.853583699999945, 37.5672589 ] } },
{ "type": "Feature", "properties": { "内容": "会津リハビリ機器【福祉用具貸与】福島県大沼郡会津美里町冨川字上中川３１６", "url2": "https://www.kaigokensaku.mhlw.go.jp/07/index.php?action_kouhyou_detail_004_kani=true&JigyosyoCd=0772700571-00&ServiceCd=170&Type=search" }, "geometry": { "type": "Point", "coordinates": [ 139.835416, 37.4433119 ] } },
{ "type": "Feature", "properties": { "内容": "有限会社塩田呉服店【福祉用具貸与】福島県大沼郡会津美里町字高田甲2764", "url2": "https://www.kaigokensaku.mhlw.go.jp/07/index.php?action_kouhyou_detail_004_kani=true&JigyosyoCd=0772700191-00&ServiceCd=170&Type=search" }, "geometry": { "type": "Point", "coordinates": [ 139.838053100000025, 37.4595037 ] } },
{ "type": "Feature", "properties": { "内容": "有限会社　　　　　アイミーサービス【福祉用具貸与】福島県西白河郡西郷村字石塚北９７", "url2": "https://www.kaigokensaku.mhlw.go.jp/07/index.php?action_kouhyou_detail_004_kani=true&JigyosyoCd=0772800397-00&ServiceCd=170&Type=search" }, "geometry": { "type": "Point", "coordinates": [ 140.178126300000031, 37.1238449 ] } },
{ "type": "Feature", "properties": { "内容": "株式会社　同仁社　ヘルスケア営業部　白河営業所【福祉用具貸与】福島県西白河郡西郷村屋敷裏東16番地誠和オフィスビル1F", "url2": "https://www.kaigokensaku.mhlw.go.jp/07/index.php?action_kouhyou_detail_004_kani=true&JigyosyoCd=0772800850-00&ServiceCd=170&Type=search" }, "geometry": { "type": "Point", "coordinates": [ 140.183928499999979, 37.1264613 ] } },
{ "type": "Feature", "properties": { "内容": "株式会社　しらかわ技術　サポート事業所【福祉用具貸与】福島県西白河郡矢吹町八幡町２７", "url2": "https://www.kaigokensaku.mhlw.go.jp/07/index.php?action_kouhyou_detail_004_kani=true&JigyosyoCd=0772800777-00&ServiceCd=170&Type=search" }, "geometry": { "type": "Point", "coordinates": [ 140.3271042, 37.198439 ] } },
{ "type": "Feature", "properties": { "内容": "東西しらかわ農業協同組合いきいき福祉センター【福祉用具貸与】福島県東白川郡棚倉町大字流字中豊８８", "url2": "https://www.kaigokensaku.mhlw.go.jp/07/index.php?action_kouhyou_detail_004_kani=true&JigyosyoCd=0772900304-00&ServiceCd=170&Type=search" }, "geometry": { "type": "Point", "coordinates": [ 140.39460859999997, 37.0185571 ] } },
{ "type": "Feature", "properties": { "内容": "介護用品の店　あい・うぇる【福祉用具貸与】福島県石川郡石川町大橋84-4", "url2": "https://www.kaigokensaku.mhlw.go.jp/07/index.php?action_kouhyou_detail_004_kani=true&JigyosyoCd=0773000468-00&ServiceCd=170&Type=search" }, "geometry": { "type": "Point", "coordinates": [ 140.4315911, 37.1664757 ] } },
{ "type": "Feature", "properties": { "内容": "有限会社アドホック【福祉用具貸与】福島県石川郡石川町双里字赤沼３", "url2": "https://www.kaigokensaku.mhlw.go.jp/07/index.php?action_kouhyou_detail_004_kani=true&JigyosyoCd=0773000252-00&ServiceCd=170&Type=search" }, "geometry": { "type": "Point", "coordinates": [ 140.465005196604011, 37.147906737224126 ] } },
{ "type": "Feature", "properties": { "内容": "JA夢みなみ　福祉センターいしかわ福祉用具事業所【福祉用具貸与】福島県石川郡石川町大字双里字神主17番地", "url2": "https://www.kaigokensaku.mhlw.go.jp/07/index.php?action_kouhyou_detail_004_kani=true&JigyosyoCd=0773000559-00&ServiceCd=170&Type=search" }, "geometry": { "type": "Point", "coordinates": [ 140.4765744, 37.1468995 ] } },
{ "type": "Feature", "properties": { "内容": "株式会社トータルケア【福祉用具貸与】福島県石川郡古殿町松川字横川202", "url2": "https://www.kaigokensaku.mhlw.go.jp/07/index.php?action_kouhyou_detail_004_kani=true&JigyosyoCd=0773000492-00&ServiceCd=170&Type=search" }, "geometry": { "type": "Point", "coordinates": [ 140.562473400000044, 37.0858625 ] } },
{ "type": "Feature", "properties": { "内容": "ケア・サポートみなみ【福祉用具貸与】福島県田村郡三春町南町71番地", "url2": "https://www.kaigokensaku.mhlw.go.jp/07/index.php?action_kouhyou_detail_004_kani=true&JigyosyoCd=0773100698-00&ServiceCd=170&Type=search" }, "geometry": { "type": "Point", "coordinates": [ 140.495507099999941, 37.4397839 ] } },
{ "type": "Feature", "properties": { "内容": "株式会社リフレクシダ【福祉用具貸与】福島県田村郡小野町大字小野新町字中通１番地", "url2": "https://www.kaigokensaku.mhlw.go.jp/07/index.php?action_kouhyou_detail_004_kani=true&JigyosyoCd=0773100292-00&ServiceCd=170&Type=search" }, "geometry": { "type": "Point", "coordinates": [ 140.632835, 37.2785905 ] } },
{ "type": "Feature", "properties": { "内容": "株式会社　倉伸　介護ウェルビーイング事業所【福祉用具貸与】福島県双葉郡大熊町大字熊字新町７２５番地（仮設）福島県田村市船引町永谷字平２１７－１", "url2": "https://www.kaigokensaku.mhlw.go.jp/07/index.php?action_kouhyou_detail_004_kani=true&JigyosyoCd=0773200498-00&ServiceCd=170&Type=search" }, "geometry": { "type": "Point", "coordinates": [ 141.003508, 37.3956158 ] } }
]
}
