{
"type": "FeatureCollection",
"name": "geo_07_地域密着型介護老人福祉施設入所者生活介護",
"crs": { "type": "name", "properties": { "name": "urn:ogc:def:crs:OGC:1.3:CRS84" } },
"features": [
{ "type": "Feature", "properties": { "内容": "特別養護老人ホームさわやかアイリス【地域密着型介護老人福祉施設入所者生活介護】福島市在庭坂字志津山６番地の１", "url2": "https://www.kaigokensaku.mhlw.go.jp/07/index.php?action_kouhyou_detail_004_kani=true&JigyosyoCd=0790100358-00&ServiceCd=540&Type=search" }, "geometry": { "type": "Point", "coordinates": [ 140.366511299999956, 37.75974 ] } },
{ "type": "Feature", "properties": { "内容": "特別養護老人ホーム　万葉の郷【地域密着型介護老人福祉施設入所者生活介護】福島県福島市松川町字南諏訪原6番地の４", "url2": "https://www.kaigokensaku.mhlw.go.jp/07/index.php?action_kouhyou_detail_004_kani=true&JigyosyoCd=0790100259-00&ServiceCd=540&Type=search" }, "geometry": { "type": "Point", "coordinates": [ 140.465930800000024, 37.6554032 ] } },
{ "type": "Feature", "properties": { "内容": "特別養護老人ホーム　あたみホーム【地域密着型介護老人福祉施設入所者生活介護】福島県郡山市熱海町玉川字阿曽沢1番地30", "url2": "https://www.kaigokensaku.mhlw.go.jp/07/index.php?action_kouhyou_detail_004_kani=true&JigyosyoCd=0790300347-00&ServiceCd=540&Type=search" }, "geometry": { "type": "Point", "coordinates": [ 140.285437900000034, 37.48349 ] } },
{ "type": "Feature", "properties": { "内容": "地域密着型特別養護老人ホーム　ハーモニーみどりヶ丘ヴェール【地域密着型介護老人福祉施設入所者生活介護】福島県郡山市緑ヶ丘東六丁目26番地6", "url2": "https://www.kaigokensaku.mhlw.go.jp/07/index.php?action_kouhyou_detail_004_kani=true&JigyosyoCd=0790300495-00&ServiceCd=540&Type=search" }, "geometry": { "type": "Point", "coordinates": [ 140.439388492590325, 37.38420240741533 ] } },
{ "type": "Feature", "properties": { "内容": "特別養護老人ホーム玉川ホーム【地域密着型介護老人福祉施設入所者生活介護】福島県郡山市熱海町玉川字阿曽沢１１番地１", "url2": "https://www.kaigokensaku.mhlw.go.jp/07/index.php?action_kouhyou_detail_004_kani=true&JigyosyoCd=0790300354-00&ServiceCd=540&Type=search" }, "geometry": { "type": "Point", "coordinates": [ 140.286326700000018, 37.482779 ] } },
{ "type": "Feature", "properties": { "内容": "地域密着型特別養護老人ホーム　逢瀬町ただの紀行【地域密着型介護老人福祉施設入所者生活介護】福島県郡山市逢瀬町多田野字山田原８番地1", "url2": "https://www.kaigokensaku.mhlw.go.jp/07/index.php?action_kouhyou_detail_004_kani=true&JigyosyoCd=0790300842-00&ServiceCd=540&Type=search" }, "geometry": { "type": "Point", "coordinates": [ 140.246134261624093, 37.392637943252247 ] } },
{ "type": "Feature", "properties": { "内容": "地域密着型特別養護老人ホーム　うねめの里はるひめ【地域密着型介護老人福祉施設入所者生活介護】福島県郡山市片平町字妙見舘10番地1", "url2": "https://www.kaigokensaku.mhlw.go.jp/07/index.php?action_kouhyou_detail_004_kani=true&JigyosyoCd=0790300560-00&ServiceCd=540&Type=search" }, "geometry": { "type": "Point", "coordinates": [ 140.31653042444529, 37.434881147957206 ] } },
{ "type": "Feature", "properties": { "内容": "地域密着型特別養護老人ホーム　第二笑風苑【地域密着型介護老人福祉施設入所者生活介護】福島県郡山市喜久田町字菖蒲池６－１", "url2": "https://www.kaigokensaku.mhlw.go.jp/07/index.php?action_kouhyou_detail_004_kani=true&JigyosyoCd=0790300230-00&ServiceCd=540&Type=search" }, "geometry": { "type": "Point", "coordinates": [ 140.339356800000019, 37.4350919 ] } },
{ "type": "Feature", "properties": { "内容": "地域密着型介護老人福祉施設せんしょう苑【地域密着型介護老人福祉施設入所者生活介護】福島県いわき市内郷御厩町四丁目８２番地の１", "url2": "https://www.kaigokensaku.mhlw.go.jp/07/index.php?action_kouhyou_detail_004_kani=true&JigyosyoCd=0790400568-00&ServiceCd=540&Type=search" }, "geometry": { "type": "Point", "coordinates": [ 140.876577200000042, 37.05158 ] } },
{ "type": "Feature", "properties": { "内容": "地域密着型特別養護老人ホーム　はなまるファミリア【地域密着型介護老人福祉施設入所者生活介護】福島県いわき市平上荒川字林作203番1", "url2": "https://www.kaigokensaku.mhlw.go.jp/07/index.php?action_kouhyou_detail_004_kani=true&JigyosyoCd=0790400758-00&ServiceCd=540&Type=search" }, "geometry": { "type": "Point", "coordinates": [ 140.878861699632949, 37.025151319614707 ] } },
{ "type": "Feature", "properties": { "内容": "地域密着型特別養護老人ホームゆ・の・あ【地域密着型介護老人福祉施設入所者生活介護】福島県いわき市勿来町白米酒井原116番1地域密着型特別養護老人ホームゆ・の・あ", "url2": "https://www.kaigokensaku.mhlw.go.jp/07/index.php?action_kouhyou_detail_004_kani=true&JigyosyoCd=0790400717-00&ServiceCd=540&Type=search" }, "geometry": { "type": "Point", "coordinates": [ 140.742302325100667, 36.895895968353429 ] } },
{ "type": "Feature", "properties": { "内容": "地域密着型特別養護老人ホーム　しんせつ館ゆもと【地域密着型介護老人福祉施設入所者生活介護】福島県いわき市常磐湯本町日渡74番地の13", "url2": "https://www.kaigokensaku.mhlw.go.jp/07/index.php?action_kouhyou_detail_004_kani=true&JigyosyoCd=0790400543-00&ServiceCd=540&Type=search" }, "geometry": { "type": "Point", "coordinates": [ 140.840657400000026, 37.0178126 ] } },
{ "type": "Feature", "properties": { "内容": "地域密着型特別養護老人ホーム　りゅうじん【地域密着型介護老人福祉施設入所者生活介護】福島県いわき市洋向台一丁目３９番地２", "url2": "https://www.kaigokensaku.mhlw.go.jp/07/index.php?action_kouhyou_detail_004_kani=true&JigyosyoCd=0790400725-00&ServiceCd=540&Type=search" }, "geometry": { "type": "Point", "coordinates": [ 140.939806800000042, 36.9687679 ] } },
{ "type": "Feature", "properties": { "内容": "地域密着型特別養護老人ホーム　サンシャインよしま【地域密着型介護老人福祉施設入所者生活介護】福島県いわき市好間町北好間字外川原33番地の1", "url2": "https://www.kaigokensaku.mhlw.go.jp/07/index.php?action_kouhyou_detail_004_kani=true&JigyosyoCd=0790400592-00&ServiceCd=540&Type=search" }, "geometry": { "type": "Point", "coordinates": [ 140.856632417196693, 37.064980441656616 ] } },
{ "type": "Feature", "properties": { "内容": "地域密着型特別養護老人ホーム　ひなた【地域密着型介護老人福祉施設入所者生活介護】福島県いわき市明治団地１２－１９", "url2": "https://www.kaigokensaku.mhlw.go.jp/07/index.php?action_kouhyou_detail_004_kani=true&JigyosyoCd=0790400741-00&ServiceCd=540&Type=search" }, "geometry": { "type": "Point", "coordinates": [ 140.890454831282767, 37.042403213573095 ] } },
{ "type": "Feature", "properties": { "内容": "地域密着型特別養護老人ホーム　寿楽【地域密着型介護老人福祉施設入所者生活介護】福島県いわき市泉町本谷字大田7-1", "url2": "https://www.kaigokensaku.mhlw.go.jp/07/index.php?action_kouhyou_detail_004_kani=true&JigyosyoCd=0790400733-00&ServiceCd=540&Type=search" }, "geometry": { "type": "Point", "coordinates": [ 140.8705923, 36.967271 ] } },
{ "type": "Feature", "properties": { "内容": "せいざん荘西山館【地域密着型介護老人福祉施設入所者生活介護】福島県いわき市山田町西山４４", "url2": "https://www.kaigokensaku.mhlw.go.jp/07/index.php?action_kouhyou_detail_004_kani=true&JigyosyoCd=0790400311-00&ServiceCd=540&Type=search" }, "geometry": { "type": "Point", "coordinates": [ 140.76604640000005, 36.9463752 ] } },
{ "type": "Feature", "properties": { "内容": "地域密着型特別養護老人ホームパライソサンクス【地域密着型介護老人福祉施設入所者生活介護】福島県いわき市鹿島町久保字山崎12-5", "url2": "https://www.kaigokensaku.mhlw.go.jp/07/index.php?action_kouhyou_detail_004_kani=true&JigyosyoCd=0790400584-00&ServiceCd=540&Type=search" }, "geometry": { "type": "Point", "coordinates": [ 140.908761899999945, 36.990881 ] } },
{ "type": "Feature", "properties": { "内容": "地域密着型特別養護老人ホームにじの郷【地域密着型介護老人福祉施設入所者生活介護】福島県いわき市小名浜岡小名字山ノ神27番1地域密着型特別養護老人ホームにじの郷", "url2": "https://www.kaigokensaku.mhlw.go.jp/07/index.php?action_kouhyou_detail_004_kani=true&JigyosyoCd=0790400964-00&ServiceCd=540&Type=search" }, "geometry": { "type": "Point", "coordinates": [ 140.91004410000005, 36.9704792 ] } },
{ "type": "Feature", "properties": { "内容": "特別養護老人ホーム　ハッピーランドあいかわ【地域密着型介護老人福祉施設入所者生活介護】福島県喜多方市山都町相川字鶴巻田甲978-4", "url2": "https://www.kaigokensaku.mhlw.go.jp/07/index.php?action_kouhyou_detail_004_kani=true&JigyosyoCd=0790800064-00&ServiceCd=540&Type=search" }, "geometry": { "type": "Point", "coordinates": [ 139.793508821426371, 37.679255317147032 ] } },
{ "type": "Feature", "properties": { "内容": "特別養護老人ホーム　ハッピーランドやまと南館【地域密着型介護老人福祉施設入所者生活介護】福島県喜多方市山都町木幡字下村道下丁1570-2特別養護老人ホーム　ハッピーランドやまと南館", "url2": "https://www.kaigokensaku.mhlw.go.jp/07/index.php?action_kouhyou_detail_004_kani=true&JigyosyoCd=0790800106-00&ServiceCd=540&Type=search" }, "geometry": { "type": "Point", "coordinates": [ 139.775440500000059, 37.6543683 ] } },
{ "type": "Feature", "properties": { "内容": "地域密着型特別養護老人ホーム　ハッピー愛ランド　あだち【地域密着型介護老人福祉施設入所者生活介護】福島県二本松市油井字下中ノ内33番地2", "url2": "https://www.kaigokensaku.mhlw.go.jp/07/index.php?action_kouhyou_detail_004_kani=true&JigyosyoCd=0791000128-00&ServiceCd=540&Type=search" }, "geometry": { "type": "Point", "coordinates": [ 140.467074599999933, 37.6111973 ] } },
{ "type": "Feature", "properties": { "内容": "地域密着型特別養護老人ホームサテライト花音【地域密着型介護老人福祉施設入所者生活介護】福島県田村市船引町船引字下大平93番地", "url2": "https://www.kaigokensaku.mhlw.go.jp/07/index.php?action_kouhyou_detail_004_kani=true&JigyosyoCd=0791100084-00&ServiceCd=540&Type=search" }, "geometry": { "type": "Point", "coordinates": [ 140.570044462620388, 37.446670047229887 ] } },
{ "type": "Feature", "properties": { "内容": "特別養護老人ホーム長寿荘【地域密着型介護老人福祉施設入所者生活介護】福島県南相馬市原町区小川町409番地", "url2": "https://www.kaigokensaku.mhlw.go.jp/07/index.php?action_kouhyou_detail_004_kani=true&JigyosyoCd=0791200074-00&ServiceCd=540&Type=search" }, "geometry": { "type": "Point", "coordinates": [ 140.96099403201606, 37.648262975877962 ] } },
{ "type": "Feature", "properties": { "内容": "地域密着型特別養護老人ホームとみのホーム【地域密着型介護老人福祉施設入所者生活介護】福島県伊達市梁川町舟生字沢口20", "url2": "https://www.kaigokensaku.mhlw.go.jp/07/index.php?action_kouhyou_detail_004_kani=true&JigyosyoCd=0791300270-00&ServiceCd=540&Type=search" }, "geometry": { "type": "Point", "coordinates": [ 140.626584298286446, 37.871492519813891 ] } },
{ "type": "Feature", "properties": { "内容": "ハッピー愛ランドほばら・いずみ【地域密着型介護老人福祉施設入所者生活介護】福島県伊達市保原町字泉町9番地1", "url2": "https://www.kaigokensaku.mhlw.go.jp/07/index.php?action_kouhyou_detail_004_kani=true&JigyosyoCd=0791300213-00&ServiceCd=540&Type=search" }, "geometry": { "type": "Point", "coordinates": [ 140.546306499999986, 37.824318 ] } },
{ "type": "Feature", "properties": { "内容": "特別養護老人ホーム　国見の杜【地域密着型介護老人福祉施設入所者生活介護】福島県伊達郡国見町小坂南３番地", "url2": "https://www.kaigokensaku.mhlw.go.jp/07/index.php?action_kouhyou_detail_004_kani=true&JigyosyoCd=0792000044-00&ServiceCd=540&Type=search" }, "geometry": { "type": "Point", "coordinates": [ 140.5281354, 37.8879865 ] } },
{ "type": "Feature", "properties": { "内容": "特別養護老人ホームはなづか【地域密着型介護老人福祉施設入所者生活介護】福島県伊達郡川俣町字五百田20-1", "url2": "https://www.kaigokensaku.mhlw.go.jp/07/index.php?action_kouhyou_detail_004_kani=true&JigyosyoCd=0792020026-00&ServiceCd=540&Type=search" }, "geometry": { "type": "Point", "coordinates": [ 140.599116099999947, 37.6659941 ] } },
{ "type": "Feature", "properties": { "内容": "地域密着型特別養護老人ホーム　いなわしろホーム【地域密着型介護老人福祉施設入所者生活介護】福島県耶麻郡猪苗代町大字三郷字寺南7962番地1", "url2": "https://www.kaigokensaku.mhlw.go.jp/07/index.php?action_kouhyou_detail_004_kani=true&JigyosyoCd=0792530057-00&ServiceCd=540&Type=search" }, "geometry": { "type": "Point", "coordinates": [ 140.1386344, 37.5633738 ] } },
{ "type": "Feature", "properties": { "内容": "特別養護老人ホームいちょうの木【地域密着型介護老人福祉施設入所者生活介護】福島県河沼郡湯川村大字佐野目字佐野北43", "url2": "https://www.kaigokensaku.mhlw.go.jp/07/index.php?action_kouhyou_detail_004_kani=true&JigyosyoCd=0792610024-00&ServiceCd=540&Type=search" }, "geometry": { "type": "Point", "coordinates": [ 139.864794399999937, 37.555244 ] } },
{ "type": "Feature", "properties": { "内容": "地域密着型特別養護老人ホーム　にいつるホーム【地域密着型介護老人福祉施設入所者生活介護】福島県大沼郡会津美里町新屋敷字上深田甲１５０２番地", "url2": "https://www.kaigokensaku.mhlw.go.jp/07/index.php?action_kouhyou_detail_004_kani=true&JigyosyoCd=0792730020-00&ServiceCd=540&Type=search" }, "geometry": { "type": "Point", "coordinates": [ 139.826394100000016, 37.5184139 ] } },
{ "type": "Feature", "properties": { "内容": "地域密着型特別養護老人ホームさつきの郷【地域密着型介護老人福祉施設入所者生活介護】福島県西白河郡泉崎村大字泉崎字笹立山７番地１特別養護老人ホームさつきの郷", "url2": "https://www.kaigokensaku.mhlw.go.jp/07/index.php?action_kouhyou_detail_004_kani=true&JigyosyoCd=0792810012-00&ServiceCd=540&Type=search" }, "geometry": { "type": "Point", "coordinates": [ 140.313966, 37.157391 ] } },
{ "type": "Feature", "properties": { "内容": "特別養護老人ホーム　さめがわ【地域密着型介護老人福祉施設入所者生活介護】福島県東白川郡鮫川村大字西山字水口３１", "url2": "https://www.kaigokensaku.mhlw.go.jp/07/index.php?action_kouhyou_detail_004_kani=true&JigyosyoCd=0792930026-00&ServiceCd=540&Type=search" }, "geometry": { "type": "Point", "coordinates": [ 140.483162600000014, 37.0694619 ] } },
{ "type": "Feature", "properties": { "内容": "特別養護老人ホームほほえみの里【地域密着型介護老人福祉施設入所者生活介護】福島県田村郡三春町大字熊耳字神山287番", "url2": "https://www.kaigokensaku.mhlw.go.jp/07/index.php?action_kouhyou_detail_004_kani=true&JigyosyoCd=0793100058-00&ServiceCd=540&Type=search" }, "geometry": { "type": "Point", "coordinates": [ 140.519737398147527, 37.443944935950334 ] } },
{ "type": "Feature", "properties": { "内容": "特別養護老人ホームさくら【地域密着型介護老人福祉施設入所者生活介護】福島県田村郡小野町大字小野新町字団子田36番地1", "url2": "https://www.kaigokensaku.mhlw.go.jp/07/index.php?action_kouhyou_detail_004_kani=true&JigyosyoCd=0793110040-00&ServiceCd=540&Type=search" }, "geometry": { "type": "Point", "coordinates": [ 140.634326399999964, 37.2857647 ] } },
{ "type": "Feature", "properties": { "内容": "地域密着型特別養護老人ホームつつじの里【地域密着型介護老人福祉施設入所者生活介護】福島県田村郡小野町大字谷津作字高山3番地2", "url2": "https://www.kaigokensaku.mhlw.go.jp/07/index.php?action_kouhyou_detail_004_kani=true&JigyosyoCd=0793100116-00&ServiceCd=540&Type=search" }, "geometry": { "type": "Point", "coordinates": [ 140.628371399999963, 37.2709573 ] } }
]
}
