{
"type": "FeatureCollection",
"name": "geo_07_定期巡回・随時対応型訪問介護看護",
"crs": { "type": "name", "properties": { "name": "urn:ogc:def:crs:OGC:1.3:CRS84" } },
"features": [
{ "type": "Feature", "properties": { "内容": "定期巡回・随時対応型訪問介護看護事業所　森の風【定期巡回・随時対応型訪問介護看護】福島県福島市南沢又字水門下160番地の3", "url2": "https://www.kaigokensaku.mhlw.go.jp/07/index.php?action_kouhyou_detail_004_kani=true&JigyosyoCd=0790100846-00&ServiceCd=760&Type=search" }, "geometry": { "type": "Point", "coordinates": [ 140.411312213491783, 37.782077369155111 ] } },
{ "type": "Feature", "properties": { "内容": "エルタ定期巡回・随時対応型訪問介護看護事業所【定期巡回・随時対応型訪問介護看護】福島県福島市東浜町10-16エルフィリア", "url2": "https://www.kaigokensaku.mhlw.go.jp/07/index.php?action_kouhyou_detail_004_kani=true&JigyosyoCd=0790101059-00&ServiceCd=760&Type=search" }, "geometry": { "type": "Point", "coordinates": [ 140.4867542, 37.7631913 ] } },
{ "type": "Feature", "properties": { "内容": "24時間訪問介護看護ステーション　花桃館【定期巡回・随時対応型訪問介護看護】福島県福島市飯坂町湯野字湯ノ上13-1", "url2": "https://www.kaigokensaku.mhlw.go.jp/07/index.php?action_kouhyou_detail_004_kani=true&JigyosyoCd=0790100820-00&ServiceCd=760&Type=search" }, "geometry": { "type": "Point", "coordinates": [ 140.455368499999963, 37.8309425 ] } },
{ "type": "Feature", "properties": { "内容": "愛ホームケアにじのまち定期巡回・随時対応型訪問介護看護【定期巡回・随時対応型訪問介護看護】福島県福島市南沢又字上並8－6", "url2": "https://www.kaigokensaku.mhlw.go.jp/07/index.php?action_kouhyou_detail_004_kani=true&JigyosyoCd=0790100853-00&ServiceCd=760&Type=search" }, "geometry": { "type": "Point", "coordinates": [ 140.442486786249219, 37.784611384382963 ] } },
{ "type": "Feature", "properties": { "内容": "ロング・ライフ24時間訪問介護看護事業所【定期巡回・随時対応型訪問介護看護】福島市松川町字産子内１番地の１", "url2": "https://www.kaigokensaku.mhlw.go.jp/07/index.php?action_kouhyou_detail_004_kani=true&JigyosyoCd=0790100341-00&ServiceCd=760&Type=search" }, "geometry": { "type": "Point", "coordinates": [ 140.478043399999933, 37.6672997 ] } },
{ "type": "Feature", "properties": { "内容": "エルタガーデン定期巡回・随時対応型訪問介護看護事業所【定期巡回・随時対応型訪問介護看護】福島県福島市八島田字樋ノ口８０", "url2": "https://www.kaigokensaku.mhlw.go.jp/07/index.php?action_kouhyou_detail_004_kani=true&JigyosyoCd=0790101166-00&ServiceCd=760&Type=search" }, "geometry": { "type": "Point", "coordinates": [ 140.4341909, 37.7682088 ] } },
{ "type": "Feature", "properties": { "内容": "リブレ松川24時間訪問介護看護事業所【定期巡回・随時対応型訪問介護看護】福島県福島市松川町美郷4丁目13番8", "url2": "https://www.kaigokensaku.mhlw.go.jp/07/index.php?action_kouhyou_detail_004_kani=true&JigyosyoCd=0790100614-00&ServiceCd=760&Type=search" }, "geometry": { "type": "Point", "coordinates": [ 140.4728719, 37.6657277 ] } },
{ "type": "Feature", "properties": { "内容": "定期巡回・随時対応型訪問介護看護ステーション湯の里大生苑【定期巡回・随時対応型訪問介護看護】福島県福島市飯坂町湯野字切湯ノ上2-6", "url2": "https://www.kaigokensaku.mhlw.go.jp/07/index.php?action_kouhyou_detail_004_kani=true&JigyosyoCd=0790100556-00&ServiceCd=760&Type=search" }, "geometry": { "type": "Point", "coordinates": [ 140.454778789549209, 37.832648347603794 ] } },
{ "type": "Feature", "properties": { "内容": "グリーンライト定期巡回・随時対応型訪問介護看護事業所【定期巡回・随時対応型訪問介護看護】福島県福島市飯坂町湯野字梁尻１－１", "url2": "https://www.kaigokensaku.mhlw.go.jp/07/index.php?action_kouhyou_detail_004_kani=true&JigyosyoCd=0790100382-00&ServiceCd=760&Type=search" }, "geometry": { "type": "Point", "coordinates": [ 140.456274500000063, 37.8225325 ] } },
{ "type": "Feature", "properties": { "内容": "定期巡回・随時対応型訪問介護看護事業所ひだまり【定期巡回・随時対応型訪問介護看護】福島県福島市渡利字中江町40-1", "url2": "https://www.kaigokensaku.mhlw.go.jp/07/index.php?action_kouhyou_detail_004_kani=true&JigyosyoCd=0790100531-00&ServiceCd=760&Type=search" }, "geometry": { "type": "Point", "coordinates": [ 140.483078200000023, 37.7481962 ] } },
{ "type": "Feature", "properties": { "内容": "ハッピー愛ランド　24時間訪問介護看護ステーション【定期巡回・随時対応型訪問介護看護】福島市本内字西河原5-76ハッピー愛ランド地域交流センター", "url2": "https://www.kaigokensaku.mhlw.go.jp/07/index.php?action_kouhyou_detail_004_kani=true&JigyosyoCd=0790100663-00&ServiceCd=760&Type=search" }, "geometry": { "type": "Point", "coordinates": [ 140.481647657013553, 37.781770491470482 ] } },
{ "type": "Feature", "properties": { "内容": "定期巡回ステーション明日の樹　福島北【定期巡回・随時対応型訪問介護看護】福島県福島市南矢野目字中江10-12", "url2": "https://www.kaigokensaku.mhlw.go.jp/07/index.php?action_kouhyou_detail_004_kani=true&JigyosyoCd=0790101083-00&ServiceCd=760&Type=search" }, "geometry": { "type": "Point", "coordinates": [ 140.454265776092171, 37.787004159866846 ] } },
{ "type": "Feature", "properties": { "内容": "あいの里　ひかり【定期巡回・随時対応型訪問介護看護】福島県福島市小倉寺字美濃輪下1-3", "url2": "https://www.kaigokensaku.mhlw.go.jp/07/index.php?action_kouhyou_detail_004_kani=true&JigyosyoCd=0790100762-00&ServiceCd=760&Type=search" }, "geometry": { "type": "Point", "coordinates": [ 140.4743484, 37.7292095 ] } },
{ "type": "Feature", "properties": { "内容": "定期巡回　希【定期巡回・随時対応型訪問介護看護】福島県郡山市並木１丁目18-1ベル並木１F", "url2": "https://www.kaigokensaku.mhlw.go.jp/07/index.php?action_kouhyou_detail_004_kani=true&JigyosyoCd=0790301071-00&ServiceCd=760&Type=search" }, "geometry": { "type": "Point", "coordinates": [ 140.36319850000001, 37.4115777 ] } },
{ "type": "Feature", "properties": { "内容": "ワンランド定期巡回郡山【定期巡回・随時対応型訪問介護看護】福島県郡山市小原田三丁目22-22サンライズ103", "url2": "https://www.kaigokensaku.mhlw.go.jp/07/index.php?action_kouhyou_detail_004_kani=true&JigyosyoCd=0790300933-00&ServiceCd=760&Type=search" }, "geometry": { "type": "Point", "coordinates": [ 140.3873495, 37.3778272 ] } },
{ "type": "Feature", "properties": { "内容": "ワンランド定期巡回郡山南【定期巡回・随時対応型訪問介護看護】福島県郡山市賀庄153-1パルク賀庄1-C", "url2": "https://www.kaigokensaku.mhlw.go.jp/07/index.php?action_kouhyou_detail_004_kani=true&JigyosyoCd=0790301014-00&ServiceCd=760&Type=search" }, "geometry": { "type": "Point", "coordinates": [ 140.367883299999988, 37.3699315 ] } },
{ "type": "Feature", "properties": { "内容": "繋ケアステーション【定期巡回・随時対応型訪問介護看護】福島県郡山市虎丸町22番20号", "url2": "https://www.kaigokensaku.mhlw.go.jp/07/index.php?action_kouhyou_detail_004_kani=true&JigyosyoCd=0790300941-00&ServiceCd=760&Type=search" }, "geometry": { "type": "Point", "coordinates": [ 140.378986245306464, 37.398253754752865 ] } },
{ "type": "Feature", "properties": { "内容": "定期巡回随時対応型訪問介護看護事業所なのはな【定期巡回・随時対応型訪問介護看護】福島県郡山市鳴神一丁目６３番地医療生協サービス付高齢者住宅なのはな", "url2": "https://www.kaigokensaku.mhlw.go.jp/07/index.php?action_kouhyou_detail_004_kani=true&JigyosyoCd=0790300271-00&ServiceCd=760&Type=search" }, "geometry": { "type": "Point", "coordinates": [ 140.338572, 37.395104 ] } },
{ "type": "Feature", "properties": { "内容": "定期巡回・随時対応型訪問介護看護事業所　ふじ【定期巡回・随時対応型訪問介護看護】福島県郡山市八山田西二丁目159", "url2": "https://www.kaigokensaku.mhlw.go.jp/07/index.php?action_kouhyou_detail_004_kani=true&JigyosyoCd=0790300602-00&ServiceCd=760&Type=search" }, "geometry": { "type": "Point", "coordinates": [ 140.360786859632867, 37.429608075875201 ] } },
{ "type": "Feature", "properties": { "内容": "定期巡回・随時対応型訪問介護看護事業所あさか【定期巡回・随時対応型訪問介護看護】福島県郡山市安積荒井3-64エターナル弁天　１F号棟A号室", "url2": "https://www.kaigokensaku.mhlw.go.jp/07/index.php?action_kouhyou_detail_004_kani=true&JigyosyoCd=0790300750-00&ServiceCd=760&Type=search" }, "geometry": { "type": "Point", "coordinates": [ 140.359568584774905, 37.370104419087163 ] } },
{ "type": "Feature", "properties": { "内容": "定期巡回・随時対応型訪問介護看護事業所とみた【定期巡回・随時対応型訪問介護看護】冨田町字十文字49番地1エムズアパートメント101", "url2": "https://www.kaigokensaku.mhlw.go.jp/07/index.php?action_kouhyou_detail_004_kani=true&JigyosyoCd=0790300875-00&ServiceCd=760&Type=search" }, "geometry": { "type": "Point", "coordinates": [ 140.344907499999977, 37.4119619 ] } },
{ "type": "Feature", "properties": { "内容": "定期巡回お花畑【定期巡回・随時対応型訪問介護看護】福島県郡山市熱海町熱海2－56", "url2": "https://www.kaigokensaku.mhlw.go.jp/07/index.php?action_kouhyou_detail_004_kani=true&JigyosyoCd=0790301220-00&ServiceCd=760&Type=search" }, "geometry": { "type": "Point", "coordinates": [ 140.273146862565625, 37.481650098478291 ] } },
{ "type": "Feature", "properties": { "内容": "定期巡回・随時対応型訪問介護看護事業所　おおつき【定期巡回・随時対応型訪問介護看護】福島県郡山市大槻町字西勝ノ木5-1", "url2": "https://www.kaigokensaku.mhlw.go.jp/07/index.php?action_kouhyou_detail_004_kani=true&JigyosyoCd=0790300651-00&ServiceCd=760&Type=search" }, "geometry": { "type": "Point", "coordinates": [ 140.306319, 37.39353220000001 ] } },
{ "type": "Feature", "properties": { "内容": "いちかわ定期巡回KAISEI【定期巡回・随時対応型訪問介護看護】福島県郡山市開成5丁目26－23ベルトピア開成203号", "url2": "https://www.kaigokensaku.mhlw.go.jp/07/index.php?action_kouhyou_detail_004_kani=true&JigyosyoCd=0790301147-00&ServiceCd=760&Type=search" }, "geometry": { "type": "Point", "coordinates": [ 140.3489697, 37.3903104 ] } },
{ "type": "Feature", "properties": { "内容": "ワンランドケア白河【定期巡回・随時対応型訪問介護看護】福島県白河市昭和町273-1", "url2": "https://www.kaigokensaku.mhlw.go.jp/07/index.php?action_kouhyou_detail_004_kani=true&JigyosyoCd=0790500292-00&ServiceCd=760&Type=search" }, "geometry": { "type": "Point", "coordinates": [ 140.198178259524497, 37.130943620710575 ] } },
{ "type": "Feature", "properties": { "内容": "定期巡回・随時対応型訪問介護看護事業所みさか【定期巡回・随時対応型訪問介護看護】福島県白河市みさか2丁目48－35", "url2": "https://www.kaigokensaku.mhlw.go.jp/07/index.php?action_kouhyou_detail_004_kani=true&JigyosyoCd=0790500177-00&ServiceCd=760&Type=search" }, "geometry": { "type": "Point", "coordinates": [ 140.196336735581951, 37.1060837 ] } },
{ "type": "Feature", "properties": { "内容": "ワンランド定期巡回須賀川【定期巡回・随時対応型訪問介護看護】福島県須賀川市森宿字安積田２１１－２シニアパンション須賀川・森宿　内", "url2": "https://www.kaigokensaku.mhlw.go.jp/07/index.php?action_kouhyou_detail_004_kani=true&JigyosyoCd=0790700116-00&ServiceCd=760&Type=search" }, "geometry": { "type": "Point", "coordinates": [ 140.36314689467622, 37.316370009637843 ] } },
{ "type": "Feature", "properties": { "内容": "定期巡回随時対応型訪問介護看護事業所「ひかり」【定期巡回・随時対応型訪問介護看護】福島県須賀川市陣場町108番地", "url2": "https://www.kaigokensaku.mhlw.go.jp/07/index.php?action_kouhyou_detail_004_kani=true&JigyosyoCd=0790700074-00&ServiceCd=760&Type=search" }, "geometry": { "type": "Point", "coordinates": [ 140.363868365633323, 37.298372260445845 ] } },
{ "type": "Feature", "properties": { "内容": "JWS陽だまりの郷　定期巡回・随時対応型訪問介護看護事業所【定期巡回・随時対応型訪問介護看護】福島県二本松市表2丁目775番地", "url2": "https://www.kaigokensaku.mhlw.go.jp/07/index.php?action_kouhyou_detail_004_kani=true&JigyosyoCd=0791000086-00&ServiceCd=760&Type=search" }, "geometry": { "type": "Point", "coordinates": [ 140.436105199999929, 37.6043905 ] } },
{ "type": "Feature", "properties": { "内容": "定期巡回すみれ【定期巡回・随時対応型訪問介護看護】福島県田村市船引町船引字砂子田198", "url2": "https://www.kaigokensaku.mhlw.go.jp/07/index.php?action_kouhyou_detail_004_kani=true&JigyosyoCd=0791100100-00&ServiceCd=760&Type=search" }, "geometry": { "type": "Point", "coordinates": [ 140.5724917, 37.444921 ] } },
{ "type": "Feature", "properties": { "内容": "指定定期巡回・随時対応型訪問介護看護事業所桜【定期巡回・随時対応型訪問介護看護】福島県伊達市梁川町字上町36", "url2": "https://www.kaigokensaku.mhlw.go.jp/07/index.php?action_kouhyou_detail_004_kani=true&JigyosyoCd=0791300254-00&ServiceCd=760&Type=search" }, "geometry": { "type": "Point", "coordinates": [ 140.611560695142288, 37.859764868572434 ] } },
{ "type": "Feature", "properties": { "内容": "定期巡回・随時対応型訪問介護看護ステーション　やながわ大生苑【定期巡回・随時対応型訪問介護看護】福島県伊達市梁川町字南本町46-1", "url2": "https://www.kaigokensaku.mhlw.go.jp/07/index.php?action_kouhyou_detail_004_kani=true&JigyosyoCd=0791300221-00&ServiceCd=760&Type=search" }, "geometry": { "type": "Point", "coordinates": [ 140.601706400000012, 37.854838700000016 ] } },
{ "type": "Feature", "properties": { "内容": "指定定期巡回・随時対応型訪問介護看護事業所「向日葵」【定期巡回・随時対応型訪問介護看護】福島県伊達市霊山町掛田字岡３０−９", "url2": "https://www.kaigokensaku.mhlw.go.jp/07/index.php?action_kouhyou_detail_004_kani=true&JigyosyoCd=0791300122-00&ServiceCd=760&Type=search" }, "geometry": { "type": "Point", "coordinates": [ 140.593701, 37.7821627 ] } },
{ "type": "Feature", "properties": { "内容": "マインド南ノ内訪問ケアステーション【定期巡回・随時対応型訪問介護看護】福島県本宮市本宮字南ノ内32", "url2": "https://www.kaigokensaku.mhlw.go.jp/07/index.php?action_kouhyou_detail_004_kani=true&JigyosyoCd=0791400088-00&ServiceCd=760&Type=search" }, "geometry": { "type": "Point", "coordinates": [ 140.395498, 37.530353200000015 ] } },
{ "type": "Feature", "properties": { "内容": "定期巡回・随時対応型訪問介護事業所たんぽぽ【定期巡回・随時対応型訪問介護看護】福島県西白河郡西郷村大字小田倉字小田倉原35－7シニアホームこもれび", "url2": "https://www.kaigokensaku.mhlw.go.jp/07/index.php?action_kouhyou_detail_004_kani=true&JigyosyoCd=0792800062-00&ServiceCd=760&Type=search" }, "geometry": { "type": "Point", "coordinates": [ 140.165533, 37.1226423 ] } },
{ "type": "Feature", "properties": { "内容": "定期巡回・随時対応型訪問介護看護事業所おおまち【定期巡回・随時対応型訪問介護看護】福島県西白河郡矢吹町大町227-2シニアホームおおまち", "url2": "https://www.kaigokensaku.mhlw.go.jp/07/index.php?action_kouhyou_detail_004_kani=true&JigyosyoCd=0792800112-00&ServiceCd=760&Type=search" }, "geometry": { "type": "Point", "coordinates": [ 140.317983422615043, 37.200018788609881 ] } },
{ "type": "Feature", "properties": { "内容": "定期巡回・随時対応型訪問介護看護ほほえみの里みはる【定期巡回・随時対応型訪問介護看護】福島県田村郡三春町大字熊耳字神山２８７番", "url2": "https://www.kaigokensaku.mhlw.go.jp/07/index.php?action_kouhyou_detail_004_kani=true&JigyosyoCd=0793100165-00&ServiceCd=760&Type=search" }, "geometry": { "type": "Point", "coordinates": [ 140.5197853, 37.4438141 ] } },
{ "type": "Feature", "properties": { "内容": "定期巡回・随時対応型訪問介護看護事業所　えがおの里【定期巡回・随時対応型訪問介護看護】福島県田村郡小野町大字谷津作字高山３-５", "url2": "https://www.kaigokensaku.mhlw.go.jp/07/index.php?action_kouhyou_detail_004_kani=true&JigyosyoCd=0793110065-00&ServiceCd=760&Type=search" }, "geometry": { "type": "Point", "coordinates": [ 140.628385290650726, 37.271009187660447 ] } },
{ "type": "Feature", "properties": { "内容": "はま福TOMIOKA【定期巡回・随時対応型訪問介護看護】福島県双葉郡富岡町夜の森南二丁目1番１", "url2": "https://www.kaigokensaku.mhlw.go.jp/07/index.php?action_kouhyou_detail_004_kani=true&JigyosyoCd=0793200056-00&ServiceCd=760&Type=search" }, "geometry": { "type": "Point", "coordinates": [ 140.996150300000011, 37.3653388 ] } }
]
}
