{
"type": "FeatureCollection",
"name": "geo_07_幼保連携型認定こども園",
"crs": { "type": "name", "properties": { "name": "urn:ogc:def:crs:EPSG::6668" } },
"features": [
{ "type": "Feature", "properties": { "P29_001": "07201", "P29_002": "A207220121070", "P29_003": "16013", "P29_004": "ふくしま中央認定こども園", "P29_005": "福島県福島市春日町13-39", "P29_006": "3", "P29_007": "0", "P29_008": "00", "P29_009": null }, "geometry": { "type": "Point", "coordinates": [ 140.477110415558712, 37.767317296478296 ] } },
{ "type": "Feature", "properties": { "P29_001": "07201", "P29_002": "A207220121089", "P29_003": "16013", "P29_004": "ひらの認定こども園", "P29_005": "福島県福島市飯坂町平野字西石堂43-1", "P29_006": "3", "P29_007": "0", "P29_008": "00", "P29_009": null }, "geometry": { "type": "Point", "coordinates": [ 140.441469995380288, 37.810288995116743 ] } },
{ "type": "Feature", "properties": { "P29_001": "07201", "P29_002": "A207220121098", "P29_003": "16013", "P29_004": "いいの認定こども園", "P29_005": "福島県福島市飯野町字経壇62-1", "P29_006": "3", "P29_007": "0", "P29_008": "00", "P29_009": null }, "geometry": { "type": "Point", "coordinates": [ 140.535104827500362, 37.652628271597628 ] } },
{ "type": "Feature", "properties": { "P29_001": "07207", "P29_002": "A207220720011", "P29_003": "16013", "P29_004": "認定こども園　大東こども園", "P29_005": "福島県須賀川市雨田字高屋敷8-1", "P29_006": "3", "P29_007": "0", "P29_008": "00", "P29_009": null }, "geometry": { "type": "Point", "coordinates": [ 140.422186865874863, 37.266002329132561 ] } },
{ "type": "Feature", "properties": { "P29_001": "07207", "P29_002": "A207220720020", "P29_003": "16013", "P29_004": "白方こども園", "P29_005": "福島県須賀川市今泉字鼠内100", "P29_006": "3", "P29_007": "0", "P29_008": "00", "P29_009": null }, "geometry": { "type": "Point", "coordinates": [ 140.25160947541093, 37.326447323212747 ] } },
{ "type": "Feature", "properties": { "P29_001": "07207", "P29_002": "A207220720039", "P29_003": "16013", "P29_004": "白江こども園", "P29_005": "福島県須賀川市大久保字室貫26", "P29_006": "3", "P29_007": "0", "P29_008": "00", "P29_009": null }, "geometry": { "type": "Point", "coordinates": [ 140.285005337318154, 37.299619254571098 ] } },
{ "type": "Feature", "properties": { "P29_001": "07208", "P29_002": "A207220820010", "P29_003": "16013", "P29_004": "喜多方市立第一こども園", "P29_005": "福島県喜多方市字沼田6941-2", "P29_006": "3", "P29_007": "0", "P29_008": "00", "P29_009": null }, "geometry": { "type": "Point", "coordinates": [ 139.874808004187969, 37.657060002956186 ] } },
{ "type": "Feature", "properties": { "P29_001": "07208", "P29_002": "A207220820029", "P29_003": "16013", "P29_004": "喜多方市立第二こども園", "P29_005": "福島県喜多方市字柳原7507", "P29_006": "3", "P29_007": "0", "P29_008": "00", "P29_009": null }, "geometry": { "type": "Point", "coordinates": [ 139.874854269744901, 37.648128923439529 ] } },
{ "type": "Feature", "properties": { "P29_001": "07208", "P29_002": "A207220820038", "P29_003": "16013", "P29_004": "喜多方市立第三こども園", "P29_005": "福島県喜多方市字町西8961-2", "P29_006": "3", "P29_007": "0", "P29_008": "00", "P29_009": null }, "geometry": { "type": "Point", "coordinates": [ 139.863640842259116, 37.646885676240323 ] } },
{ "type": "Feature", "properties": { "P29_001": "07208", "P29_002": "A207220820047", "P29_003": "16013", "P29_004": "喜多方市立第四こども園", "P29_005": "福島県喜多方市関柴町平林字政所1601-2", "P29_006": "3", "P29_007": "0", "P29_008": "00", "P29_009": null }, "geometry": { "type": "Point", "coordinates": [ 139.901844499892093, 37.651464499138868 ] } },
{ "type": "Feature", "properties": { "P29_001": "07208", "P29_002": "A207220820056", "P29_003": "16013", "P29_004": "喜多方市立すぎっここども園", "P29_005": "福島県喜多方市熱塩加納町加納字根岸151", "P29_006": "3", "P29_007": "0", "P29_008": "00", "P29_009": null }, "geometry": { "type": "Point", "coordinates": [ 139.857056360799248, 37.707011195184798 ] } },
{ "type": "Feature", "properties": { "P29_001": "07208", "P29_002": "A207220820065", "P29_003": "16013", "P29_004": "喜多方市立駒形こども園", "P29_005": "福島県喜多方市塩川町中屋沢字竹の花1375-1", "P29_006": "3", "P29_007": "0", "P29_008": "00", "P29_009": null }, "geometry": { "type": "Point", "coordinates": [ 139.910558657357967, 37.602269044912774 ] } },
{ "type": "Feature", "properties": { "P29_001": "07208", "P29_002": "A207220820074", "P29_003": "16013", "P29_004": "喜多方市立堂島こども園", "P29_005": "福島県喜多方市塩川町四奈川字前田369-2", "P29_006": "3", "P29_007": "0", "P29_008": "00", "P29_009": null }, "geometry": { "type": "Point", "coordinates": [ 139.8552290037087, 37.607693003185112 ] } },
{ "type": "Feature", "properties": { "P29_001": "07208", "P29_002": "A207220820083", "P29_003": "16013", "P29_004": "喜多方市立姥堂こども園", "P29_005": "福島県喜多方市塩川町新江木字橋本前田64-1", "P29_006": "3", "P29_007": "0", "P29_008": "00", "P29_009": null }, "geometry": { "type": "Point", "coordinates": [ 139.8888139999477, 37.614576996711875 ] } },
{ "type": "Feature", "properties": { "P29_001": "07208", "P29_002": "A207220820092", "P29_003": "16013", "P29_004": "喜多方市立山都こども園", "P29_005": "福島県喜多方市山都町字広葎田2415", "P29_006": "3", "P29_007": "0", "P29_008": "00", "P29_009": null }, "geometry": { "type": "Point", "coordinates": [ 139.769858005003272, 37.642571997750707 ] } },
{ "type": "Feature", "properties": { "P29_001": "07208", "P29_002": "A207220820109", "P29_003": "16013", "P29_004": "喜多方市立高郷こども園", "P29_005": "福島県喜多方市高郷町西羽賀字和尚堂3152", "P29_006": "3", "P29_007": "0", "P29_008": "00", "P29_009": null }, "geometry": { "type": "Point", "coordinates": [ 139.755621080173171, 37.601581575250478 ] } },
{ "type": "Feature", "properties": { "P29_001": "07210", "P29_002": "A207221020016", "P29_003": "16013", "P29_004": "二本松市立とうわこども園", "P29_005": "福島県二本松市針道字大町西46-7", "P29_006": "3", "P29_007": "0", "P29_008": "00", "P29_009": null }, "geometry": { "type": "Point", "coordinates": [ 140.568560184039995, 37.591266648623886 ] } },
{ "type": "Feature", "properties": { "P29_001": "07210", "P29_002": "A207221020025", "P29_003": "16013", "P29_004": "二本松市立いわしろさくらこども園", "P29_005": "福島県二本松市西新殿字永作10", "P29_006": "3", "P29_007": "0", "P29_008": "00", "P29_009": null }, "geometry": { "type": "Point", "coordinates": [ 140.563194089595498, 37.534000259461024 ] } },
{ "type": "Feature", "properties": { "P29_001": "07212", "P29_002": "A207221220014", "P29_003": "16013", "P29_004": "おだか認定こども園", "P29_005": "福島県南相馬市小高区関場2-21", "P29_006": "3", "P29_007": "0", "P29_008": "00", "P29_009": null }, "geometry": { "type": "Point", "coordinates": [ 140.985353002572481, 37.560938615738969 ] } },
{ "type": "Feature", "properties": { "P29_001": "07213", "P29_002": "A207221320013", "P29_003": "16013", "P29_004": "伊達市立梁川認定こども園", "P29_005": "福島県伊達市梁川町字山城舘7-1", "P29_006": "3", "P29_007": "0", "P29_008": "00", "P29_009": null }, "geometry": { "type": "Point", "coordinates": [ 140.600387684361493, 37.85744835920044 ] } },
{ "type": "Feature", "properties": { "P29_001": "07213", "P29_002": "A207221320022", "P29_003": "16013", "P29_004": "伊達市立月舘認定こども園", "P29_005": "福島県伊達市月舘町字関ノ下8-2", "P29_006": "3", "P29_007": "0", "P29_008": "00", "P29_009": null }, "geometry": { "type": "Point", "coordinates": [ 140.607532217571816, 37.730879872614928 ] } },
{ "type": "Feature", "properties": { "P29_001": "07308", "P29_002": "A207230820019", "P29_003": "16013", "P29_004": "かわまた認定こども園", "P29_005": "福島県伊達郡川俣町字川原田46", "P29_006": "3", "P29_007": "0", "P29_008": "00", "P29_009": null }, "geometry": { "type": "Point", "coordinates": [ 140.606727700147388, 37.658636032109854 ] } },
{ "type": "Feature", "properties": { "P29_001": "07408", "P29_002": "A207240820018", "P29_003": "16013", "P29_004": "猪苗代町立さくらこども園", "P29_005": "福島県耶麻郡猪苗代町大字川桁字寺道北60", "P29_006": "3", "P29_007": "0", "P29_008": "00", "P29_009": null }, "geometry": { "type": "Point", "coordinates": [ 140.139250971487172, 37.540306998509251 ] } },
{ "type": "Feature", "properties": { "P29_001": "07408", "P29_002": "A207240820027", "P29_003": "16013", "P29_004": "猪苗代町立ひまわりこども園", "P29_005": "福島県耶麻郡猪苗代町大字磐里字大五百刈254-1", "P29_006": "3", "P29_007": "0", "P29_008": "00", "P29_009": null }, "geometry": { "type": "Point", "coordinates": [ 140.099942292911578, 37.547916655788853 ] } },
{ "type": "Feature", "properties": { "P29_001": "07484", "P29_002": "A207248420015", "P29_003": "16013", "P29_004": "認定こども園さめがわこどもセンター", "P29_005": "福島県東白川郡鮫川村大字赤坂西野字酒垂3-3", "P29_006": "3", "P29_007": "0", "P29_008": "00", "P29_009": null }, "geometry": { "type": "Point", "coordinates": [ 140.466136995686696, 37.050667515330794 ] } },
{ "type": "Feature", "properties": { "P29_001": "07503", "P29_002": "A207250320030", "P29_003": "16013", "P29_004": "ひらたこども園", "P29_005": "福島県石川郡平田村大字永田字広町34", "P29_006": "3", "P29_007": "0", "P29_008": "00", "P29_009": null }, "geometry": { "type": "Point", "coordinates": [ 140.570284000901552, 37.217848003811874 ] } },
{ "type": "Feature", "properties": { "P29_001": "07505", "P29_002": "A207250520010", "P29_003": "16013", "P29_004": "古殿町立ふるどのこども園", "P29_005": "福島県石川郡古殿町大字松川字横川183", "P29_006": "3", "P29_007": "0", "P29_008": "00", "P29_009": null }, "geometry": { "type": "Point", "coordinates": [ 140.561270815275805, 37.08757115838192 ] } },
{ "type": "Feature", "properties": { "P29_001": "07541", "P29_002": "A207254120016", "P29_003": "16013", "P29_004": "広野町立広野こども園", "P29_005": "福島県双葉郡広野町中央台1-8", "P29_006": "3", "P29_007": "0", "P29_008": "00", "P29_009": null }, "geometry": { "type": "Point", "coordinates": [ 140.991429023151568, 37.212015481018177 ] } },
{ "type": "Feature", "properties": { "P29_001": "07542", "P29_002": "A207254220015", "P29_003": "16013", "P29_004": "楢葉町立あおぞらこども園", "P29_005": "福島県双葉郡楢葉町大字北田字中満296-1", "P29_006": "3", "P29_007": "0", "P29_008": "00", "P29_009": null }, "geometry": { "type": "Point", "coordinates": [ 140.996820271325589, 37.276672301936088 ] } },
{ "type": "Feature", "properties": { "P29_001": "07543", "P29_002": "A207254320014", "P29_003": "16013", "P29_004": "富岡町立にこにここども園", "P29_005": "福島県双葉郡富岡町大字小浜字大膳町152", "P29_006": "3", "P29_007": "0", "P29_008": "00", "P29_009": null }, "geometry": { "type": "Point", "coordinates": [ 141.012372173909625, 37.332611801577414 ] } },
{ "type": "Feature", "properties": { "P29_001": "07544", "P29_002": "A207254420013", "P29_003": "16013", "P29_004": "川内村認定こども園かわうち保育園", "P29_005": "福島県双葉郡川内村大字上川内字沼畑125", "P29_006": "3", "P29_007": "0", "P29_008": "00", "P29_009": null }, "geometry": { "type": "Point", "coordinates": [ 140.803417724675398, 37.342483354914513 ] } },
{ "type": "Feature", "properties": { "P29_001": "07545", "P29_002": "A207254520012", "P29_003": "16013", "P29_004": "大熊町立認定こども園学び舎ゆめの森", "P29_005": "福島県双葉郡大熊町大字大川原字南平1207-1", "P29_006": "3", "P29_007": "0", "P29_008": "00", "P29_009": null }, "geometry": { "type": "Point", "coordinates": [ 140.962459817760987, 37.38210661634136 ] } },
{ "type": "Feature", "properties": { "P29_001": "07547", "P29_002": "A207254720010", "P29_003": "16013", "P29_004": "浪江にじいろこども園", "P29_005": "福島県双葉郡浪江町大字幾世橋字来福寺西39", "P29_006": "3", "P29_007": "0", "P29_008": "00", "P29_009": null }, "geometry": { "type": "Point", "coordinates": [ 141.006521002214299, 37.491315003623768 ] } },
{ "type": "Feature", "properties": { "P29_001": "07564", "P29_002": "A207256420018", "P29_003": "16013", "P29_004": "飯舘村立までいの里のこども園", "P29_005": "福島県相馬郡飯舘村伊丹沢字山田380", "P29_006": "3", "P29_007": "0", "P29_008": "00", "P29_009": null }, "geometry": { "type": "Point", "coordinates": [ 140.7386596110629, 37.677487848990204 ] } },
{ "type": "Feature", "properties": { "P29_001": "07201", "P29_002": "A207320121014", "P29_003": "16013", "P29_004": "学校法人福島学院認定こども園", "P29_005": "福島県福島市宮代字乳児池1-1", "P29_006": "4", "P29_007": "0", "P29_008": "00", "P29_009": null }, "geometry": { "type": "Point", "coordinates": [ 140.4860453940274, 37.799746470287822 ] } },
{ "type": "Feature", "properties": { "P29_001": "07201", "P29_002": "A207320121023", "P29_003": "16013", "P29_004": "認定こども園　おかやまこども園", "P29_005": "福島県福島市岡部字倉ノ内89", "P29_006": "4", "P29_007": "0", "P29_008": "00", "P29_009": null }, "geometry": { "type": "Point", "coordinates": [ 140.507379875684194, 37.776183914591911 ] } },
{ "type": "Feature", "properties": { "P29_001": "07201", "P29_002": "A207320121032", "P29_003": "16013", "P29_004": "認定こども園福島東こども園", "P29_005": "福島県福島市鎌田字沢田39-1", "P29_006": "4", "P29_007": "0", "P29_008": "00", "P29_009": null }, "geometry": { "type": "Point", "coordinates": [ 140.478454904273349, 37.795826542513744 ] } },
{ "type": "Feature", "properties": { "P29_001": "07201", "P29_002": "A207320121041", "P29_003": "16013", "P29_004": "社会福祉法人松葉福祉会　福島ぼなみ子ども園", "P29_005": "福島県福島市栄町11-25　ＡＸＣビル　7階", "P29_006": "4", "P29_007": "0", "P29_008": "00", "P29_009": null }, "geometry": { "type": "Point", "coordinates": [ 140.463231993976848, 37.754055998140522 ] } },
{ "type": "Feature", "properties": { "P29_001": "07201", "P29_002": "A207320121050", "P29_003": "16013", "P29_004": "福島郷野目こども園", "P29_005": "福島県福島市鄕野目字上14", "P29_006": "4", "P29_007": "0", "P29_008": "00", "P29_009": null }, "geometry": { "type": "Point", "coordinates": [ 140.459950905836109, 37.735862305971466 ] } },
{ "type": "Feature", "properties": { "P29_001": "07201", "P29_002": "A207320121069", "P29_003": "16013", "P29_004": "にわさかこども園", "P29_005": "福島県福島市町庭坂字呑塚28", "P29_006": "4", "P29_007": "0", "P29_008": "00", "P29_009": null }, "geometry": { "type": "Point", "coordinates": [ 140.384646564528168, 37.768516301576526 ] } },
{ "type": "Feature", "properties": { "P29_001": "07201", "P29_002": "A207320121103", "P29_003": "16013", "P29_004": "のぞみの花こども園", "P29_005": "福島県福島市北沢又字下台前2-12", "P29_006": "4", "P29_007": "0", "P29_008": "00", "P29_009": null }, "geometry": { "type": "Point", "coordinates": [ 140.433606293223676, 37.786216380173144 ] } },
{ "type": "Feature", "properties": { "P29_001": "07202", "P29_002": "A207320221013", "P29_003": "16013", "P29_004": "認定こども園子どもの森", "P29_005": "福島県会津若松市一箕町大字亀賀字北柳原42-1", "P29_006": "4", "P29_007": "0", "P29_008": "00", "P29_009": null }, "geometry": { "type": "Point", "coordinates": [ 139.934611314965508, 37.52105082600157 ] } },
{ "type": "Feature", "properties": { "P29_001": "07202", "P29_002": "A207320221022", "P29_003": "16013", "P29_004": "会津慈光こども園", "P29_005": "福島県会津若松市宝町2-16", "P29_006": "4", "P29_007": "0", "P29_008": "00", "P29_009": null }, "geometry": { "type": "Point", "coordinates": [ 139.940131003468679, 37.487312001471949 ] } },
{ "type": "Feature", "properties": { "P29_001": "07202", "P29_002": "A207320221031", "P29_003": "16013", "P29_004": "みなみ若葉こども園", "P29_005": "福島県会津若松市門田町大字日吉小金井63", "P29_006": "4", "P29_007": "0", "P29_008": "00", "P29_009": null }, "geometry": { "type": "Point", "coordinates": [ 139.916880317464006, 37.476775558507448 ] } },
{ "type": "Feature", "properties": { "P29_001": "07202", "P29_002": "A207320221040", "P29_003": "16013", "P29_004": "認定こども園若松第二幼稚園", "P29_005": "福島県会津若松市日新町8-26", "P29_006": "4", "P29_007": "0", "P29_008": "00", "P29_009": null }, "geometry": { "type": "Point", "coordinates": [ 139.917290100757612, 37.497955672751623 ] } },
{ "type": "Feature", "properties": { "P29_001": "07202", "P29_002": "A207320221059", "P29_003": "16013", "P29_004": "認定こども園こばとらんど", "P29_005": "福島県会津若松市町北町上荒久田石尻107", "P29_006": "4", "P29_007": "0", "P29_008": "00", "P29_009": null }, "geometry": { "type": "Point", "coordinates": [ 139.92675768358859, 37.514173593430442 ] } },
{ "type": "Feature", "properties": { "P29_001": "07202", "P29_002": "A207320221068", "P29_003": "16013", "P29_004": "認定こども園　北会津こどもの村　幼保園", "P29_005": "福島県会津若松市北会津町中荒井字山道4-1", "P29_006": "4", "P29_007": "0", "P29_008": "00", "P29_009": null }, "geometry": { "type": "Point", "coordinates": [ 139.872436692656947, 37.498127372459756 ] } },
{ "type": "Feature", "properties": { "P29_001": "07202", "P29_002": "A207320221077", "P29_003": "16013", "P29_004": "菅原若葉こども園", "P29_005": "福島県会津若松市柳原町4-5-20", "P29_006": "4", "P29_007": "0", "P29_008": "00", "P29_009": null }, "geometry": { "type": "Point", "coordinates": [ 139.903992439323787, 37.493931787544646 ] } },
{ "type": "Feature", "properties": { "P29_001": "07202", "P29_002": "A207320221086", "P29_003": "16013", "P29_004": "榎の木", "P29_005": "福島県会津若松市千石町8-16", "P29_006": "4", "P29_007": "0", "P29_008": "00", "P29_009": null }, "geometry": { "type": "Point", "coordinates": [ 139.939441965638082, 37.496680094998609 ] } },
{ "type": "Feature", "properties": { "P29_001": "07202", "P29_002": "A207320221095", "P29_003": "16013", "P29_004": "とうみょう子ども園", "P29_005": "福島県会津若松市大町2-1-45　　", "P29_006": "4", "P29_007": "0", "P29_008": "00", "P29_009": null }, "geometry": { "type": "Point", "coordinates": [ 139.928177012425692, 37.501778989003817 ] } },
{ "type": "Feature", "properties": { "P29_001": "07202", "P29_002": "A207320221102", "P29_003": "16013", "P29_004": "認定こども園若松第一幼稚園", "P29_005": "福島県会津若松市中央1-1-5", "P29_006": "4", "P29_007": "0", "P29_008": "00", "P29_009": null }, "geometry": { "type": "Point", "coordinates": [ 139.92985200731934, 37.497383407172272 ] } },
{ "type": "Feature", "properties": { "P29_001": "07202", "P29_002": "A207320221111", "P29_003": "16013", "P29_004": "どんぐり山こども園", "P29_005": "福島県会津若松市門田町大字黒岩字大坪68-1", "P29_006": "4", "P29_007": "0", "P29_008": "00", "P29_009": null }, "geometry": { "type": "Point", "coordinates": [ 139.931827210458636, 37.475427111651143 ] } },
{ "type": "Feature", "properties": { "P29_001": "07202", "P29_002": "A207320221120", "P29_003": "16013", "P29_004": "認定こども園会津若葉幼稚園", "P29_005": "福島県会津若松市湯川町3-74", "P29_006": "4", "P29_007": "0", "P29_008": "00", "P29_009": null }, "geometry": { "type": "Point", "coordinates": [ 139.920429124095591, 37.489534153667748 ] } },
{ "type": "Feature", "properties": { "P29_001": "07202", "P29_002": "A207320221139", "P29_003": "16013", "P29_004": "慈光第二こども園", "P29_005": "福島県会津若松市東年貢2-7-3", "P29_006": "4", "P29_007": "0", "P29_008": "00", "P29_009": null }, "geometry": { "type": "Point", "coordinates": [ 139.92783189843027, 37.473532117370581 ] } },
{ "type": "Feature", "properties": { "P29_001": "07202", "P29_002": "A207320221148", "P29_003": "16013", "P29_004": "認定こども園若松第三幼稚園", "P29_005": "福島県会津若松市湯川町3-53", "P29_006": "4", "P29_007": "0", "P29_008": "00", "P29_009": null }, "geometry": { "type": "Point", "coordinates": [ 139.919086053730382, 37.489337442874735 ] } },
{ "type": "Feature", "properties": { "P29_001": "07202", "P29_002": "A207320221157", "P29_003": "16013", "P29_004": "認定こども園ザベリオ学園こども園", "P29_005": "福島県会津若松市西栄町1-52", "P29_006": "4", "P29_007": "0", "P29_008": "00", "P29_009": null }, "geometry": { "type": "Point", "coordinates": [ 139.924770248566432, 37.493147925565239 ] } },
{ "type": "Feature", "properties": { "P29_001": "07202", "P29_002": "A207320221166", "P29_003": "16013", "P29_004": "南町こども園", "P29_005": "福島県会津若松市南花畑2-7", "P29_006": "4", "P29_007": "0", "P29_008": "00", "P29_009": null }, "geometry": { "type": "Point", "coordinates": [ 139.925197001568563, 37.484775999467573 ] } },
{ "type": "Feature", "properties": { "P29_001": "07202", "P29_002": "A207320221175", "P29_003": "16013", "P29_004": "やまがみらいこども園", "P29_005": "福島県会津若松市山鹿町4-37", "P29_006": "4", "P29_007": "0", "P29_008": "00", "P29_009": null }, "geometry": { "type": "Point", "coordinates": [ 139.922648979342995, 37.491961327104761 ] } },
{ "type": "Feature", "properties": { "P29_001": "07202", "P29_002": "A207320221184", "P29_003": "16013", "P29_004": "あいづ博愛こども園", "P29_005": "福島県会津若松市本町8-40", "P29_006": "4", "P29_007": "0", "P29_008": "00", "P29_009": null }, "geometry": { "type": "Point", "coordinates": [ 139.918527139843917, 37.494199728587375 ] } },
{ "type": "Feature", "properties": { "P29_001": "07203", "P29_002": "A207320321012", "P29_003": "16013", "P29_004": "希望ヶ丘こども園", "P29_005": "福島県郡山市富田町十文字31", "P29_006": "4", "P29_007": "0", "P29_008": "00", "P29_009": null }, "geometry": { "type": "Point", "coordinates": [ 140.344199866974009, 37.413617763126581 ] } },
{ "type": "Feature", "properties": { "P29_001": "07203", "P29_002": "A207320321021", "P29_003": "16013", "P29_004": "菜根こども園　　", "P29_005": "福島県郡山市菜根1-13-20", "P29_006": "4", "P29_007": "0", "P29_008": "00", "P29_009": null }, "geometry": { "type": "Point", "coordinates": [ 140.363715998635058, 37.387674174460834 ] } },
{ "type": "Feature", "properties": { "P29_001": "07203", "P29_002": "A207320321030", "P29_003": "16013", "P29_004": "エムポリアムこども園", "P29_005": "福島県郡山市堤下町5-15", "P29_006": "4", "P29_007": "0", "P29_008": "00", "P29_009": null }, "geometry": { "type": "Point", "coordinates": [ 140.379611757328291, 37.390455514464215 ] } },
{ "type": "Feature", "properties": { "P29_001": "07203", "P29_002": "A207320321049", "P29_003": "16013", "P29_004": "認定こども園八山田こども園", "P29_005": "福島県郡山市東原1-42", "P29_006": "4", "P29_007": "0", "P29_008": "00", "P29_009": null }, "geometry": { "type": "Point", "coordinates": [ 140.356120608590459, 37.428341367063439 ] } },
{ "type": "Feature", "properties": { "P29_001": "07203", "P29_002": "A207320321058", "P29_003": "16013", "P29_004": "ことりやまこども園", "P29_005": "福島県郡山市日和田町字向山22-5", "P29_006": "4", "P29_007": "0", "P29_008": "00", "P29_009": null }, "geometry": { "type": "Point", "coordinates": [ 140.388246128723296, 37.438891947708186 ] } },
{ "type": "Feature", "properties": { "P29_001": "07203", "P29_002": "A207320321067", "P29_003": "16013", "P29_004": "片平こども園", "P29_005": "福島県郡山市片平町字石切り場69-1", "P29_006": "4", "P29_007": "0", "P29_008": "00", "P29_009": null }, "geometry": { "type": "Point", "coordinates": [ 140.320954926083061, 37.420319493633357 ] } },
{ "type": "Feature", "properties": { "P29_001": "07204", "P29_002": "A207320421011", "P29_003": "16013", "P29_004": "学校法人星学園　錦星　幼保連携型認定こども園", "P29_005": "福島県いわき市錦町花ノ井18", "P29_006": "4", "P29_007": "0", "P29_008": "00", "P29_009": null }, "geometry": { "type": "Point", "coordinates": [ 140.776296664914696, 36.911761101900566 ] } },
{ "type": "Feature", "properties": { "P29_001": "07204", "P29_002": "A207320421020", "P29_003": "16013", "P29_004": "認定こども園　あそびの森こども園　船戸幼稚園", "P29_005": "福島県いわき市鹿島町船戸字堤7", "P29_006": "4", "P29_007": "0", "P29_008": "00", "P29_009": null }, "geometry": { "type": "Point", "coordinates": [ 140.90592841588915, 36.98266110107069 ] } },
{ "type": "Feature", "properties": { "P29_001": "07204", "P29_002": "A207320421039", "P29_003": "16013", "P29_004": "認定こども園りんごの木", "P29_005": "福島県いわき市平谷川瀬字仲山町25", "P29_006": "4", "P29_007": "0", "P29_008": "00", "P29_009": null }, "geometry": { "type": "Point", "coordinates": [ 140.896009435261362, 37.047244469117494 ] } },
{ "type": "Feature", "properties": { "P29_001": "07204", "P29_002": "A207320421048", "P29_003": "16013", "P29_004": "久之浜こども園", "P29_005": "福島県いわき市大久町小久字連郷15-1", "P29_006": "4", "P29_007": "0", "P29_008": "00", "P29_009": null }, "geometry": { "type": "Point", "coordinates": [ 140.990837487924949, 37.143020105555429 ] } },
{ "type": "Feature", "properties": { "P29_001": "07204", "P29_002": "A207320421057", "P29_003": "16013", "P29_004": "平幼稚園", "P29_005": "福島県いわき市明治団地80-5", "P29_006": "4", "P29_007": "0", "P29_008": "00", "P29_009": null }, "geometry": { "type": "Point", "coordinates": [ 140.884936209442373, 37.042735522151105 ] } },
{ "type": "Feature", "properties": { "P29_001": "07204", "P29_002": "A207320421066", "P29_003": "16013", "P29_004": "神谷こども園", "P29_005": "福島県いわき市平中神谷字南鳥沼26", "P29_006": "4", "P29_007": "0", "P29_008": "00", "P29_009": null }, "geometry": { "type": "Point", "coordinates": [ 140.934977169986723, 37.06374457667004 ] } },
{ "type": "Feature", "properties": { "P29_001": "07204", "P29_002": "A207320421075", "P29_003": "16013", "P29_004": "九品寺こども園", "P29_005": "福島県いわき市平九品寺町3-2", "P29_006": "4", "P29_007": "0", "P29_008": "00", "P29_009": null }, "geometry": { "type": "Point", "coordinates": [ 140.896183002262347, 37.063217002546651 ] } },
{ "type": "Feature", "properties": { "P29_001": "07204", "P29_002": "A207320421084", "P29_003": "16013", "P29_004": "幼保連携認定こども園わかぎ幼稚園", "P29_005": "福島県いわき市小名浜字下明神町33-1", "P29_006": "4", "P29_007": "0", "P29_008": "00", "P29_009": null }, "geometry": { "type": "Point", "coordinates": [ 140.908499473046987, 36.950822952738228 ] } },
{ "type": "Feature", "properties": { "P29_001": "07204", "P29_002": "A207320421093", "P29_003": "16013", "P29_004": "さとがおかキンダーガーデン", "P29_005": "福島県いわき市郷ヶ丘3-18-3", "P29_006": "4", "P29_007": "0", "P29_008": "00", "P29_009": null }, "geometry": { "type": "Point", "coordinates": [ 140.911417468634937, 37.028485361729402 ] } },
{ "type": "Feature", "properties": { "P29_001": "07204", "P29_002": "A207320421100", "P29_003": "16013", "P29_004": "学校法人志賀学園松の実こども園", "P29_005": "福島県いわき市常磐松久須根町内田1-1", "P29_006": "4", "P29_007": "0", "P29_008": "00", "P29_009": null }, "geometry": { "type": "Point", "coordinates": [ 140.904801705883017, 37.011291252040188 ] } },
{ "type": "Feature", "properties": { "P29_001": "07204", "P29_002": "A207320421119", "P29_003": "16013", "P29_004": "リズムの丘こども園", "P29_005": "福島県いわき市勿来町関田北昨115", "P29_006": "4", "P29_007": "0", "P29_008": "00", "P29_009": null }, "geometry": { "type": "Point", "coordinates": [ 140.783369058259524, 36.882922953926382 ] } },
{ "type": "Feature", "properties": { "P29_001": "07204", "P29_002": "A207320421128", "P29_003": "16013", "P29_004": "学校法人星学園幼保連携型認定こども園泉幼稚園", "P29_005": "福島県いわき市泉町4-5-3", "P29_006": "4", "P29_007": "0", "P29_008": "00", "P29_009": null }, "geometry": { "type": "Point", "coordinates": [ 140.852292187614893, 36.949742956191002 ] } },
{ "type": "Feature", "properties": { "P29_001": "07204", "P29_002": "A207320421137", "P29_003": "16013", "P29_004": "あざみ野こども園", "P29_005": "福島県いわき市川部町赤坂110", "P29_006": "4", "P29_007": "0", "P29_008": "00", "P29_009": null }, "geometry": { "type": "Point", "coordinates": [ 140.728996189247681, 36.904019894004321 ] } },
{ "type": "Feature", "properties": { "P29_001": "07204", "P29_002": "A207320421146", "P29_003": "16013", "P29_004": "認定こども園平第一幼稚園", "P29_005": "福島県いわき市平山崎熊ノ宮53-1", "P29_006": "4", "P29_007": "0", "P29_008": "00", "P29_009": null }, "geometry": { "type": "Point", "coordinates": [ 140.939846094414634, 37.056600698174648 ] } },
{ "type": "Feature", "properties": { "P29_001": "07205", "P29_002": "A207320521010", "P29_003": "16013", "P29_004": "認定こども園ぼだい樹", "P29_005": "福島県白河市字郭内1-130", "P29_006": "4", "P29_007": "0", "P29_008": "00", "P29_009": null }, "geometry": { "type": "Point", "coordinates": [ 140.214868297255975, 37.130690615995661 ] } },
{ "type": "Feature", "properties": { "P29_001": "07205", "P29_002": "A207320521029", "P29_003": "16013", "P29_004": "認定こども園さくらの木", "P29_005": "福島県白河市字豊年31", "P29_006": "4", "P29_007": "0", "P29_008": "00", "P29_009": null }, "geometry": { "type": "Point", "coordinates": [ 140.220909414544906, 37.119908727699048 ] } },
{ "type": "Feature", "properties": { "P29_001": "07205", "P29_002": "A207320521038", "P29_003": "16013", "P29_004": "ぼだい樹西こども園", "P29_005": "福島県白河市転坂96", "P29_006": "4", "P29_007": "0", "P29_008": "00", "P29_009": null }, "geometry": { "type": "Point", "coordinates": [ 140.199581279832671, 37.122767603471729 ] } },
{ "type": "Feature", "properties": { "P29_001": "07205", "P29_002": "A207320521047", "P29_003": "16013", "P29_004": "認定こども園らのみな", "P29_005": "福島県白河市西三坂38-1", "P29_006": "4", "P29_007": "0", "P29_008": "00", "P29_009": null }, "geometry": { "type": "Point", "coordinates": [ 140.195237661269971, 37.107153871178397 ] } },
{ "type": "Feature", "properties": { "P29_001": "07207", "P29_002": "A207320721018", "P29_003": "16013", "P29_004": "認定こども園くるみの木", "P29_005": "福島県須賀川市日向町194", "P29_006": "4", "P29_007": "0", "P29_008": "00", "P29_009": null }, "geometry": { "type": "Point", "coordinates": [ 140.352672100671668, 37.298182687248797 ] } },
{ "type": "Feature", "properties": { "P29_001": "07207", "P29_002": "A207320721027", "P29_003": "16013", "P29_004": "認定こども園オリーブの木", "P29_005": "福島県須賀川市並木町180-3", "P29_006": "4", "P29_007": "0", "P29_008": "00", "P29_009": null }, "geometry": { "type": "Point", "coordinates": [ 140.370939269155798, 37.276943041329815 ] } },
{ "type": "Feature", "properties": { "P29_001": "07207", "P29_002": "A207320721036", "P29_003": "16013", "P29_004": "認定こども園天泉こども園", "P29_005": "福島県須賀川市上北町45", "P29_006": "4", "P29_007": "0", "P29_008": "00", "P29_009": null }, "geometry": { "type": "Point", "coordinates": [ 140.375405920183567, 37.292793743373451 ] } },
{ "type": "Feature", "properties": { "P29_001": "07207", "P29_002": "A207320721045", "P29_003": "16013", "P29_004": "認定こども園すぎのここども園", "P29_005": "福島県須賀川市西川池ノ上52-36", "P29_006": "4", "P29_007": "0", "P29_008": "00", "P29_009": null }, "geometry": { "type": "Point", "coordinates": [ 140.365017923295767, 37.306773839888933 ] } },
{ "type": "Feature", "properties": { "P29_001": "07207", "P29_002": "A207320721054", "P29_003": "16013", "P29_004": "認定こども園プリムラこども園", "P29_005": "福島県須賀川市森宿安積田184-1", "P29_006": "4", "P29_007": "0", "P29_008": "00", "P29_009": null }, "geometry": { "type": "Point", "coordinates": [ 140.362829747156354, 37.318874159570051 ] } },
{ "type": "Feature", "properties": { "P29_001": "07207", "P29_002": "A207320721063", "P29_003": "16013", "P29_004": "認定こども園　おひさまなのはなこども園", "P29_005": "福島県須賀川市森宿字狐石122-1", "P29_006": "4", "P29_007": "0", "P29_008": "00", "P29_009": null }, "geometry": { "type": "Point", "coordinates": [ 140.359843003674882, 37.307908000394605 ] } },
{ "type": "Feature", "properties": { "P29_001": "07207", "P29_002": "A207320721072", "P29_003": "16013", "P29_004": "認定こども園りのひら", "P29_005": "福島県須賀川市和田道146", "P29_006": "4", "P29_007": "0", "P29_008": "00", "P29_009": null }, "geometry": { "type": "Point", "coordinates": [ 140.390781136352331, 37.283694318128603 ] } },
{ "type": "Feature", "properties": { "P29_001": "07207", "P29_002": "A207320721081", "P29_003": "16013", "P29_004": "認定こども園らみどり", "P29_005": "福島県須賀川市緑町1-1", "P29_006": "4", "P29_007": "0", "P29_008": "00", "P29_009": null }, "geometry": { "type": "Point", "coordinates": [ 140.385918302641585, 37.289544215222165 ] } },
{ "type": "Feature", "properties": { "P29_001": "07209", "P29_002": "A207320921016", "P29_003": "16013", "P29_004": "幼保連携型認定こども園みどり幼稚園", "P29_005": "福島県相馬市中村字大手先39", "P29_006": "4", "P29_007": "0", "P29_008": "00", "P29_009": null }, "geometry": { "type": "Point", "coordinates": [ 140.917003287650488, 37.795616601007303 ] } },
{ "type": "Feature", "properties": { "P29_001": "07210", "P29_002": "A207321021013", "P29_003": "16013", "P29_004": "学校法人まゆみ学園　認定こども園まゆみ", "P29_005": "福島県二本松市竹田2-133", "P29_006": "4", "P29_007": "0", "P29_008": "00", "P29_009": null }, "geometry": { "type": "Point", "coordinates": [ 140.447743676335108, 37.601525376521273 ] } },
{ "type": "Feature", "properties": { "P29_001": "07210", "P29_002": "A207321021022", "P29_003": "16013", "P29_004": "認定こども園子どもの館", "P29_005": "福島県二本松市中里49-12", "P29_006": "4", "P29_007": "0", "P29_008": "00", "P29_009": null }, "geometry": { "type": "Point", "coordinates": [ 140.422441090703785, 37.577337526276033 ] } },
{ "type": "Feature", "properties": { "P29_001": "07210", "P29_002": "A207321021031", "P29_003": "16013", "P29_004": "認定こども園まゆみぷらす", "P29_005": "福島県二本松市油井字石倉80-1", "P29_006": "4", "P29_007": "0", "P29_008": "00", "P29_009": null }, "geometry": { "type": "Point", "coordinates": [ 140.458845115878404, 37.615003522298011 ] } },
{ "type": "Feature", "properties": { "P29_001": "07211", "P29_002": "A207321121012", "P29_003": "16013", "P29_004": "認定こども園わかくさ", "P29_005": "福島県田村市船引町船引字平舘66", "P29_006": "4", "P29_007": "0", "P29_008": "00", "P29_009": null }, "geometry": { "type": "Point", "coordinates": [ 140.57861002364902, 37.439643944215611 ] } },
{ "type": "Feature", "properties": { "P29_001": "07212", "P29_002": "A207321221011", "P29_003": "16013", "P29_004": "認定こども園原町聖愛こども園", "P29_005": "福島県南相馬市原町区二見町1-80-1", "P29_006": "4", "P29_007": "0", "P29_008": "00", "P29_009": null }, "geometry": { "type": "Point", "coordinates": [ 140.964984612932966, 37.633250668263848 ] } },
{ "type": "Feature", "properties": { "P29_001": "07213", "P29_002": "A207321321010", "P29_003": "16013", "P29_004": "認定こども園大田", "P29_005": "福島県伊達市保原町大泉字前原内246-1", "P29_006": "4", "P29_007": "0", "P29_008": "00", "P29_009": null }, "geometry": { "type": "Point", "coordinates": [ 140.574771497889088, 37.825528083387908 ] } },
{ "type": "Feature", "properties": { "P29_001": "07213", "P29_002": "A207321321029", "P29_003": "16013", "P29_004": "認定こども園上保原", "P29_005": "福島県伊達市保原町上保原字上ノ原22-2", "P29_006": "4", "P29_007": "0", "P29_008": "00", "P29_009": null }, "geometry": { "type": "Point", "coordinates": [ 140.54021100317388, 37.812387002318083 ] } },
{ "type": "Feature", "properties": { "P29_001": "07213", "P29_002": "A207321321038", "P29_003": "16013", "P29_004": "霊山三育認定子ども園", "P29_005": "福島県伊達市霊山町掛田字北谷津7-3", "P29_006": "4", "P29_007": "0", "P29_008": "00", "P29_009": null }, "geometry": { "type": "Point", "coordinates": [ 140.591729095847285, 37.788598599320451 ] } },
{ "type": "Feature", "properties": { "P29_001": "07213", "P29_002": "A207321321047", "P29_003": "16013", "P29_004": "社会福祉法人桑の実福祉会認定こども園伊達こども園", "P29_005": "福島県伊達市中道10", "P29_006": "4", "P29_007": "0", "P29_008": "00", "P29_009": null }, "geometry": { "type": "Point", "coordinates": [ 140.491915988222246, 37.820292217226772 ] } },
{ "type": "Feature", "properties": { "P29_001": "07213", "P29_002": "A207321321056", "P29_003": "16013", "P29_004": "幼保連携型認定こども園神愛幼稚園", "P29_005": "福島県伊達市霊山町掛田字辻向6-1", "P29_006": "4", "P29_007": "0", "P29_008": "00", "P29_009": null }, "geometry": { "type": "Point", "coordinates": [ 140.59674442513159, 37.781374048910138 ] } },
{ "type": "Feature", "properties": { "P29_001": "07342", "P29_002": "A207334221014", "P29_003": "16013", "P29_004": "認定こども園ぶどうの木", "P29_005": "福島県岩瀬郡鏡石町前山72", "P29_006": "4", "P29_007": "0", "P29_008": "00", "P29_009": null }, "geometry": { "type": "Point", "coordinates": [ 140.338349375050768, 37.250707822490256 ] } },
{ "type": "Feature", "properties": { "P29_001": "07342", "P29_002": "A207334221023", "P29_003": "16013", "P29_004": "認定こども園こどもの杜岡ノ内幼稚園", "P29_005": "福島県岩瀬郡鏡石町岡ノ内14-8", "P29_006": "4", "P29_007": "0", "P29_008": "00", "P29_009": null }, "geometry": { "type": "Point", "coordinates": [ 140.339647344091304, 37.258180411219151 ] } },
{ "type": "Feature", "properties": { "P29_001": "07447", "P29_002": "A207344721018", "P29_003": "16013", "P29_004": "認定こども園ひかり", "P29_005": "福島県大沼郡会津美里町字新布才地2", "P29_006": "4", "P29_007": "0", "P29_008": "00", "P29_009": null }, "geometry": { "type": "Point", "coordinates": [ 139.835230886393333, 37.466140399752433 ] } },
{ "type": "Feature", "properties": { "P29_001": "07447", "P29_002": "A207344721027", "P29_003": "16013", "P29_004": "認定こども園きぼう", "P29_005": "福島県大沼郡会津美里町永井野字宮前1703-1", "P29_006": "4", "P29_007": "0", "P29_008": "00", "P29_009": null }, "geometry": { "type": "Point", "coordinates": [ 139.826826546915413, 37.445292833409631 ] } },
{ "type": "Feature", "properties": { "P29_001": "07466", "P29_002": "A207346621014", "P29_003": "16013", "P29_004": "認定こども園ポプラの木", "P29_005": "福島県西白河郡矢吹町本町142", "P29_006": "4", "P29_007": "0", "P29_008": "00", "P29_009": null }, "geometry": { "type": "Point", "coordinates": [ 140.327681725026395, 37.206568525317977 ] } },
{ "type": "Feature", "properties": { "P29_001": "07466", "P29_002": "A207346621023", "P29_003": "16013", "P29_004": "認定こども園野のはな", "P29_005": "福島県西白河郡矢吹町善郷内14-3", "P29_006": "4", "P29_007": "0", "P29_008": "00", "P29_009": null }, "geometry": { "type": "Point", "coordinates": [ 140.332558004244731, 37.211150002696336 ] } },
{ "type": "Feature", "properties": { "P29_001": "07501", "P29_002": "A207350121011", "P29_003": "16013", "P29_004": "認定こども園石川文化幼稚園・クローバー保育園", "P29_005": "福島県石川郡石川町字当町67-2", "P29_006": "4", "P29_007": "0", "P29_008": "00", "P29_009": null }, "geometry": { "type": "Point", "coordinates": [ 140.446229365624447, 37.143203228480758 ] } },
{ "type": "Feature", "properties": { "P29_001": "07502", "P29_002": "A207350221010", "P29_003": "16013", "P29_004": "認定こども園たまかわクックの森", "P29_005": "福島県石川郡玉川村大字川辺字金波59-2", "P29_006": "4", "P29_007": "0", "P29_008": "00", "P29_009": null }, "geometry": { "type": "Point", "coordinates": [ 140.417902056535922, 37.202506562848249 ] } },
{ "type": "Feature", "properties": { "P29_001": "07521", "P29_002": "A207352121017", "P29_003": "16013", "P29_004": "認定こども園三春幼保園", "P29_005": "福島県田村郡三春町大字貝山字岩田100", "P29_006": "4", "P29_007": "0", "P29_008": "00", "P29_009": null }, "geometry": { "type": "Point", "coordinates": [ 140.484860997897556, 37.437595002483555 ] } },
{ "type": "Feature", "properties": { "P29_001": "07522", "P29_002": "A207352221016", "P29_003": "16013", "P29_004": "おのまち認定こども園", "P29_005": "福島県田村郡小野町谷津作字谷津98-1", "P29_006": "4", "P29_007": "0", "P29_008": "00", "P29_009": null }, "geometry": { "type": "Point", "coordinates": [ 140.630021801904576, 37.273958554326271 ] } }
]
}
