{
"type": "FeatureCollection",
"name": "geo_07_短期入所療養介護（介護老人保健施設）",
"crs": { "type": "name", "properties": { "name": "urn:ogc:def:crs:OGC:1.3:CRS84" } },
"features": [
{ "type": "Feature", "properties": { "内容": "介護老人保健施設　「聖・オリーブの郷」【短期入所療養介護（介護老人保健施設）】福島県福島市山口字梅本１１－１", "url2": "https://www.kaigokensaku.mhlw.go.jp/07/index.php?action_kouhyou_detail_004_kani=true&JigyosyoCd=0750185027-00&ServiceCd=220&Type=search" }, "geometry": { "type": "Point", "coordinates": [ 140.513666100000023, 37.7668537 ] } },
{ "type": "Feature", "properties": { "内容": "医療法人　生愛会　附属介護老人保健施設　生愛会ナーシングケアセンター【短期入所療養介護（介護老人保健施設）】福島県福島市大笹生字向平１３－１", "url2": "https://www.kaigokensaku.mhlw.go.jp/07/index.php?action_kouhyou_detail_004_kani=true&JigyosyoCd=0750185035-00&ServiceCd=220&Type=search" }, "geometry": { "type": "Point", "coordinates": [ 140.39175130000001, 37.796467 ] } },
{ "type": "Feature", "properties": { "内容": "介護老人保健施設　ケアフォーラムあづま【短期入所療養介護（介護老人保健施設）】福島県福島市大森字柳下４８番地の１", "url2": "https://www.kaigokensaku.mhlw.go.jp/07/index.php?action_kouhyou_detail_004_kani=true&JigyosyoCd=0750180036-00&ServiceCd=220&Type=search" }, "geometry": { "type": "Point", "coordinates": [ 140.444748299999986, 37.7388828 ] } },
{ "type": "Feature", "properties": { "内容": "介護老人保健施設　ケアタウンひまわり短期入所療養介護【短期入所療養介護（介護老人保健施設）】福島県福島市伏拝字沼ノ上2-17", "url2": "https://www.kaigokensaku.mhlw.go.jp/07/index.php?action_kouhyou_detail_004_kani=true&JigyosyoCd=0750180051-00&ServiceCd=220&Type=search" }, "geometry": { "type": "Point", "coordinates": [ 140.4675532, 37.7113198 ] } },
{ "type": "Feature", "properties": { "内容": "介護老人保健施設はなひらの【短期入所療養介護（介護老人保健施設）】福島県福島市飯坂町平野字小深田1-5", "url2": "https://www.kaigokensaku.mhlw.go.jp/07/index.php?action_kouhyou_detail_004_kani=true&JigyosyoCd=0750185043-00&ServiceCd=220&Type=search" }, "geometry": { "type": "Point", "coordinates": [ 140.44077429999993, 37.8015067 ] } },
{ "type": "Feature", "properties": { "内容": "介護老人保健施設「聖・オリーブの郷」東館【短期入所療養介護（介護老人保健施設）】福島県福島市山口字四至田１－１", "url2": "https://www.kaigokensaku.mhlw.go.jp/07/index.php?action_kouhyou_detail_004_kani=true&JigyosyoCd=0750180028-00&ServiceCd=220&Type=search" }, "geometry": { "type": "Point", "coordinates": [ 140.514171799999986, 37.7641567 ] } },
{ "type": "Feature", "properties": { "内容": "老人保健施設にじのまち【短期入所療養介護（介護老人保健施設）】福島県福島市北沢又字番匠田5", "url2": "https://www.kaigokensaku.mhlw.go.jp/07/index.php?action_kouhyou_detail_004_kani=true&JigyosyoCd=0750185050-00&ServiceCd=220&Type=search" }, "geometry": { "type": "Point", "coordinates": [ 140.4346031, 37.7854746 ] } },
{ "type": "Feature", "properties": { "内容": "介護老人保健施設　ホリスティカかまた【短期入所療養介護（介護老人保健施設）】福島県福島市鎌田字門丈壇4番1", "url2": "https://www.kaigokensaku.mhlw.go.jp/07/index.php?action_kouhyou_detail_004_kani=true&JigyosyoCd=0750180069-00&ServiceCd=220&Type=search" }, "geometry": { "type": "Point", "coordinates": [ 140.480304199999978, 37.7962722 ] } },
{ "type": "Feature", "properties": { "内容": "敬愛シニアガーデン卸町【短期入所療養介護（介護老人保健施設）】福島県福島市鎌田字卸町８－１", "url2": "https://www.kaigokensaku.mhlw.go.jp/07/index.php?action_kouhyou_detail_004_kani=true&JigyosyoCd=0750180077-00&ServiceCd=220&Type=search" }, "geometry": { "type": "Point", "coordinates": [ 140.480812600000036, 37.7942113 ] } },
{ "type": "Feature", "properties": { "内容": "一般財団法人脳神経疾患研究　介護老人保健施設リハビリ南東北福島【短期入所療養介護（介護老人保健施設）】福島県福島市荒井北3丁目1-18", "url2": "https://www.kaigokensaku.mhlw.go.jp/07/index.php?action_kouhyou_detail_004_kani=true&JigyosyoCd=0750180010-00&ServiceCd=220&Type=search" }, "geometry": { "type": "Point", "coordinates": [ 140.387077331542969, 37.725576760111856 ] } },
{ "type": "Feature", "properties": { "内容": "介護老人保健施設　美野里　短期入所療養介護事業所【短期入所療養介護（介護老人保健施設）】福島県会津若松市北会津町東小松字南古川12番地", "url2": "https://www.kaigokensaku.mhlw.go.jp/07/index.php?action_kouhyou_detail_004_kani=true&JigyosyoCd=0752485011-00&ServiceCd=220&Type=search" }, "geometry": { "type": "Point", "coordinates": [ 139.890953500000023, 37.4724038 ] } },
{ "type": "Feature", "properties": { "内容": "一般財団法人　竹田健康財団　介護老人保健施設エミネンス芦ノ牧【短期入所療養介護（介護老人保健施設）】福島県会津若松市大戸町大字芦牧字湯平５２７－１", "url2": "https://www.kaigokensaku.mhlw.go.jp/07/index.php?action_kouhyou_detail_004_kani=true&JigyosyoCd=0750285025-00&ServiceCd=220&Type=search" }, "geometry": { "type": "Point", "coordinates": [ 139.913792699999931, 37.3641367 ] } },
{ "type": "Feature", "properties": { "内容": "介護老人保健施設　啓寿園【短期入所療養介護（介護老人保健施設）】福島県郡山市安積町笹川字経坦31番地", "url2": "https://www.kaigokensaku.mhlw.go.jp/07/index.php?action_kouhyou_detail_004_kani=true&JigyosyoCd=0750385015-00&ServiceCd=220&Type=search" }, "geometry": { "type": "Point", "coordinates": [ 140.363743900000031, 37.3487957 ] } },
{ "type": "Feature", "properties": { "内容": "介護老人保健施設コスモス通り【短期入所療養介護（介護老人保健施設）】福島県郡山市鳴神三丁目１１０番地", "url2": "https://www.kaigokensaku.mhlw.go.jp/07/index.php?action_kouhyou_detail_004_kani=true&JigyosyoCd=0750385049-00&ServiceCd=220&Type=search" }, "geometry": { "type": "Point", "coordinates": [ 140.3350613, 37.3940124 ] } },
{ "type": "Feature", "properties": { "内容": "介護老人保健施設　さかえハートみらい【短期入所療養介護（介護老人保健施設）】郡山市東原３丁目１１２", "url2": "https://www.kaigokensaku.mhlw.go.jp/07/index.php?action_kouhyou_detail_004_kani=true&JigyosyoCd=0750380024-00&ServiceCd=220&Type=search" }, "geometry": { "type": "Point", "coordinates": [ 140.354744300000021, 37.43272590000003 ] } },
{ "type": "Feature", "properties": { "内容": "介護老人保健施設　ゴールドメディア【短期入所療養介護（介護老人保健施設）】福島県郡山市八山田七丁目136", "url2": "https://www.kaigokensaku.mhlw.go.jp/07/index.php?action_kouhyou_detail_004_kani=true&JigyosyoCd=0750385031-00&ServiceCd=220&Type=search" }, "geometry": { "type": "Point", "coordinates": [ 140.3837476, 37.4216411 ] } },
{ "type": "Feature", "properties": { "内容": "一般財団法人太田綜合病院附属介護老人保健施設桔梗【短期入所療養介護（介護老人保健施設）】福島県郡山市熱海町玉川字万海田46番地7", "url2": "https://www.kaigokensaku.mhlw.go.jp/07/index.php?action_kouhyou_detail_004_kani=true&JigyosyoCd=0750385056-00&ServiceCd=220&Type=search" }, "geometry": { "type": "Point", "coordinates": [ 140.287513027318766, 37.482461358743024 ] } },
{ "type": "Feature", "properties": { "内容": "介護老人保健施設　光の森　指定短期入所療養介護事業所【短期入所療養介護（介護老人保健施設）】福島県郡山市横川町字遠後５０－１", "url2": "https://www.kaigokensaku.mhlw.go.jp/07/index.php?action_kouhyou_detail_004_kani=true&JigyosyoCd=0750385072-00&ServiceCd=220&Type=search" }, "geometry": { "type": "Point", "coordinates": [ 140.415273699999943, 37.3913759 ] } },
{ "type": "Feature", "properties": { "内容": "社会福祉法人　昌平黌　介護老人保健施設　二ツ箭荘【短期入所療養介護（介護老人保健施設）】福島県いわき市小川町上小川字大坂68-1", "url2": "https://www.kaigokensaku.mhlw.go.jp/07/index.php?action_kouhyou_detail_004_kani=true&JigyosyoCd=0750485021-00&ServiceCd=220&Type=search" }, "geometry": { "type": "Point", "coordinates": [ 140.8568922, 37.141566 ] } },
{ "type": "Feature", "properties": { "内容": "介護老人保健施設　ヒーリングホーム四倉【短期入所療養介護（介護老人保健施設）】福島県いわき市四倉町下仁井田南追切２３番地", "url2": "https://www.kaigokensaku.mhlw.go.jp/07/index.php?action_kouhyou_detail_004_kani=true&JigyosyoCd=0750485070-00&ServiceCd=220&Type=search" }, "geometry": { "type": "Point", "coordinates": [ 140.97247010000001, 37.0898475 ] } },
{ "type": "Feature", "properties": { "内容": "介護老人保健施設　佳勝園【短期入所療養介護（介護老人保健施設）】福島県いわき市金山町月見台134-1", "url2": "https://www.kaigokensaku.mhlw.go.jp/07/index.php?action_kouhyou_detail_004_kani=true&JigyosyoCd=0750480030-00&ServiceCd=220&Type=search" }, "geometry": { "type": "Point", "coordinates": [ 140.83124620000001, 36.9249125 ] } },
{ "type": "Feature", "properties": { "内容": "介護老人保健施設　ガーデニア【短期入所療養介護（介護老人保健施設）】福島県いわき市錦町落合１番地１", "url2": "https://www.kaigokensaku.mhlw.go.jp/07/index.php?action_kouhyou_detail_004_kani=true&JigyosyoCd=0750480022-00&ServiceCd=220&Type=search" }, "geometry": { "type": "Point", "coordinates": [ 140.7825911, 36.8999052 ] } },
{ "type": "Feature", "properties": { "内容": "介護老人保健施設　小名浜ときわ苑【短期入所療養介護（介護老人保健施設）】福島県いわき市小名浜金成字町田18-1", "url2": "https://www.kaigokensaku.mhlw.go.jp/07/index.php?action_kouhyou_detail_004_kani=true&JigyosyoCd=0750480055-00&ServiceCd=220&Type=search" }, "geometry": { "type": "Point", "coordinates": [ 140.897140400000012, 36.988131 ] } },
{ "type": "Feature", "properties": { "内容": "介護老人保健施設　小名浜ときわ苑【短期入所療養介護（介護老人保健施設）】福島県いわき市小名浜金成字町田18-1", "url2": "https://www.kaigokensaku.mhlw.go.jp/07/index.php?action_kouhyou_detail_004_kani=true&JigyosyoCd=0750485088-00&ServiceCd=220&Type=search" }, "geometry": { "type": "Point", "coordinates": [ 140.897140400000012, 36.988131 ] } },
{ "type": "Feature", "properties": { "内容": "医療法人社団秀友会介護老人保健施設サンライフゆもと指定短期入所療養介護【短期入所療養介護（介護老人保健施設）】福島県いわき市常磐藤原町大畑13-１", "url2": "https://www.kaigokensaku.mhlw.go.jp/07/index.php?action_kouhyou_detail_004_kani=true&JigyosyoCd=0750485013-00&ServiceCd=220&Type=search" }, "geometry": { "type": "Point", "coordinates": [ 140.813527799999946, 37.0011338 ] } },
{ "type": "Feature", "properties": { "内容": "介護老人保健施設　うらら苑【短期入所療養介護（介護老人保健施設）】福島県いわき市常磐長孫町大平８０番地", "url2": "https://www.kaigokensaku.mhlw.go.jp/07/index.php?action_kouhyou_detail_004_kani=true&JigyosyoCd=0750485047-00&ServiceCd=220&Type=search" }, "geometry": { "type": "Point", "coordinates": [ 140.85331, 36.9718245 ] } },
{ "type": "Feature", "properties": { "内容": "医療法人桂生会介護老人保健施設四季庵【短期入所療養介護（介護老人保健施設）】福島県いわき市好間町中好間字六反歩１－４６", "url2": "https://www.kaigokensaku.mhlw.go.jp/07/index.php?action_kouhyou_detail_004_kani=true&JigyosyoCd=0750485096-00&ServiceCd=220&Type=search" }, "geometry": { "type": "Point", "coordinates": [ 140.842824899999982, 37.0515256 ] } },
{ "type": "Feature", "properties": { "内容": "介護老人保健施設　楢葉ときわ苑【短期入所療養介護（介護老人保健施設）】福島県いわき市内郷高坂町四方木田155（仮設）", "url2": "https://www.kaigokensaku.mhlw.go.jp/07/index.php?action_kouhyou_detail_004_kani=true&JigyosyoCd=0753280023-00&ServiceCd=220&Type=search" }, "geometry": { "type": "Point", "coordinates": [ 140.865546216206326, 37.044731737107483 ] } },
{ "type": "Feature", "properties": { "内容": "医療法人社団正風会　介護老人保健施設　いきがい村【短期入所療養介護（介護老人保健施設）】福島県いわき市小浜町東ノ作１６４の２番地", "url2": "https://www.kaigokensaku.mhlw.go.jp/07/index.php?action_kouhyou_detail_004_kani=true&JigyosyoCd=0750485104-00&ServiceCd=220&Type=search" }, "geometry": { "type": "Point", "coordinates": [ 140.843004899999983, 36.9170222 ] } },
{ "type": "Feature", "properties": { "内容": "介護老人保健施設ひもろぎの園【短期入所療養介護（介護老人保健施設）】福島県白河市関辺川前88", "url2": "https://www.kaigokensaku.mhlw.go.jp/07/index.php?action_kouhyou_detail_004_kani=true&JigyosyoCd=0750585010-00&ServiceCd=220&Type=search" }, "geometry": { "type": "Point", "coordinates": [ 140.2509155, 37.0953942 ] } },
{ "type": "Feature", "properties": { "内容": "介護老人保健施設アネシス【短期入所療養介護（介護老人保健施設）】福島県須賀川市稲字古舘３９－２", "url2": "https://www.kaigokensaku.mhlw.go.jp/07/index.php?action_kouhyou_detail_004_kani=true&JigyosyoCd=0750785016-00&ServiceCd=220&Type=search" }, "geometry": { "type": "Point", "coordinates": [ 140.326414399999976, 37.2858264 ] } },
{ "type": "Feature", "properties": { "内容": "介護老人保健施設　南東北春日リハビリテーション・ケアセンター【短期入所療養介護（介護老人保健施設）】福島県須賀川市南上町１２３番地の１", "url2": "https://www.kaigokensaku.mhlw.go.jp/07/index.php?action_kouhyou_detail_004_kani=true&JigyosyoCd=0750780025-00&ServiceCd=220&Type=search" }, "geometry": { "type": "Point", "coordinates": [ 140.386523500000067, 37.2834807 ] } },
{ "type": "Feature", "properties": { "内容": "介護老人保健施設オープンアームズ【短期入所療養介護（介護老人保健施設）】須賀川市西川字池の上５１－１０２", "url2": "https://www.kaigokensaku.mhlw.go.jp/07/index.php?action_kouhyou_detail_004_kani=true&JigyosyoCd=0750785024-00&ServiceCd=220&Type=search" }, "geometry": { "type": "Point", "coordinates": [ 140.366751, 37.30712 ] } },
{ "type": "Feature", "properties": { "内容": "介護老人保健施設　　南東北春日リハビリテーション・ケアセンター【短期入所療養介護（介護老人保健施設）】福島県須賀川市南上町１２３番地ー１", "url2": "https://www.kaigokensaku.mhlw.go.jp/07/index.php?action_kouhyou_detail_004_kani=true&JigyosyoCd=0750780017-00&ServiceCd=220&Type=search" }, "geometry": { "type": "Point", "coordinates": [ 140.386445699999967, 37.2834419 ] } },
{ "type": "Feature", "properties": { "内容": "介護老人保健施設　天心ケアハイツ【短期入所療養介護（介護老人保健施設）】福島県喜多方市松山町村松字北原3656-3", "url2": "https://www.kaigokensaku.mhlw.go.jp/07/index.php?action_kouhyou_detail_004_kani=true&JigyosyoCd=0750885014-00&ServiceCd=220&Type=search" }, "geometry": { "type": "Point", "coordinates": [ 139.8699967, 37.6836482 ] } },
{ "type": "Feature", "properties": { "内容": "介護老人保健施設　ケアホームやまと【短期入所療養介護（介護老人保健施設）】福島県喜多方市山都町木幡字鼬塚丁１５７１", "url2": "https://www.kaigokensaku.mhlw.go.jp/07/index.php?action_kouhyou_detail_004_kani=true&JigyosyoCd=0752580019-00&ServiceCd=220&Type=search" }, "geometry": { "type": "Point", "coordinates": [ 139.775271, 37.6547738 ] } },
{ "type": "Feature", "properties": { "内容": "介護老人保健施設　　　　　　森の都【短期入所療養介護（介護老人保健施設）】福島県相馬市柚木字大関70-１", "url2": "https://www.kaigokensaku.mhlw.go.jp/07/index.php?action_kouhyou_detail_004_kani=true&JigyosyoCd=0750980013-00&ServiceCd=220&Type=search" }, "geometry": { "type": "Point", "coordinates": [ 140.955335699999978, 37.7443884 ] } },
{ "type": "Feature", "properties": { "内容": "介護老人保健施設ベテランズサークル【短期入所療養介護（介護老人保健施設）】福島県相馬市小泉字高池319-1", "url2": "https://www.kaigokensaku.mhlw.go.jp/07/index.php?action_kouhyou_detail_004_kani=true&JigyosyoCd=0750985012-00&ServiceCd=220&Type=search" }, "geometry": { "type": "Point", "coordinates": [ 140.919208199999957, 37.8074731 ] } },
{ "type": "Feature", "properties": { "内容": "二本松病院附属介護老人保健施設【短期入所療養介護（介護老人保健施設）】福島県二本松市成田町１丁目８６７番地", "url2": "https://www.kaigokensaku.mhlw.go.jp/07/index.php?action_kouhyou_detail_004_kani=true&JigyosyoCd=0751085010-00&ServiceCd=220&Type=search" }, "geometry": { "type": "Point", "coordinates": [ 140.4215742, 37.5910489 ] } },
{ "type": "Feature", "properties": { "内容": "介護老人保健施設あだたら【短期入所療養介護（介護老人保健施設）】福島県二本松市油井字戸ノ内21-1", "url2": "https://www.kaigokensaku.mhlw.go.jp/07/index.php?action_kouhyou_detail_004_kani=true&JigyosyoCd=0751080011-00&ServiceCd=220&Type=search" }, "geometry": { "type": "Point", "coordinates": [ 140.4644559, 37.614656 ] } },
{ "type": "Feature", "properties": { "内容": "介護老人保健施設　やまびこ苑【短期入所療養介護（介護老人保健施設）】福島県二本松市住吉100", "url2": "https://www.kaigokensaku.mhlw.go.jp/07/index.php?action_kouhyou_detail_004_kani=true&JigyosyoCd=0751085028-00&ServiceCd=220&Type=search" }, "geometry": { "type": "Point", "coordinates": [ 140.403902199999948, 37.5545189 ] } },
{ "type": "Feature", "properties": { "内容": "介護老人保健施設　滝根「聖・オリオンの郷」【短期入所療養介護（介護老人保健施設）】福島県田村市滝根町神俣字大平２６６－３", "url2": "https://www.kaigokensaku.mhlw.go.jp/07/index.php?action_kouhyou_detail_004_kani=true&JigyosyoCd=0751180019-00&ServiceCd=220&Type=search" }, "geometry": { "type": "Point", "coordinates": [ 140.678557500000011, 37.3261503 ] } },
{ "type": "Feature", "properties": { "内容": "介護老人保健施設　桜美苑【短期入所療養介護（介護老人保健施設）】福島県田村市船引町船引字馬場41-2", "url2": "https://www.kaigokensaku.mhlw.go.jp/07/index.php?action_kouhyou_detail_004_kani=true&JigyosyoCd=0753185016-00&ServiceCd=220&Type=search" }, "geometry": { "type": "Point", "coordinates": [ 140.569058899999959, 37.4424771 ] } },
{ "type": "Feature", "properties": { "内容": "介護老人保健施設ヨッシーランド【短期入所療養介護（介護老人保健施設）】原町区石神字赤坂１１０番地１", "url2": "https://www.kaigokensaku.mhlw.go.jp/07/index.php?action_kouhyou_detail_004_kani=true&JigyosyoCd=0751280017-00&ServiceCd=220&Type=search" }, "geometry": { "type": "Point", "coordinates": [ 140.924366700000064, 37.6434999 ] } },
{ "type": "Feature", "properties": { "内容": "介護老人保健施設　長生院【短期入所療養介護（介護老人保健施設）】福島県南相馬市原町区本町一丁目１４１番地", "url2": "https://www.kaigokensaku.mhlw.go.jp/07/index.php?action_kouhyou_detail_004_kani=true&JigyosyoCd=0750685018-00&ServiceCd=220&Type=search" }, "geometry": { "type": "Point", "coordinates": [ 140.95988669999997, 37.6392056 ] } },
{ "type": "Feature", "properties": { "内容": "福島県厚生農業協同組合連合会鹿島厚生病院併設介護老人保健施設厚寿苑【短期入所療養介護（介護老人保健施設）】福島県南相馬市鹿島区横手字八郎内３番地", "url2": "https://www.kaigokensaku.mhlw.go.jp/07/index.php?action_kouhyou_detail_004_kani=true&JigyosyoCd=0753385012-00&ServiceCd=220&Type=search" }, "geometry": { "type": "Point", "coordinates": [ 140.962727212164282, 37.708970928067757 ] } },
{ "type": "Feature", "properties": { "内容": "プライムケア桃花林【短期入所療養介護（介護老人保健施設）】福島県伊達市保原町字岡代9番地1", "url2": "https://www.kaigokensaku.mhlw.go.jp/07/index.php?action_kouhyou_detail_004_kani=true&JigyosyoCd=0752085019-00&ServiceCd=220&Type=search" }, "geometry": { "type": "Point", "coordinates": [ 140.561789099999942, 37.810914 ] } },
{ "type": "Feature", "properties": { "内容": "医療法人慈久会　介護老人保健施設明生苑【短期入所療養介護（介護老人保健施設）】福島県本宮市本宮字南町裡１４９番地", "url2": "https://www.kaigokensaku.mhlw.go.jp/07/index.php?action_kouhyou_detail_004_kani=true&JigyosyoCd=0752185017-00&ServiceCd=220&Type=search" }, "geometry": { "type": "Point", "coordinates": [ 140.402000700000031, 37.5162755 ] } },
{ "type": "Feature", "properties": { "内容": "介護老人保健施設　まゆみの里【短期入所療養介護（介護老人保健施設）】福島県本宮市青田字花掛20番地", "url2": "https://www.kaigokensaku.mhlw.go.jp/07/index.php?action_kouhyou_detail_004_kani=true&JigyosyoCd=0752185025-00&ServiceCd=220&Type=search" }, "geometry": { "type": "Point", "coordinates": [ 140.392885100000058, 37.5021603 ] } },
{ "type": "Feature", "properties": { "内容": "介護老人保健施設　桑折「聖・オリーブの郷」【短期入所療養介護（介護老人保健施設）】福島県伊達郡桑折町大字上郡字内記1番地1", "url2": "https://www.kaigokensaku.mhlw.go.jp/07/index.php?action_kouhyou_detail_004_kani=true&JigyosyoCd=0752080010-00&ServiceCd=220&Type=search" }, "geometry": { "type": "Point", "coordinates": [ 140.522957200000064, 37.848748 ] } },
{ "type": "Feature", "properties": { "内容": "介護老人保健施設　めがみ【短期入所療養介護（介護老人保健施設）】福島県伊達郡川俣町字五百田２０－１", "url2": "https://www.kaigokensaku.mhlw.go.jp/07/index.php?action_kouhyou_detail_004_kani=true&JigyosyoCd=0752080044-00&ServiceCd=220&Type=search" }, "geometry": { "type": "Point", "coordinates": [ 140.59881340000004, 37.6662552 ] } },
{ "type": "Feature", "properties": { "内容": "介護老人保健施設　リハビリ南東北川俣【短期入所療養介護（介護老人保健施設）】福島県伊達郡川俣町大字鶴沢字池ノ上30-1", "url2": "https://www.kaigokensaku.mhlw.go.jp/07/index.php?action_kouhyou_detail_004_kani=true&JigyosyoCd=0752080036-00&ServiceCd=220&Type=search" }, "geometry": { "type": "Point", "coordinates": [ 140.575051700000017, 37.6636992 ] } },
{ "type": "Feature", "properties": { "内容": "只見町介護老人保健施設「こぶし苑」【短期入所療養介護（介護老人保健施設）】福島県南会津郡只見町大字長浜字唱平３１番地", "url2": "https://www.kaigokensaku.mhlw.go.jp/07/index.php?action_kouhyou_detail_004_kani=true&JigyosyoCd=0752385013-00&ServiceCd=220&Type=search" }, "geometry": { "type": "Point", "coordinates": [ 139.374581300000045, 37.3040678 ] } },
{ "type": "Feature", "properties": { "内容": "南会津町介護老人保健施設湯花里苑【短期入所療養介護（介護老人保健施設）】福島県南会津郡南会津町湯ノ花６４８番地", "url2": "https://www.kaigokensaku.mhlw.go.jp/07/index.php?action_kouhyou_detail_004_kani=true&JigyosyoCd=0772300604-00&ServiceCd=220&Type=search" }, "geometry": { "type": "Point", "coordinates": [ 139.522600099999977, 37.0675423 ] } },
{ "type": "Feature", "properties": { "内容": "西会津町介護老人保健施設「憩の森」【短期入所療養介護（介護老人保健施設）】福島県耶麻郡西会津町登世島字田畑乙2042-65", "url2": "https://www.kaigokensaku.mhlw.go.jp/07/index.php?action_kouhyou_detail_004_kani=true&JigyosyoCd=0772500518-00&ServiceCd=220&Type=search" }, "geometry": { "type": "Point", "coordinates": [ 139.639561500000013, 37.5979247 ] } },
{ "type": "Feature", "properties": { "内容": "磐梯町介護老人保健施設「りんどう」【短期入所療養介護（介護老人保健施設）】福島県耶麻郡磐梯町大字磐梯字諏訪山２９２６番地", "url2": "https://www.kaigokensaku.mhlw.go.jp/07/index.php?action_kouhyou_detail_004_kani=true&JigyosyoCd=0772500492-00&ServiceCd=220&Type=search" }, "geometry": { "type": "Point", "coordinates": [ 139.981228, 37.5571353 ] } },
{ "type": "Feature", "properties": { "内容": "かいごろうじんほけんしせつけあてるいなわしろ【短期入所療養介護（介護老人保健施設）】福島県耶麻郡猪苗代町大字川桁字元寺２４０３番地１", "url2": "https://www.kaigokensaku.mhlw.go.jp/07/index.php?action_kouhyou_detail_004_kani=true&JigyosyoCd=0752580068-00&ServiceCd=220&Type=search" }, "geometry": { "type": "Point", "coordinates": [ 140.1533904, 37.5421088 ] } },
{ "type": "Feature", "properties": { "内容": "坂下厚生総合病院併設介護老人保健施設　なごみ【短期入所療養介護（介護老人保健施設）】福島県河沼郡会津坂下町字上柳田2210-1", "url2": "https://www.kaigokensaku.mhlw.go.jp/07/index.php?action_kouhyou_detail_004_kani=true&JigyosyoCd=0752685016-00&ServiceCd=220&Type=search" }, "geometry": { "type": "Point", "coordinates": [ 139.807928822816052, 37.565388386916631 ] } },
{ "type": "Feature", "properties": { "内容": "介護老人保健施設　グリーンケアハイツ【短期入所療養介護（介護老人保健施設）】福島県大沼郡会津美里町荻窪字上野１８５番地", "url2": "https://www.kaigokensaku.mhlw.go.jp/07/index.php?action_kouhyou_detail_004_kani=true&JigyosyoCd=0752785014-00&ServiceCd=220&Type=search" }, "geometry": { "type": "Point", "coordinates": [ 139.808875500000028, 37.4512566 ] } },
{ "type": "Feature", "properties": { "内容": "介護老人保健施設　グリーンケアハイツ【短期入所療養介護（介護老人保健施設）】福島県大沼郡会津美里町萩窪字上野185番地", "url2": "https://www.kaigokensaku.mhlw.go.jp/07/index.php?action_kouhyou_detail_004_kani=true&JigyosyoCd=0752780015-00&ServiceCd=220&Type=search" }, "geometry": { "type": "Point", "coordinates": [ 139.808875500000028, 37.4512566 ] } },
{ "type": "Feature", "properties": { "内容": "介護老人保健施設ニコニコリハビリ【短期入所療養介護（介護老人保健施設）】福島県西白河郡西郷村字下前田東４", "url2": "https://www.kaigokensaku.mhlw.go.jp/07/index.php?action_kouhyou_detail_004_kani=true&JigyosyoCd=0752880013-00&ServiceCd=220&Type=search" }, "geometry": { "type": "Point", "coordinates": [ 140.190645478573657, 37.122922904643005 ] } },
{ "type": "Feature", "properties": { "内容": "介護老人保健施設　泉崎南東北リハビリテーション・ケアセンター【短期入所療養介護（介護老人保健施設）】福島県西白河郡泉崎村大字泉崎字山ヶ入56", "url2": "https://www.kaigokensaku.mhlw.go.jp/07/index.php?action_kouhyou_detail_004_kani=true&JigyosyoCd=0772800819-00&ServiceCd=220&Type=search" }, "geometry": { "type": "Point", "coordinates": [ 140.291996499999982, 37.1572856 ] } },
{ "type": "Feature", "properties": { "内容": "医療法人あさひ会　介護老人保健施設　南東北プロヴィデンス【短期入所療養介護（介護老人保健施設）】福島県西白河郡矢吹町文京町226", "url2": "https://www.kaigokensaku.mhlw.go.jp/07/index.php?action_kouhyou_detail_004_kani=true&JigyosyoCd=0752880047-00&ServiceCd=220&Type=search" }, "geometry": { "type": "Point", "coordinates": [ 140.3387812, 37.1882167 ] } },
{ "type": "Feature", "properties": { "内容": "介護老人保健施設ほのぼの【短期入所療養介護（介護老人保健施設）】福島県西白河郡矢吹町井戸尻４４５番地６", "url2": "https://www.kaigokensaku.mhlw.go.jp/07/index.php?action_kouhyou_detail_004_kani=true&JigyosyoCd=0752880039-00&ServiceCd=220&Type=search" }, "geometry": { "type": "Point", "coordinates": [ 140.308841900000061, 37.2052045 ] } },
{ "type": "Feature", "properties": { "内容": "塙厚生病院併設　介護老人保健施設久慈の郷【短期入所療養介護（介護老人保健施設）】福島県東白川郡塙町大字塙字材木町14番地", "url2": "https://www.kaigokensaku.mhlw.go.jp/07/index.php?action_kouhyou_detail_004_kani=true&JigyosyoCd=0752985010-00&ServiceCd=220&Type=search" }, "geometry": { "type": "Point", "coordinates": [ 140.409109, 36.9605479 ] } },
{ "type": "Feature", "properties": { "内容": "介護老人保健施設オルキス【短期入所療養介護（介護老人保健施設）】福島県石川郡石川町大字沢井字西ノ作89-40", "url2": "https://www.kaigokensaku.mhlw.go.jp/07/index.php?action_kouhyou_detail_004_kani=true&JigyosyoCd=0753080035-00&ServiceCd=220&Type=search" }, "geometry": { "type": "Point", "coordinates": [ 140.391789900000049, 37.1389778 ] } },
{ "type": "Feature", "properties": { "内容": "（医）誠励会　医療併設型介護老人保健施設　いしかわリハビリテーション・ケアセンター【短期入所療養介護（介護老人保健施設）】福島県石川郡石川町字新町46-1", "url2": "https://www.kaigokensaku.mhlw.go.jp/07/index.php?action_kouhyou_detail_004_kani=true&JigyosyoCd=0753080068-00&ServiceCd=220&Type=search" }, "geometry": { "type": "Point", "coordinates": [ 140.454547899999966, 37.1484042 ] } },
{ "type": "Feature", "properties": { "内容": "（医）誠励会介護老人保健施設ひらたリハビリテーション・ケアセンター【短期入所療養介護（介護老人保健施設）】福島県石川郡平田村上蓬田字清水内18-2", "url2": "https://www.kaigokensaku.mhlw.go.jp/07/index.php?action_kouhyou_detail_004_kani=true&JigyosyoCd=0753080043-00&ServiceCd=220&Type=search" }, "geometry": { "type": "Point", "coordinates": [ 140.568545399999948, 37.2438132 ] } },
{ "type": "Feature", "properties": { "内容": "（医）誠励会介護老人保健施設サテライト大久田リハビリテーション・ケアセンター【短期入所療養介護（介護老人保健施設）】福島県石川郡古殿町大字大久田字石神44-1", "url2": "https://www.kaigokensaku.mhlw.go.jp/07/index.php?action_kouhyou_detail_004_kani=true&JigyosyoCd=0753080050-00&ServiceCd=220&Type=search" }, "geometry": { "type": "Point", "coordinates": [ 140.596824049737506, 37.091986901539833 ] } },
{ "type": "Feature", "properties": { "内容": "介護老人保健施設　三春南東北リハビリテーション・ケアセンター【短期入所療養介護（介護老人保健施設）】福島県田村郡三春町大字山田字クルミヤツ3-3", "url2": "https://www.kaigokensaku.mhlw.go.jp/07/index.php?action_kouhyou_detail_004_kani=true&JigyosyoCd=0753180017-00&ServiceCd=220&Type=search" }, "geometry": { "type": "Point", "coordinates": [ 140.448194699999931, 37.4266348 ] } }
]
}
